{"type": "FeatureCollection", "features": [{"type": "Feature", "properties": {"uga": "10", "politica": "conservacion", "procedencia": {"metodo": "digitalizacion-semiautomatica", "fuente": "Mapa de ubicación de la ficha UGA 10, Boletín Oficial No. 12 (12-mar-2014), p. 182 del PDF", "datum": "UTM 12N con desplazamiento de +30 m E y +165 m N ajustado contra la costa (INC-011)", "correccion_borde_px": 1.4, "precision_aprox_m": 115.0, "escala_por_superficie": false, "revisada_en_qgis": false}, "control": {"residuo_georreferencia_m": 28.8, "area_digitalizada_ha": 17916.42, "escala_por_superficie": false, "superficie_ficha_ha": 17833.26, "diferencia_area_pct": 0.5}}, "geometry": {"type": "Polygon", "coordinates": [[[-111.75513484949708, 26.423053701305324], [-111.75343748405672, 26.42154323137339], [-111.75342341813942, 26.419378826901408], [-111.75399790382619, 26.418855466457586], [-111.75339975197831, 26.415736621771877], [-111.75454868316334, 26.414689899081953], [-111.75451821688156, 26.410007061716392], [-111.75504675559259, 26.409525513667976], [-111.75450860394453, 26.40852926060978], [-111.7527561824993, 26.407404218364288], [-111.75102612106869, 26.407933645301593], [-111.74954409627807, 26.40928382682618], [-111.7474669093604, 26.40795228702646], [-111.74342888323751, 26.40901399775769], [-111.74178999086192, 26.407555110441933], [-111.74176337556241, 26.40339257218377], [-111.73991550543356, 26.401747528493072], [-111.72787436243014, 26.40180929278529], [-111.72614751883617, 26.402858739162053], [-111.7244141461864, 26.402867526268302], [-111.72326505113935, 26.40391401185953], [-111.7209654792341, 26.403925618677306], [-111.72094019673695, 26.399856663973694], [-111.71565643640567, 26.39566846025758], [-111.7133466539631, 26.39777180108912], [-111.71504635983828, 26.39980309066134], [-111.715059697887, 26.401967519717203], [-111.71368068826415, 26.403223213196448], [-111.71160401002042, 26.40189114074888], [-111.71054076362977, 26.401896424999947], [-111.70905833226414, 26.403246196356534], [-111.70814045736877, 26.402428662402187], [-111.70708881943881, 26.402433863615975], [-111.70707937079735, 26.400883357924172], [-111.70822858576783, 26.399836999536735], [-111.7082132158913, 26.397318537600192], [-111.7058804763256, 26.395675442832975], [-111.70347869044001, 26.3978622298059], [-111.70234519734709, 26.401510161788053], [-111.7001615373714, 26.403498147455085], [-111.70012763032072, 26.39787866544261], [-111.69832370869207, 26.395754093973604], [-111.69722035499277, 26.39675857617425], [-111.69548706255652, 26.396767011030494], [-111.6943377598959, 26.397813269206708], [-111.69135658423873, 26.39782770407675], [-111.68970941558747, 26.39679497561115], [-111.68845667441767, 26.39793529427807], [-111.68846544178489, 26.399413119120528], [-111.69021115608341, 26.401486062643173], [-111.69022353719494, 26.40356735613718], [-111.69197245029585, 26.40616059809782], [-111.69083541945025, 26.40928812069958], [-111.69200038649952, 26.410843502795956], [-111.69318454267406, 26.415603954166333], [-111.69213843465036, 26.416556086722572], [-111.68867977904408, 26.41605244545362], [-111.68867106466969, 26.414585083128067], [-111.6875061028144, 26.41302967458324], [-111.685658827833, 26.411383919769364], [-111.68402926522414, 26.41139172176355], [-111.68402061145858, 26.40992435704879], [-111.68251028982166, 26.408578691527616], [-111.68043805646327, 26.409941443399337], [-111.68045942540819, 26.41358370977146], [-111.67643572040176, 26.41724516358949], [-111.67590984680868, 26.418246751682993], [-111.6764473776829, 26.41924331182613], [-111.67771372446877, 26.420371600370085], [-111.68233679387949, 26.420349616668595], [-111.6846606180503, 26.42241985922483], [-111.68755008390994, 26.422405995574362], [-111.68952544236251, 26.42416562954426], [-111.68757415727353, 26.42646450772647], [-111.68377404913355, 26.42887628099808], [-111.68470364873501, 26.42970437096219], [-111.68875533944635, 26.430725582375683], [-111.68991740348646, 26.43176065184249], [-111.69329891067017, 26.432784965150493], [-111.69848158545659, 26.42963772295515], [-111.7031050041389, 26.42961506055759], [-111.70425453412723, 26.428568731835814], [-111.70655460315966, 26.428557383819427], [-111.70656037693604, 26.429504418102088], [-111.70782712489633, 26.430632430302555], [-111.70898298767568, 26.430626702967633], [-111.7130477152413, 26.43372849572397], [-111.71409963567265, 26.433723244964696], [-111.71410547242061, 26.434670277010074], [-111.71502364940926, 26.435487762985872], [-111.71364424971743, 26.43674345839515], [-111.71066208539686, 26.436758315694874], [-111.70486980187161, 26.43470565562354], [-111.69967137106634, 26.43525152902098], [-111.69850918605151, 26.43421654176494], [-111.69571178782147, 26.43423018322835], [-111.69445871140218, 26.435370555364138], [-111.6945049413112, 26.44308175377563], [-111.6916265823872, 26.443095711851683], [-111.68998783454643, 26.4416362341955], [-111.68997853628322, 26.44007527236528], [-111.68765425749734, 26.438005130103438], [-111.68764190387088, 26.435923845505766], [-111.68521322477015, 26.43376055467282], [-111.67894202893265, 26.432749802469672], [-111.67480813272718, 26.435464668747006], [-111.67482280213451, 26.437983135048974], [-111.67774006061626, 26.442652360588113], [-111.6795877347078, 26.444298203080418], [-111.68180738282707, 26.444287631072104], [-111.68501848431966, 26.441889190703243], [-111.68699414450317, 26.443648849150907], [-111.68701266424753, 26.446770772868792], [-111.6881779697833, 26.44832617163369], [-111.68794930048334, 26.450710354803185], [-111.68877456295367, 26.451445307356103], [-111.68878688310049, 26.453516127981462], [-111.68715672897186, 26.453523977162597], [-111.6859059526395, 26.455101450919525], [-111.68765866753971, 26.45821503340858], [-111.6888426827134, 26.46289233747875], [-111.69175181900417, 26.466000281766302], [-111.69176115173408, 26.467561237347052], [-111.69292673626299, 26.469116587522535], [-111.69467048543241, 26.470669116320956], [-111.69468610922, 26.47327070545294], [-111.69595323352767, 26.474398808846246], [-111.6976876875256, 26.474390345394706], [-111.69874570234829, 26.47533223014905], [-111.69875821389495, 26.477403039465838], [-111.69597139374277, 26.477416649750744], [-111.69356775914618, 26.47960328277996], [-111.69357400092213, 26.480643917489125], [-111.69252732137487, 26.48159605580534], [-111.69021456924537, 26.481607254976407], [-111.68781073822888, 26.483793793652495], [-111.68782312076839, 26.48587506422807], [-111.68677634651574, 26.486827161539246], [-111.68441445371272, 26.486359746068068], [-111.68215369647358, 26.48736965825855], [-111.68008244791775, 26.487160948352464], [-111.67926566295719, 26.487903762478037], [-111.67801682218047, 26.487909699437132], [-111.67337286470453, 26.48480968049013], [-111.67057130470604, 26.482314805715884], [-111.67056225200737, 26.480753846467273], [-111.6675547487073, 26.478592994914898], [-111.66523994111088, 26.480258409135644], [-111.66525191548116, 26.48233969046534], [-111.66305753537429, 26.484857961966842], [-111.66017811838759, 26.48487130617523], [-111.66014597387472, 26.47924138241351], [-111.65781253554135, 26.475609806429425], [-111.6565457617541, 26.474481357933506], [-111.6554934582312, 26.474486192084697], [-111.65548219398569, 26.472498509763795], [-111.65339028451709, 26.47063488740498], [-111.65142301592454, 26.472423475302563], [-111.64554915617536, 26.472450147747885], [-111.64356482634565, 26.471199837271016], [-111.63869801912396, 26.471440279416388], [-111.63466814275093, 26.474580265740514], [-111.63121080547677, 26.47459558952983], [-111.63119666546552, 26.472004426436484], [-111.63172600461745, 26.47152332325721], [-111.63119144084929, 26.47104692413006], [-111.6311744077461, 26.467924975880496], [-111.62942870460533, 26.46585132948977], [-111.62942027030968, 26.464300812935345], [-111.63394113714794, 26.464280820577258], [-111.63542522631373, 26.46293180840309], [-111.6362966697608, 26.463708435384333], [-111.63807453475087, 26.463221741992843], [-111.63977105237171, 26.464733590745734], [-111.64154891743313, 26.464246854157263], [-111.64324549485545, 26.465758660326372], [-111.64527320336634, 26.464438213328933], [-111.64353019892054, 26.462885065835913], [-111.64439300295838, 26.462100670846798], [-111.64350984023412, 26.461313687160747], [-111.64269299426347, 26.462056295734126], [-111.63980251281686, 26.462069270987662], [-111.63865206281936, 26.46311509362635], [-111.63692937738537, 26.46312278521138], [-111.63690938956213, 26.459490971189407], [-111.63772625564951, 26.458748395078096], [-111.63390066635418, 26.456892204428403], [-111.6310103089196, 26.456904999474936], [-111.62995300593329, 26.455962597132256], [-111.6299473427977, 26.454921945422107], [-111.62868106623644, 26.453793237489894], [-111.62762894506753, 26.453797862974668], [-111.62760688744612, 26.449728858307537], [-111.62517339291682, 26.446523882168275], [-111.62353169761127, 26.44653105455779], [-111.61997680255499, 26.44976216620557], [-111.61998187356996, 26.450709214317033], [-111.61892977867954, 26.45071377525548], [-111.61767575624306, 26.451853488730077], [-111.61768080889959, 26.452800536976916], [-111.61538021711631, 26.452810463721708], [-111.61305698379992, 26.4507390921141], [-111.6120048872652, 26.450743602072496], [-111.61199988148635, 26.44979655254185], [-111.61025753940581, 26.448242984117712], [-111.61024657123787, 26.446161670518965], [-111.60907958424116, 26.444085287639215], [-111.60848517263071, 26.4409657763334], [-111.60663854268708, 26.439318994655633], [-111.60374318530515, 26.43829057139866], [-111.59909242291046, 26.433106723537296], [-111.59735855344017, 26.433113979046706], [-111.59572111328603, 26.431653394675536], [-111.59571308881489, 26.4300924017242], [-111.59328621616491, 26.427927514423043], [-111.58924334168734, 26.42846457569048], [-111.58808219257938, 26.427428670796154], [-111.58576784539227, 26.426917828021946], [-111.5835500983536, 26.42493913290648], [-111.58238642099741, 26.42338284707301], [-111.58236509273385, 26.41913703544818], [-111.58466615102523, 26.41704627202267], [-111.58465869970804, 26.415568420948077], [-111.58339329402679, 26.41443929075212], [-111.5806041255424, 26.416011672384304], [-111.5771317064814, 26.414985037862976], [-111.57507223345551, 26.41685611347617], [-111.57309870486057, 26.415094863973646], [-111.57251056050572, 26.41301584081069], [-111.57008447705931, 26.410850541538778], [-111.56903273441927, 26.410854729264162], [-111.56902808822497, 26.409907667096356], [-111.56776289480982, 26.408778394227106], [-111.56497765480066, 26.408789421535122], [-111.56496797381114, 26.406801687351408], [-111.56438761352982, 26.40628363249029], [-111.56436442902759, 26.40151746131287], [-111.56489373493234, 26.40103660166277], [-111.56434964982665, 26.398478593215984], [-111.56260367506168, 26.395883736655087], [-111.56258349901177, 26.39172104277702], [-111.55967967700619, 26.38861034568586], [-111.55967215219262, 26.38704933339682], [-111.5573487395266, 26.38445666180925], [-111.55732876192198, 26.380293957536946], [-111.55615841729262, 26.37717642047833], [-111.55638470369053, 26.37375170198791], [-111.55556082716079, 26.373015953596617], [-111.55555087484605, 26.370934597804922], [-111.55380056121204, 26.367298935450428], [-111.55378568417129, 26.364176898109317], [-111.55204047352134, 26.361581888385366], [-111.55202525264713, 26.358376698305158], [-111.55255441745787, 26.357895883707826], [-111.55138264853596, 26.356849239605797], [-111.54971479651593, 26.358364664522373], [-111.54969521393902, 26.354222858451536], [-111.55142051721087, 26.35265517746072], [-111.55141597668322, 26.351697645356765], [-111.54967347038854, 26.349622939583995], [-111.54965379793683, 26.34546020965215], [-111.5467514968133, 26.34234920665882], [-111.54616421566877, 26.340270040892612], [-111.54442441157066, 26.3387156061722], [-111.54465829730358, 26.3368519111968], [-111.5440783813579, 26.336333762044543], [-111.5449409469711, 26.335549957448418], [-111.54382503310572, 26.334034715707784], [-111.5438153076509, 26.33195334448183], [-111.54207323759472, 26.32987853386456], [-111.54148610687092, 26.327799343047886], [-111.53939864873298, 26.325933942715547], [-111.53790358320485, 26.32729247720443], [-111.5373353222781, 26.329282408152853], [-111.53561459079505, 26.329288847678797], [-111.53247187181418, 26.32648018965932], [-111.53165523360282, 26.327222174395775], [-111.52992292391579, 26.3272285881872], [-111.52877277754051, 26.328273541363934], [-111.5247399439353, 26.327768006322884], [-111.52473103141115, 26.325790695775332], [-111.52866679807723, 26.325255883285774], [-111.52992036763509, 26.32411693758185], [-111.52990852694998, 26.321515213912644], [-111.53105622435895, 26.31994990698581], [-111.53104720765081, 26.317972596299043], [-111.53509163182402, 26.32106922248911], [-111.53677992130577, 26.32154168964247], [-111.53788398740141, 26.320538421414966], [-111.54190501366378, 26.32104363405879], [-111.54023754033727, 26.322558950136138], [-111.54203502810998, 26.32416525986041], [-111.54424326390883, 26.324677247039382], [-111.54424769117394, 26.325624324477687], [-111.54604528145218, 26.327230581639974], [-111.547712743632, 26.325715199132556], [-111.54772204645681, 26.327692502245718], [-111.55594528331567, 26.335039380301502], [-111.56289005525966, 26.338134379602835], [-111.5657774923274, 26.33812301005568], [-111.56693753733562, 26.339159126656092], [-111.57666261392056, 26.339120325571905], [-111.57757091068643, 26.338294567852408], [-111.5781509830252, 26.338812578767527], [-111.57896739943585, 26.338070333776052], [-111.58069985605542, 26.33806332470529], [-111.58588412267592, 26.335440478099198], [-111.58703906629992, 26.335435752410557], [-111.59312590218734, 26.330946148635824], [-111.59626118548452, 26.334263376106737], [-111.59627760865502, 26.337468552068422], [-111.59488648449583, 26.338733629753815], [-111.59604679007397, 26.33976950619974], [-111.59409234958214, 26.341546807130765], [-111.59178499048988, 26.342076702749075], [-111.590531847264, 26.34321617998132], [-111.5905367080652, 26.344173706675846], [-111.59145330280259, 26.344992024567524], [-111.59054505508216, 26.345817868738184], [-111.59055562263413, 26.347899219059], [-111.58941068263539, 26.349902176435226], [-111.59241602807404, 26.352585131669166], [-111.5947315753759, 26.353616233426248], [-111.60164286833205, 26.358749271505044], [-111.60285013233745, 26.35765146705359], [-111.60628034151419, 26.350872478489137], [-111.61145089945532, 26.34564703329485], [-111.61258127835636, 26.34095907828174], [-111.61430003088883, 26.33834998302034], [-111.61368456995194, 26.33115089842919], [-111.61193581353149, 26.328036283694754], [-111.61192487294433, 26.32595493579079], [-111.61076456912805, 26.324919185956936], [-111.6107536509733, 26.32283783669199], [-111.60959066499102, 26.321281738606572], [-111.6095607054155, 26.315558022505563], [-111.60839780995718, 26.314001911625674], [-111.60838422184287, 26.311400219839598], [-111.60721867257627, 26.3093237588282], [-111.60720782523106, 26.30724240366126], [-111.6060450461836, 26.305686269915945], [-111.6060369275836, 26.304125252466047], [-111.60370340996298, 26.29945193358247], [-111.60252461992037, 26.29477372693597], [-111.58393475203752, 26.271434682161168], [-111.58392954485659, 26.270393994743134], [-111.5830135994914, 26.26957560955358], [-111.5838754135603, 26.26879157590747], [-111.58218252141013, 26.267278961979926], [-111.57925553613805, 26.25896511765686], [-111.57809361989949, 26.25740873259127], [-111.57807826853126, 26.25430757948276], [-111.57980557955845, 26.25585122483389], [-111.58500710248057, 26.257391199412698], [-111.58959323003832, 26.26045299967007], [-111.59127336082618, 26.259446958781197], [-111.59531302395342, 26.25943027088271], [-111.59623212374731, 26.258593891088232], [-111.59565237907746, 26.25807594213209], [-111.59655991940981, 26.25725006784606], [-111.596541791253, 26.253701271646033], [-111.59850493559065, 26.25391170682804], [-111.599079333321, 26.2533889576771], [-111.59999525978776, 26.254207242474646], [-111.60288059974759, 26.254195161146242], [-111.6080904637925, 26.25729532382225], [-111.61331153585611, 26.262476657714956], [-111.6155161447001, 26.262467225451044], [-111.61669185532713, 26.266531393254866], [-111.61760800791113, 26.267349560253127], [-111.6170336274038, 26.267872382253504], [-111.6178653914764, 26.27016881592007], [-111.6208692836538, 26.27285122899183], [-111.62433779888151, 26.273876890721464], [-111.62597332814364, 26.275337212688065], [-111.62773003403237, 26.280012703096215], [-111.62947565145708, 26.282606812889608], [-111.62950418504428, 26.2878933445848], [-111.62754797260656, 26.29124261426218], [-111.62812802409253, 26.291760426604693], [-111.6272204484003, 26.292586497311245], [-111.62551380976312, 26.29727709830481], [-111.62414855848034, 26.303225491691645], [-111.62507671695455, 26.30405400958738], [-111.62728210684452, 26.30404438263039], [-111.62729280727619, 26.30603212273932], [-111.62962177586768, 26.3096643615385], [-111.62963909916968, 26.312869528445507], [-111.62217238830314, 26.320186998539725], [-111.62218584540614, 26.322705531701306], [-111.62509521797087, 26.32685566112347], [-111.62568382984666, 26.328934484453], [-111.62630371283386, 26.33682013852058], [-111.62227808665664, 26.339959756704804], [-111.62118013726383, 26.342004333116016], [-111.62239873458077, 26.34309177418156], [-111.62864740294484, 26.343064497869182], [-111.62865252091358, 26.344011558534987], [-111.63190240410414, 26.34691120244957], [-111.63271852667079, 26.346168657059454], [-111.63454337309928, 26.34616058743094], [-111.63792691372248, 26.350214718454605], [-111.64209134274977, 26.353411795399634], [-111.64546437931381, 26.35339663775153], [-111.64661370132853, 26.35235076545859], [-111.64948983711992, 26.35233775532153], [-111.64950721760252, 26.355449283640354], [-111.64811937382993, 26.357235199616092], [-111.64836903589257, 26.35849335535303], [-111.65069391614337, 26.361084532730047], [-111.6507002072829, 26.36220834162698], [-111.64902204757661, 26.363735412407728], [-111.64955617862324, 26.364211759700435], [-111.64957647849961, 26.36784361306776], [-111.64785521144285, 26.367851410361034], [-111.64437502750603, 26.3652653930996], [-111.64331210158835, 26.36527017163193], [-111.64158787768315, 26.36683893849131], [-111.63985501200806, 26.366846691374796], [-111.63802731649344, 26.368509487652894], [-111.6380444597908, 26.371631475153297], [-111.63694365085297, 26.373155832705013], [-111.64037752966476, 26.37570065901039], [-111.64040908690133, 26.381424293333176], [-111.64273426307984, 26.384015586527536], [-111.64274624403598, 26.386180052869058], [-111.64159655871788, 26.387225896001265], [-111.64103268328995, 26.389736525776463], [-111.63998114580306, 26.38974123165397], [-111.63815595962508, 26.391924360463832], [-111.63761491511356, 26.398608070933204], [-111.63888066213765, 26.399736717725144], [-111.64109947550622, 26.399726793407826], [-111.64349961405996, 26.3970207023345], [-111.64349436304258, 26.396073651416515], [-111.6469464493899, 26.39553774463806], [-111.64868555717146, 26.39657055460307], [-111.65031492338977, 26.396563159079765], [-111.65090675878952, 26.399068565294655], [-111.65183588476734, 26.39989688127562], [-111.65275565769763, 26.399060142659685], [-111.65272399361795, 26.393430142908603], [-111.65444563812464, 26.393422280048767], [-111.65724171799131, 26.395397221346595], [-111.65726234535833, 26.399039512413477], [-111.66074680183847, 26.402145506527788], [-111.66019263350844, 26.406300326461643], [-111.6579853175413, 26.406310495775546], [-111.65385771095643, 26.41006541114356], [-111.65330859923307, 26.41516725181246], [-111.6498385278969, 26.41259181900641], [-111.64785816916806, 26.41395368712398], [-111.65043108520102, 26.417282644940464], [-111.65136035674335, 26.41811095927078], [-111.65251025199954, 26.41706503813294], [-111.6530910531357, 26.417582726756535], [-111.65366599282598, 26.417059760511588], [-111.65623077951632, 26.418910777712746], [-111.65863685694806, 26.417245090611626], [-111.65977779540529, 26.414638135109794], [-111.66438276822046, 26.41149478315492], [-111.6643713227221, 26.40949662780877], [-111.66320970971026, 26.40846133889062], [-111.66318841181698, 26.40473590993583], [-111.66744203762437, 26.400865614395858], [-111.66884208209244, 26.40116082112465], [-111.6720608255077, 26.39823183611214], [-111.66996701976127, 26.395848090800914], [-111.66775691333164, 26.395338080840478], [-111.66773955172897, 26.392320187519047], [-111.67176914366809, 26.391780989064703], [-111.67640623987776, 26.39436084717503], [-111.67896125147453, 26.394567342887925], [-111.67953596047457, 26.394044275399025], [-111.68011676197068, 26.394561855849656], [-111.68070301769785, 26.394028269520536], [-111.68044682108851, 26.391729534142705], [-111.67918076756929, 26.39060125977406], [-111.6769737587451, 26.390611716300906], [-111.67695306639193, 26.387063041708153], [-111.67487104204086, 26.38468976667709], [-111.67544572202226, 26.38416671548487], [-111.67461196306544, 26.381870688700875], [-111.66764375281198, 26.37565925942077], [-111.66763729405984, 26.37453545647503], [-111.6692578915383, 26.373060474285726], [-111.67108314684057, 26.373051931270858], [-111.67224446684935, 26.37408716678814], [-111.67388512128223, 26.374079454412247], [-111.67686160695085, 26.371370099082043], [-111.67684948261943, 26.36928879040901], [-111.677998670127, 26.36824267094978], [-111.67856164962828, 26.36573190521782], [-111.68191179759512, 26.365715992563338], [-111.68249802672533, 26.367180615332014], [-111.68252553345438, 26.371863554866163], [-111.68344298510341, 26.372681264905456], [-111.68286839749734, 26.373204347232832], [-111.68256576594331, 26.378710942437017], [-111.6820370569381, 26.37919222806244], [-111.68441810956396, 26.381314259853593], [-111.68845139586197, 26.37755893065806], [-111.68844269904632, 26.376091560367794], [-111.68949410258354, 26.376086500875452], [-111.69064323954906, 26.37504028182638], [-111.69698584744295, 26.37500954652012], [-111.69758168931362, 26.37803507419725], [-111.70198645114188, 26.38040710427305], [-111.70348023000211, 26.379046890024206], [-111.70347077585727, 26.37748591902429], [-111.70576879886147, 26.375393252471184], [-111.70632487975257, 26.371841743725724], [-111.70968679522302, 26.371825120544745], [-111.71151349422655, 26.37016142938095], [-111.71149756403102, 26.367559812151995], [-111.71263365346007, 26.364432126697547], [-111.71597669499864, 26.361387025190268], [-111.71886462269151, 26.361372559767165], [-111.72231073394698, 26.358233187188777], [-111.72576965138765, 26.357175025136105], [-111.72922197699897, 26.35507613595267], [-111.73037708224852, 26.355070251252368], [-111.73382269305975, 26.351930609314635], [-111.73555530214489, 26.351921724109697], [-111.73670378170196, 26.350875145381845], [-111.7410827978484, 26.351071155646824], [-111.74165701065733, 26.35054784579439], [-111.74223786023121, 26.351065176153263], [-111.7442050159938, 26.349795699974393], [-111.74592598037732, 26.349786750329997], [-111.74593205487982, 26.3507337867516], [-111.74709379822546, 26.351768409423002], [-111.74710436152414, 26.353412517070318], [-111.74203302562479, 26.356987633270712], [-111.74030034358651, 26.356996598404958], [-111.73627059702444, 26.359098721071625], [-111.72986953061469, 26.368070841743407], [-111.72757209305833, 26.37016388535367], [-111.72873988121107, 26.372156149772586], [-111.72875672232364, 26.374840901695745], [-111.72760793825618, 26.375887419660838], [-111.72761387037319, 26.376834456541484], [-111.72473717554882, 26.37684904752619], [-111.72125828205942, 26.37478526331561], [-111.71952074066922, 26.375928290496464], [-111.71952660686604, 26.37687532906724], [-111.71674221522511, 26.376889295490827], [-111.71492189491217, 26.3795936970788], [-111.70859919737887, 26.384828517477253], [-111.7086145672238, 26.387346983598825], [-111.70953232346216, 26.388164518566185], [-111.70805005152329, 26.389514278736304], [-111.7089821681906, 26.39077939401446], [-111.7110490538071, 26.39055054562032], [-111.7144786320666, 26.39205290341827], [-111.71500726088195, 26.391571500336156], [-111.71678958513603, 26.39204134747953], [-111.71731820410044, 26.39155993605675], [-111.71996552972803, 26.391765236739452], [-111.72284125050255, 26.38966939313642], [-111.72342221835773, 26.39018679468925], [-111.72491133304983, 26.389960665908504], [-111.73013377853046, 26.393576473008352], [-111.73360681831178, 26.39459938312922], [-111.73524774088756, 26.39459096161063], [-111.73869767288961, 26.391971516429024], [-111.74157473334473, 26.391956637065668], [-111.74158078358181, 26.392903668847303], [-111.74622611084185, 26.39652186649082], [-111.7462328021362, 26.397562501227007], [-111.7498240867321, 26.40075934131439], [-111.75088731336481, 26.400753765372087], [-111.752610519942, 26.399183709042536], [-111.75607713224107, 26.399165433007532], [-111.75838140450333, 26.39811257074003], [-111.76194030541895, 26.39809366399042], [-111.76252148656448, 26.398610901578976], [-111.76656240097043, 26.39806897685845], [-111.76738776681022, 26.39880347843788], [-111.76830667913444, 26.39796601426486], [-111.76830040947553, 26.397018988999324], [-111.7693519837955, 26.39701333895642], [-111.77060390193446, 26.395872328860257], [-111.7711712803959, 26.39430827290358], [-111.771402163848, 26.392527436290493], [-111.77057681893595, 26.391792956806952], [-111.77056307308717, 26.38972215611761], [-111.7739103759002, 26.389183761635813], [-111.77391668916988, 26.390130786684853], [-111.77974632488409, 26.397904132469453], [-111.7797567431526, 26.399454613179646], [-111.77292747617172, 26.399491667557918], [-111.77052690624862, 26.401679553666888], [-111.77053319535861, 26.402626577819152], [-111.76774821836042, 26.40264154966854], [-111.76602173598158, 26.40369146976752], [-111.7636209479314, 26.4058792434714], [-111.76135414111803, 26.412655652219634], [-111.75905982895878, 26.41526950960327], [-111.75909334803747, 26.42038950759651], [-111.76025591952641, 26.421423995908402], [-111.76026956894641, 26.42350525125245], [-111.76085087321476, 26.424022491207648], [-111.76030711252407, 26.429228700290697], [-111.76263247894555, 26.431297640276682], [-111.76263987498874, 26.43242141094779], [-111.76149084709623, 26.43346819830137], [-111.76149707110862, 26.43441522024946], [-111.7598672120538, 26.43442389315677], [-111.75689112849271, 26.43713494516111], [-111.7569353285651, 26.44389901320634], [-111.75579632401698, 26.446506694647418], [-111.75411838676024, 26.448034977071828], [-111.7546533364995, 26.448510909675147], [-111.75468100977581, 26.452756554233808], [-111.75353455696472, 26.45424044802414], [-111.75586371713436, 26.45682979470482], [-111.75588063855389, 26.459420894759738], [-111.75068963422669, 26.45944826682562], [-111.74986392939822, 26.458713682040177], [-111.74674894715996, 26.461550240991265], [-111.74261000322704, 26.46157181741261], [-111.73865142032079, 26.45908429425743], [-111.7386077287571, 26.452237067130078], [-111.73965376106726, 26.451284600443685], [-111.74437036973474, 26.45126010735066], [-111.74548667793232, 26.452253375630594], [-111.74750959190257, 26.450411189843084], [-111.7469282102233, 26.449893899080216], [-111.74783611800193, 26.449067080072794], [-111.74778908011028, 26.441782688843883], [-111.74892485908451, 26.438654752652756], [-111.75352489569482, 26.43498825621731], [-111.75349106062508, 26.429785116939367], [-111.75463335094466, 26.427697764390732], [-111.75460625097824, 26.423535250094197], [-111.75513484949708, 26.423053701305324]], [[-111.55714110828949, 26.3532054297619], [-111.55882534939879, 26.35272009555024], [-111.55974543845274, 26.351883943972336], [-111.55823480014844, 26.3500165781781], [-111.5571719968097, 26.35002071519559], [-111.5559184243688, 26.35115989535958], [-111.55592300186196, 26.352117426805115], [-111.55714110828949, 26.3532054297619]], [[-111.58312599282029, 26.409559604703375], [-111.58427643210567, 26.408514221702294], [-111.58485689093793, 26.40903219406803], [-111.58544366494765, 26.408498990108487], [-111.58485153850702, 26.40797060833715], [-111.58427632674062, 26.40849330323425], [-111.58311542483993, 26.407457351058472], [-111.58102732177274, 26.408204789094864], [-111.58312599282029, 26.409559604703375]], [[-111.58058828454047, 26.40820657161456], [-111.57935822765234, 26.407212444118386], [-111.5773307356335, 26.4085319622596], [-111.57879348396354, 26.409837372511184], [-111.58058828454047, 26.40820657161456]], [[-111.64779240992463, 26.46005598206313], [-111.64928784259719, 26.458696317285817], [-111.6452122099453, 26.455582299282334], [-111.64462548258903, 26.45611574442485], [-111.64578742061657, 26.457151171713875], [-111.64488114212384, 26.458414534078806], [-111.6467286156467, 26.46006080191885], [-111.64779240992463, 26.46005598206313]], [[-111.69535795395036, 26.390627643062725], [-111.69800426575432, 26.388741541806457], [-111.69775712241793, 26.388003813203575], [-111.69532616797214, 26.38532033962389], [-111.6925299468008, 26.385333895592535], [-111.69103595779399, 26.38669399853153], [-111.69129235011812, 26.38899271266557], [-111.693139339078, 26.390638405297523], [-111.69535795395036, 26.390627643062725]]]}}]}
