{"type": "FeatureCollection", "features": [{"type": "Feature", "properties": {"uga": "11a", "politica": "preservacion", "procedencia": {"metodo": "digitalizacion-semiautomatica", "fuente": "Mapa de ubicación de la ficha UGA 11a, Boletín Oficial No. 12 (12-mar-2014), p. 185 del PDF", "datum": "UTM 12N con desplazamiento de +30 m E y +165 m N ajustado contra la costa (INC-011)", "correccion_borde_px": 1.4, "precision_aprox_m": 181.0, "escala_por_superficie": false, "revisada_en_qgis": false}, "control": {"residuo_georreferencia_m": 67.9, "area_digitalizada_ha": 28100.37, "escala_por_superficie": false, "superficie_ficha_ha": 28489.88, "diferencia_area_pct": -1.4}}, "geometry": {"type": "MultiPolygon", "coordinates": [[[[-111.59680725177009, 26.060338487607492], [-111.5987107597831, 26.062038228108506], [-111.60037537251844, 26.062031315883864], [-111.60307388176682, 26.059576933030684], [-111.61211463991599, 26.060353268224887], [-111.61391346719869, 26.058716875159664], [-111.61930305023303, 26.058693860182455], [-111.6139283612515, 26.06521986172005], [-111.61304586365961, 26.0692954979697], [-111.6087176923895, 26.074868701435353], [-111.60329506945274, 26.074891469288215], [-111.60149584948743, 26.076527733351277], [-111.59321903622109, 26.07656199056111], [-111.59064225753256, 26.074943802093514], [-111.58832194536333, 26.077053539707396], [-111.5869601687428, 26.075837516497245], [-111.58613149763349, 26.076590948181035], [-111.57514329076851, 26.076635154698305], [-111.57332777954012, 26.07501361835121], [-111.57166297520187, 26.07502022179518], [-111.56986330538427, 26.076656098964445], [-111.56715193461764, 26.076666779170107], [-111.56302744156211, 26.07959757473274], [-111.56159420756755, 26.07831727352452], [-111.55992935311937, 26.07832374239084], [-111.55796839895328, 26.08010585176366], [-111.55797542999808, 26.08158883298006], [-111.55528294403894, 26.081599218569107], [-111.55346762348502, 26.079977430262108], [-111.55001410995759, 26.07999063375664], [-111.55000337427181, 26.077693283070708], [-111.54729395334009, 26.075272408993165], [-111.55615673415265, 26.075238530037492], [-111.5678508897381, 26.06379165999326], [-111.57236934551183, 26.06377381764419], [-111.5741687866332, 26.06213791018553], [-111.57959085090326, 26.062116246409996], [-111.58229382895081, 26.060476609212927], [-111.58515369202996, 26.057876152603964], [-111.58513419292895, 26.053950079290992], [-111.58858692174255, 26.053936048380645], [-111.59038598601622, 26.052299942977168], [-111.5940003839048, 26.052285122277837], [-111.6003089793749, 26.0490015163057], [-111.60392326954579, 26.048986449043653], [-111.60984776140101, 26.041960463258075], [-111.60855653309157, 26.039996847407043], [-111.60852222088083, 26.03334816249621], [-111.61916422354021, 26.026119278557005], [-111.62097101196686, 26.026111526640758], [-111.62276920192731, 26.024475027213455], [-111.62638272519725, 26.02445941157757], [-111.62834171699409, 26.022676393938234], [-111.62833381988234, 26.021193419562472], [-111.6299788527543, 26.021186259145043], [-111.63193773587818, 26.01940319395828], [-111.6319159332962, 26.015331384334118], [-111.63803859959884, 26.00812081539992], [-111.6407483588314, 26.008108832815466], [-111.64254600034769, 26.006472093470325], [-111.64886867531877, 26.006443859693], [-111.65247262825706, 26.004798882077907], [-111.65518230351586, 26.00478663045458], [-111.65714053161662, 26.00300323207555], [-111.6571232176298, 25.999891542554597], [-111.66057431728736, 25.99987582087919], [-111.66778598851718, 25.997399563399316], [-111.66974390240652, 25.995615998615147], [-111.66970235733757, 25.98828677069436], [-111.67582597231583, 25.98188900550834], [-111.68175027457922, 25.978946568769132], [-111.68573101218422, 25.982499058030275], [-111.68229371341987, 25.98251530727153], [-111.67906241858785, 25.98545970042933], [-111.68413372281078, 25.988364998575125], [-111.68760345508872, 25.988348548875628], [-111.69315890247877, 25.984104394173237], [-111.69313587971494, 25.980178363713172], [-111.69837825923977, 25.98096753558008], [-111.69846482492026, 25.9956139391047], [-111.69667293995347, 25.99806571087693], [-111.6967017626443, 26.002951829501786], [-111.69056870935326, 26.00772175276183], [-111.68426489934964, 26.011009228148765], [-111.68013898737732, 26.01558662941564], [-111.68234385039196, 26.019174040686586], [-111.68741284024938, 26.02369597560749], [-111.6859910869608, 26.024991182728662], [-111.68600055768331, 26.026619886921402], [-111.66818131424625, 26.042030754004724], [-111.6653280834465, 26.042043923098003], [-111.66260840380971, 26.040427672766747], [-111.6582427190273, 26.042076381881113], [-111.65101463486366, 26.042109136386767], [-111.64921658158372, 26.043745981082065], [-111.64740953286395, 26.043754091189104], [-111.6429052326296, 26.046217338777957], [-111.63026430414165, 26.047901804801548], [-111.62217095832354, 26.055266296996344], [-111.61855648786576, 26.05528182433369], [-111.61713643382319, 26.056573781777107], [-111.61570290845145, 26.05529401906706], [-111.61223115748264, 26.055308779513787], [-111.61043235738065, 26.056945151877986], [-111.6068178274457, 26.056960386324675], [-111.60411945648494, 26.059414837610692], [-111.59869340167761, 26.05862305799606], [-111.59680725177009, 26.060338487607492]]], [[[-111.71486820336965, 26.151010851778842], [-111.71220009278296, 26.149316493186515], [-111.71024033611175, 26.151100634890273], [-111.71024931394354, 26.15258355769157], [-111.70499485758707, 26.154238089895706], [-111.7030349085165, 26.156022136265545], [-111.70037040757201, 26.16417869987975], [-111.68434179368, 26.17958283675616], [-111.6778723582411, 26.18383099179328], [-111.67789120797681, 26.187088333576952], [-111.67610076679676, 26.190354187034455], [-111.67070086310926, 26.195265604958994], [-111.66891009965254, 26.19853137156481], [-111.66891864115681, 26.200026268932152], [-111.67173776861064, 26.202537636885356], [-111.67848321321934, 26.195583949913782], [-111.68339418876027, 26.19995822586484], [-111.6843131899105, 26.202396922544157], [-111.68629499541939, 26.204161938162706], [-111.68794257212308, 26.204154067192007], [-111.68795128845287, 26.205636986134742], [-111.69357161332387, 26.210641861634787], [-111.69614310336506, 26.210629436327434], [-111.7015523721652, 26.20734573878971], [-111.70440959937602, 26.20733177262487], [-111.70986787365722, 26.21219104401755], [-111.71167749235313, 26.212182099365243], [-111.71349704217114, 26.21380178425796], [-111.71785920675921, 26.213780073028747], [-111.71788411873858, 26.217839727054557], [-111.71608937101917, 26.22029172663208], [-111.71610432897447, 26.222734700814403], [-111.71430947085331, 26.225186678834145], [-111.71432439484401, 26.227629652304422], [-111.71252942628477, 26.230081608754237], [-111.71164926495929, 26.23415771371213], [-111.70627844071885, 26.24395639284123], [-111.70357798307958, 26.246412687070674], [-111.70358779188008, 26.248041335124363], [-111.69639563079942, 26.25621986174152], [-111.69550901080117, 26.259335801707852], [-111.68647625908923, 26.25937926126461], [-111.68465635002632, 26.25775925113492], [-111.67665280628144, 26.25779718105822], [-111.67575234982574, 26.258615770273668], [-111.67122178849013, 26.257822665407538], [-111.66925961596965, 26.25960627032449], [-111.66926811629655, 26.261089183577294], [-111.66385596989441, 26.261114303635342], [-111.6566587570015, 26.256325595856453], [-111.64949764553067, 26.257922549419607], [-111.64679114129818, 26.25956346846312], [-111.64136000868056, 26.259587825181043], [-111.63850549915199, 26.263818057619595], [-111.63400149822176, 26.26790977859065], [-111.63311312218386, 26.271025361405428], [-111.6314645843156, 26.271032621427334], [-111.6269556832047, 26.274309793352398], [-111.62409677294521, 26.27432225017233], [-111.62227747384816, 26.272701440968014], [-111.61881831906375, 26.27271639256448], [-111.61879318468445, 26.267976125147484], [-111.61516835388326, 26.264746253439146], [-111.61861396717514, 26.264731451286497], [-111.62131666356427, 26.262276719265756], [-111.62765315487938, 26.26224916477826], [-111.62954203027367, 26.260533328990025], [-111.62672523961339, 26.25802372555275], [-111.61947515514179, 26.256426468606335], [-111.61400988952178, 26.249935085387623], [-111.61219965057394, 26.249942811281123], [-111.61038090061557, 26.24832183623453], [-111.60782756831071, 26.248332661989018], [-111.60781137933444, 26.245221048687583], [-111.60598431737046, 26.241971333768294], [-111.60595060017077, 26.235468577929918], [-111.6075986441187, 26.235461619582676], [-111.60993776806964, 26.233336953439295], [-111.60773938555893, 26.231377256953014], [-111.60770482905393, 26.224728747609014], [-111.61122926977968, 26.220708893610905], [-111.60765475399934, 26.215090408769463], [-111.6076462948256, 26.213461721907578], [-111.60475645676914, 26.21088506968115], [-111.60220393923225, 26.21089578132322], [-111.60306334912254, 26.202079940949513], [-111.60162528785081, 26.200797529054014], [-111.60395060436784, 26.198684987511506], [-111.60393869234045, 26.19637572498213], [-111.5984646707987, 26.187440589914026], [-111.59841823033035, 26.17834898233505], [-111.60005787870529, 26.176859173969973], [-111.60367610328595, 26.17684404448802], [-111.60743857775925, 26.17342500229831], [-111.60742245237884, 26.170313356358285], [-111.61087858730322, 26.17029873231664], [-111.61284020105614, 26.168515913221665], [-111.61282387323125, 26.16539229670125], [-111.59828592383562, 26.152423546631095], [-111.59645234688956, 26.147544934207524], [-111.59447284319282, 26.1457786257244], [-111.58920469435695, 26.14498589847703], [-111.58918431312318, 26.14092609889835], [-111.5909805748372, 26.138475628545333], [-111.59096894948908, 26.13616634122738], [-111.58551911363917, 26.131302355361544], [-111.58316579478492, 26.127580329053117], [-111.58496604111821, 26.125944287384797], [-111.58457842323367, 26.123976816329645], [-111.58092557312692, 26.11666221626527], [-111.58180481470012, 26.11163864171167], [-111.58360079716799, 26.10918825841426], [-111.5835772037696, 26.104435880789993], [-111.58175308269651, 26.10118574604493], [-111.5752388386207, 26.096179858820292], [-111.56545727975727, 26.096218533946427], [-111.56538375579098, 26.080920466029163], [-111.57081525876065, 26.086582615396892], [-111.57750056952924, 26.082012615955477], [-111.5788623230377, 26.083228727842037], [-111.58239855572185, 26.081650056871347], [-111.58706044262689, 26.08163116693785], [-111.5897124602215, 26.083999172106445], [-111.5955647696593, 26.079496061489632], [-111.60055856600046, 26.083954438763463], [-111.60244787649073, 26.082236372623697], [-111.60333157683861, 26.07830654937129], [-111.60946410737893, 26.078280781832884], [-111.6073022362598, 26.080246974267453], [-111.60868049153915, 26.08147727936767], [-111.61956484093761, 26.071577014557892], [-111.62043854612817, 26.065872627169437], [-111.62477447258715, 26.06192779753608], [-111.62928410829596, 26.060279460237318], [-111.63124363848773, 26.058496401923964], [-111.63212543131026, 26.054420661304423], [-111.63466216107622, 26.052112157203062], [-111.63661206267541, 26.052103575144283], [-111.64017241140847, 26.055281027197324], [-111.64729452224726, 26.048798588287877], [-111.65000521110518, 26.048786414624132], [-111.65180332847369, 26.04714955999584], [-111.65646378861477, 26.047128453924824], [-111.66190337232656, 26.050361127283445], [-111.66445237333052, 26.05034942284547], [-111.66460777981608, 26.0778916223695], [-111.66642456805523, 26.079511985877513], [-111.66643840254207, 26.08195503347365], [-111.6700814820937, 26.086824380950308], [-111.67660382267172, 26.092640272622454], [-111.678411611029, 26.092631782582586], [-111.69005214738016, 26.10138884997656], [-111.69006641590654, 26.103819906671138], [-111.68646951029503, 26.103837072561408], [-111.68012281213336, 26.100609676021623], [-111.67648825093427, 26.09736929933592], [-111.67301530041121, 26.097385545317202], [-111.66842707004741, 26.100743214500348], [-111.67033225795542, 26.102441969248964], [-111.67379101976336, 26.103240219232067], [-111.67562621544309, 26.107972083886], [-111.67564570906784, 26.111363236343742], [-111.6731085498943, 26.113672451178854], [-111.66497203113661, 26.11371020709226], [-111.65865274543532, 26.11536794873196], [-111.65489365762748, 26.11538507295887], [-111.65307645896803, 26.113764579773957], [-111.65141113093145, 26.113772113394443], [-111.64907511052287, 26.115897431100866], [-111.64947271223521, 26.11948143562504], [-111.64587529745408, 26.11949759809273], [-111.64496672028135, 26.118687297573718], [-111.64240167163832, 26.119513119208943], [-111.63954211410581, 26.11871146477969], [-111.63607291610242, 26.119541182659475], [-111.62417235949849, 26.118778830192124], [-111.61507162841487, 26.107416739223154], [-111.61340637805777, 26.107423832296124], [-111.61061987753665, 26.10995763852573], [-111.61508251458879, 26.113129270426636], [-111.61781611011429, 26.117189440267346], [-111.62433763820698, 26.12300768834102], [-111.6292451865481, 26.124143588799697], [-111.63014496295895, 26.123325288714057], [-111.63157948805909, 26.124604877988254], [-111.63505327178594, 26.12458961487505], [-111.63647392966315, 26.123297481763654], [-111.63783676865178, 26.12451301043918], [-111.63918634112157, 26.12328547944332], [-111.64333786109289, 26.125367244004636], [-111.64822770021135, 26.123245103135385], [-111.64966241719891, 26.1245245087992], [-111.6522320423098, 26.124512904063018], [-111.65493539222713, 26.12287191221739], [-111.65688645905648, 26.122863034164993], [-111.66044037231615, 26.1244112136551], [-111.66487160161411, 26.12119769157865], [-111.66991759426206, 26.121517198671388], [-111.67390808182249, 26.120341363926], [-111.67660633497454, 26.117885629068223], [-111.68202140840172, 26.116231383038663], [-111.68382007932017, 26.114594133228266], [-111.69735714211384, 26.11371492871964], [-111.69828531979267, 26.117770280923104], [-111.69560595744201, 26.12333802540394], [-111.69215126365503, 26.12335465576373], [-111.68854429864787, 26.125000657504224], [-111.68221530659818, 26.125030752441578], [-111.6804164565463, 26.126667983475503], [-111.67679983341226, 26.126685011682802], [-111.67500088144878, 26.128322176731167], [-111.6722883731591, 26.128334855221688], [-111.66597765341483, 26.131621614715268], [-111.66131385387328, 26.13164309202388], [-111.65911827265401, 26.130495915884634], [-111.65783987954644, 26.131658991970273], [-111.65498446846172, 26.131671998124244], [-111.6527889462835, 26.130524724388625], [-111.64955007774316, 26.133471078205947], [-111.64955828207228, 26.13495402335862], [-111.6433905362712, 26.134981694014662], [-111.64142994541216, 26.13676491875635], [-111.64341371684412, 26.139211145361852], [-111.64778319474527, 26.137562834804402], [-111.65411290686485, 26.137534238996967], [-111.65591229436004, 26.135897328483633], [-111.66677230230816, 26.137476213325638], [-111.672704576287, 26.13453405295285], [-111.67361346590928, 26.135344170800558], [-111.67670486051149, 26.13498681793865], [-111.6839148977449, 26.130880963681914], [-111.69294714814752, 26.12920909199581], [-111.69474585772423, 26.127571707843188], [-111.69926665317493, 26.127549844850414], [-111.70482322611119, 26.122490859764692], [-111.70481432867574, 26.121007929028053], [-111.70646073098634, 26.120999869686674], [-111.70842005549645, 26.11921578113884], [-111.7084013976436, 26.11612129735323], [-111.71201829817684, 26.119343803248764], [-111.71366467459285, 26.119335662112938], [-111.71370336964317, 26.125704607974065], [-111.71552157459062, 26.127324313697866], [-111.7155563092914, 26.13302465982396], [-111.71737465512808, 26.134644337653178], [-111.71740949102269, 26.140344675672917], [-111.71922797780984, 26.141964325590518], [-111.71926790684738, 26.14847898796841], [-111.72108654762457, 26.150098609447912], [-111.72110739151802, 26.153489709140864], [-111.71409209319637, 26.15987664729468], [-111.71404269534581, 26.151762415623793], [-111.71486820336965, 26.151010851778842]], [[-111.6944544873973, 26.216259210535245], [-111.69163742231453, 26.213750870466576], [-111.68439881444047, 26.21378550565456], [-111.68257965866994, 26.212165444457398], [-111.67805558301266, 26.212186847978543], [-111.67623653853535, 26.210566703964023], [-111.6691600409871, 26.210599806659133], [-111.66915156087957, 26.20911688295452], [-111.66369508654225, 26.204256028002405], [-111.66367661758095, 26.200998684501744], [-111.66276727520905, 26.200188519752132], [-111.66363045900741, 26.192855319243144], [-111.6616491832161, 26.19108997828629], [-111.65712590258458, 26.191110707913502], [-111.65167983469097, 26.187878038482467], [-111.64912784167392, 26.187889573594624], [-111.64911511104918, 26.18559229907718], [-111.64311067086417, 26.179430111456348], [-111.63354310269439, 26.179815412513545], [-111.62915436292508, 26.178205937961533], [-111.62719284331662, 26.179988975455633], [-111.62720950062206, 26.183100605593165], [-111.62103919558199, 26.183127365214048], [-111.61961765414934, 26.184419351615897], [-111.61818251074489, 26.183139664602514], [-111.61199742693378, 26.18398046437018], [-111.60695386778885, 26.18774532596377], [-111.60931406977156, 26.189850122067014], [-111.61277077976841, 26.189835442469583], [-111.6127785388075, 26.191318386546136], [-111.61475909689248, 26.193084413857452], [-111.61823492064099, 26.193069520023567], [-111.62055693373782, 26.190959303562565], [-111.62456766639748, 26.193042168468892], [-111.62997820434722, 26.18976113214033], [-111.6435289272733, 26.18970116493327], [-111.64353707571489, 26.191184100271155], [-111.64551808584876, 26.192949695743987], [-111.65004144801503, 26.19292932969927], [-111.6518598578526, 26.194549821108804], [-111.65350731092305, 26.194542347115934], [-111.65263806215077, 26.200903442909635], [-111.65099051928696, 26.20091090862634], [-111.64919008437826, 26.202547763043523], [-111.64647584423535, 26.20255998782607], [-111.64413800022778, 26.20468523422456], [-111.6474084898871, 26.207599664917794], [-111.65719918915278, 26.207555257843474], [-111.65720751722316, 26.209038185466575], [-111.65993567970754, 26.21146876223346], [-111.65995864685512, 26.21554043853309], [-111.66194032030319, 26.21730578939825], [-111.66736946603858, 26.217280691931812], [-111.66918849700052, 26.21890094698305], [-111.68547611029311, 26.21882421429518], [-111.68714770342345, 26.21963058775022], [-111.68804778458488, 26.218811930193148], [-111.69166724289475, 26.21879456321637], [-111.6944544873973, 26.216259210535245]], [[-111.66156252362974, 26.16022354186248], [-111.65782942318614, 26.155275606577025], [-111.65073270482233, 26.15449348324285], [-111.64787201732118, 26.157095222111774], [-111.64788477376422, 26.15940447781569], [-111.65440106525405, 26.16359257622736], [-111.65877585623073, 26.162758264879], [-111.66156252362974, 26.16022354186248]]], [[[-111.70605876672272, 26.357150985605927], [-111.70245470486533, 26.360426047592657], [-111.70248827550381, 26.365980484516022], [-111.69978930911158, 26.36599369821343], [-111.69614577411552, 26.362754112756104], [-111.69252184789529, 26.362771681190264], [-111.68995241246527, 26.360486816983343], [-111.68993791331827, 26.358043875958145], [-111.68704263675316, 26.355469034284123], [-111.68341893066153, 26.355486367968343], [-111.67705372895962, 26.35144489875032], [-111.67359227277524, 26.35146121515704], [-111.67358368353136, 26.349978321905777], [-111.67176250410296, 26.34835819253169], [-111.6716724030304, 26.332752362856397], [-111.67339576417297, 26.33036813886318], [-111.66982417914247, 26.326380047310337], [-111.66978124973471, 26.318917384994947], [-111.6715831470607, 26.31728027004773], [-111.67155105270086, 26.311713788080617], [-111.66973051219507, 26.31009361224268], [-111.66970165889371, 26.305073903036405], [-111.67150334784034, 26.303436790046977], [-111.67148535067581, 26.300313268173266], [-111.66768179448593, 26.296927889780406], [-111.66420755357883, 26.297758362179824], [-111.65970779918118, 26.30266520340044], [-111.65155810790425, 26.302702450522336], [-111.6497516035381, 26.303524991556706], [-111.64344887181072, 26.310068181387486], [-111.63802430307295, 26.311721110304234], [-111.62989298467944, 26.31175705344048], [-111.62987616123601, 26.308645480634112], [-111.6280562372085, 26.307024763491256], [-111.628047458646, 26.305396103761105], [-111.6260647611384, 26.303630324794685], [-111.62441576007524, 26.30363751212974], [-111.62440273491761, 26.301206490880713], [-111.62620501459566, 26.29956993534848], [-111.6261875156935, 26.2963126109734], [-111.62798969566504, 26.294676033720773], [-111.62796776488075, 26.29060437663589], [-111.62976983290669, 26.288967777770843], [-111.62973098109373, 26.281772562934062], [-111.62791148682203, 26.280151830311457], [-111.627894019616, 26.276906469564334], [-111.6331449074416, 26.27688340620863], [-111.63315295519712, 26.278366326563344], [-111.63597325941645, 26.280878348115174], [-111.63876603749128, 26.27834145865192], [-111.6387571204763, 26.276712795791234], [-111.64235599390084, 26.272624980764032], [-111.64234783123266, 26.271142061886184], [-111.64942350259848, 26.270295880012828], [-111.66025449372837, 26.264546028964002], [-111.66220792030957, 26.264537033978257], [-111.6638647899215, 26.26601233658513], [-111.663874053068, 26.267640993724612], [-111.66714970107844, 26.270557469202796], [-111.66949125612946, 26.26842926193575], [-111.66947340910895, 26.265317694832763], [-111.67564327945357, 26.264474447979676], [-111.67925468520836, 26.262828713053356], [-111.68738251192005, 26.26279003817205], [-111.68649639112088, 26.26603969710118], [-111.68743913467415, 26.272404218289118], [-111.68398003371888, 26.272420739660475], [-111.682558139307, 26.273713340027882], [-111.68035890791231, 26.272437945604594], [-111.67847060661025, 26.274154436571507], [-111.68037882033917, 26.275852959716207], [-111.68400005210707, 26.275835751199175], [-111.68565735505938, 26.27731079151998], [-111.68567249958616, 26.279887533694446], [-111.68387614414056, 26.282339142466753], [-111.68389524336652, 26.28559643552491], [-111.68209876498679, 26.288048022574067], [-111.68211781935246, 26.291305314250742], [-111.68032121799212, 26.293756879562952], [-111.68035845931017, 26.300137687445012], [-111.6821789855109, 26.301757730768905], [-111.68218851914294, 26.303386373654217], [-111.68584415596169, 26.3090693456056], [-111.6949580976905, 26.318797573046904], [-111.69496781717022, 26.320426207677762], [-111.69769940943738, 26.32285596300997], [-111.70044581421345, 26.32772860993893], [-111.70046051462357, 26.330171555839943], [-111.70228670763045, 26.33260563691885], [-111.70230636431198, 26.335862894430342], [-111.70413268761443, 26.338296947497472], [-111.70508782946389, 26.346435624059087], [-111.7065288372793, 26.34771691745927], [-111.70562791568425, 26.348535693698487], [-111.70605876672272, 26.357150985605927]]], [[[-111.69069291930863, 25.9666739144948], [-111.6831402932265, 25.972738750118246], [-111.67322654527268, 25.972785203926364], [-111.67320806969389, 25.969539734050343], [-111.67679657715999, 25.965451089327956], [-111.67678809260207, 25.963968117567294], [-111.67843231298764, 25.9639604214421], [-111.6798505922452, 25.96266787967893], [-111.6858076298941, 25.965554432677088], [-111.68798614202555, 25.964258208904937], [-111.69069291930863, 25.9666739144948]]]]}}]}
