{"type": "FeatureCollection", "features": [{"type": "Feature", "properties": {"uga": "11b", "politica": "conservacion", "procedencia": {"metodo": "digitalizacion-semiautomatica", "fuente": "Mapa de ubicación de la ficha UGA 11b, Boletín Oficial No. 12 (12-mar-2014), p. 188 del PDF", "datum": "UTM 12N con desplazamiento de +30 m E y +170 m N ajustado contra la costa (INC-011)", "correccion_borde_px": 1.4, "precision_aprox_m": 181.0, "escala_por_superficie": false, "revisada_en_qgis": false}, "control": {"residuo_georreferencia_m": 68.4, "area_digitalizada_ha": 8828.4, "escala_por_superficie": false, "superficie_ficha_ha": 9483.49, "diferencia_area_pct": -6.9}, "georreferencia": {"a_x": 90.29330037408285, "b_x": 415921.7865520282, "a_y": -90.36198954690074, "b_y": 2933896.301521144, "factor_render": 1, "pagina_mapa": 188, "ficha_mapa": "11b"}}, "geometry": {"type": "MultiPolygon", "coordinates": [[[[-111.72839669270455, 26.2948229073828], [-111.72977996326583, 26.296056715666367], [-111.7319612382588, 26.294887223835367], [-111.73646547918433, 26.29486417497964], [-111.73648598435399, 26.298109713032815], [-111.73289895494308, 26.303023369809928], [-111.7275025653841, 26.307946127100557], [-111.72751275441742, 26.309577837404213], [-111.72263678996497, 26.31402525977074], [-111.72758329513556, 26.32087065490521], [-111.72759847763426, 26.323300334211794], [-111.71690569287907, 26.323354199963948], [-111.71240239747274, 26.326640170318097], [-111.707888923394, 26.328294290186626], [-111.70428989753295, 26.331575541717708], [-111.70068892468801, 26.33159318935826], [-111.70067507573535, 26.329292643312147], [-111.69885587567829, 26.327669759957658], [-111.69701718860297, 26.32278341697604], [-111.68061423823376, 26.302465082018394], [-111.68054203489862, 26.29009796385867], [-111.68234128851539, 26.28845764369413], [-111.68232219419598, 26.2851941813112], [-111.68412134823645, 26.28355383968784], [-111.68409742373929, 26.279474510205745], [-111.6858964659976, 26.27783414725605], [-111.68586864903898, 26.273102122829403], [-111.68948701505359, 26.27633220069908], [-111.6929591165069, 26.276315482139204], [-111.69439917158908, 26.275002233943358], [-111.69309774196506, 26.272217487714855], [-111.69306393272996, 26.266524309394732], [-111.69470941505755, 26.26651635775485], [-111.6965081095633, 26.26487586581572], [-111.6984615681217, 26.26486637737092], [-111.70027976125746, 26.266489299611962], [-111.70194313420046, 26.266481177823582], [-111.70336421414187, 26.265184948093065], [-111.70427334024069, 26.265996380449735], [-111.70660431831644, 26.265642427848263], [-111.71098635443816, 26.269553202848424], [-111.7109970822236, 26.2713140733043], [-111.70793946054415, 26.274103199094466], [-111.70574351494032, 26.27282473714936], [-111.70385394086479, 26.27454824552894], [-111.70569132188145, 26.276188013543003], [-111.70831719161144, 26.273792863392867], [-111.7110121043159, 26.273779541746503], [-111.71103188251213, 26.277025107628702], [-111.70743944217566, 26.28112228930764], [-111.70655410160187, 26.284261045693068], [-111.70929586762014, 26.286026324577662], [-111.71650070163646, 26.28109522513935], [-111.71830935010237, 26.281086185239765], [-111.72010792484681, 26.279445403096197], [-111.72296592766091, 26.27943103671475], [-111.72734902916933, 26.283341282755934], [-111.72738464858384, 26.289052286960818], [-111.72973546168842, 26.29196051611811], [-111.72883615565748, 26.292780969435043], [-111.7297456748243, 26.293592229245682], [-111.72839669270455, 26.2948229073828]], [[-111.69847923814679, 26.295036241656316], [-111.69849313011765, 26.29735468150461], [-111.70229448606574, 26.300746694861797], [-111.70848074060247, 26.30071627712614], [-111.71134133563862, 26.298107438893112], [-111.70990103594532, 26.296139436807564], [-111.71041280447578, 26.29416176726662], [-111.70843015386711, 26.292392769081182], [-111.70133992575724, 26.2924275990913], [-111.69847923814679, 26.295036241656316]]], [[[-111.73698365884158, 26.35099220842391], [-111.72797587880866, 26.35756526901416], [-111.72435621243757, 26.357583618851958], [-111.72075677602297, 26.360865279753554], [-111.71699182847644, 26.360884176068637], [-111.71154218411586, 26.357647844292174], [-111.7062757364651, 26.357673907980523], [-111.7062419393571, 26.352109957731724], [-111.70441241529775, 26.34885544967418], [-111.7043572899988, 26.339751897682987], [-111.70615695089964, 26.338111281363915], [-111.70614794077878, 26.336626595966965], [-111.7104987165183, 26.33497333408716], [-111.71680176927157, 26.330046673419414], [-111.72673312998684, 26.32673315255732], [-111.7312386075984, 26.32671024216029], [-111.73124793379095, 26.328194921419957], [-111.73671736422017, 26.334693937018837], [-111.73672769441838, 26.33632563786688], [-111.74547062450317, 26.3481751943756], [-111.74241283392742, 26.35096417725654], [-111.73698365884158, 26.35099220842391]], [[-111.7251179383884, 26.346256964678723], [-111.7279070794748, 26.34371360430448], [-111.72788236447235, 26.33976349140308], [-111.72589866055611, 26.337994767430608], [-111.71790091693893, 26.33803505274292], [-111.71503951364218, 26.340644024487265], [-111.71504874872517, 26.34214658773708], [-111.71885207138274, 26.345538101474222], [-111.72233128046628, 26.346336482076705], [-111.72375308034297, 26.345040049331978], [-111.7251179383884, 26.346256964678723]]], [[[-111.75361960149144, 26.41870529264863], [-111.75498565139954, 26.41992188577486], [-111.75356427089456, 26.421217754041866], [-111.7535846452903, 26.424351961886213], [-111.75593360819482, 26.426443797825264], [-111.75361200743015, 26.428560287945036], [-111.75364914853992, 26.43427114237807], [-111.75004823670454, 26.437553538042245], [-111.75006936679324, 26.44081688256664], [-111.74826878516441, 26.442458048048664], [-111.74830568537391, 26.448168898388186], [-111.7465197993868, 26.452110526897332], [-111.74124910304438, 26.452137967026605], [-111.73982622111495, 26.4534345777622], [-111.73747601269241, 26.451341627104846], [-111.73582792767334, 26.45135012370678], [-111.73581330777911, 26.44904963392245], [-111.73399170774194, 26.44742727292962], [-111.73394435732531, 26.439955583831278], [-111.73574074738701, 26.437627897647832], [-111.73027665455123, 26.432760718942653], [-111.73026123025107, 26.430313196961865], [-111.72736531804792, 26.427733328864694], [-111.72192237013819, 26.426129178330516], [-111.71935490839483, 26.42384154021185], [-111.71570798375843, 26.419780492364357], [-111.71569207861891, 26.417203815325887], [-111.71929336824645, 26.413922268604267], [-111.7192832481528, 26.412290579104845], [-111.72468982358103, 26.408183939253146], [-111.72467545213608, 26.405883429853663], [-111.72813348039023, 26.405865871274344], [-111.73263418078649, 26.4017635443289], [-111.74257410904903, 26.401712300420904], [-111.7435150225163, 26.407271464932666], [-111.74550019908115, 26.409039897249265], [-111.74716033920554, 26.408215368090477], [-111.75085903820255, 26.40894642758442], [-111.75258688405434, 26.40737105495101], [-111.7552848657639, 26.40735683576844], [-111.75623260124283, 26.413860877834036], [-111.75361960149144, 26.41870529264863]], [[-111.73455067086486, 26.421316684644065], [-111.73927742758482, 26.427021275845714], [-111.74456490183613, 26.426993839175527], [-111.7483278711151, 26.42356370379868], [-111.74451144376248, 26.418670544637724], [-111.73741356769669, 26.418707319811368], [-111.73455067086486, 26.421316684644065]]], [[[-111.75195527705938, 26.287275997538174], [-111.74652908202043, 26.287304326875716], [-111.74473076927319, 26.288945433073057], [-111.73554187964774, 26.288992825872015], [-111.73297725227913, 26.286705330948365], [-111.73296699701963, 26.28507361743467], [-111.73114806351921, 26.283451128770146], [-111.73113272153785, 26.281003556246485], [-111.72385765044001, 26.27451335066622], [-111.72383154543756, 26.270304905816527], [-111.72510913440118, 26.269139205337982], [-111.7236533045571, 26.267840264465534], [-111.72200781388615, 26.267848548159115], [-111.72196755593787, 26.261339540505478], [-111.72360375310582, 26.259846563554305], [-111.74347729266363, 26.259745055869065], [-111.74260322687843, 26.26447997179928], [-111.74095779055982, 26.264488471642714], [-111.73816983519612, 26.26703294094618], [-111.74046226588405, 26.26907786166103], [-111.74316455447025, 26.267432132556618], [-111.74589283504132, 26.26986563598365], [-111.74733124627228, 26.268552742988064], [-111.74730084692104, 26.263804631057734], [-111.75073674538757, 26.263786709325828], [-111.7507462938332, 26.265271395043815], [-111.75256520328718, 26.266893639677], [-111.75259150759436, 26.270972914921295], [-111.75622960907928, 26.274217325410948], [-111.75624018475432, 26.275849032745086], [-111.75805933754505, 26.27747120016352], [-111.75807608129976, 26.28004790284475], [-111.75627804406952, 26.281689149453964], [-111.75720789318429, 26.285616618724575], [-111.7537534606071, 26.285634803169863], [-111.75195527705938, 26.287275997538174]], [[-111.74002804383512, 26.271901666039774], [-111.73813995920608, 26.273624741848106], [-111.73726581279126, 26.278395386272404], [-111.74189901011223, 26.28171663326531], [-111.74272601940973, 26.28096191639342], [-111.74815192412044, 26.280933737141233], [-111.75011208696844, 26.2791447126218], [-111.74918241812145, 26.27519930600696], [-111.74590826157365, 26.272279177426462], [-111.74463180844151, 26.27344418558355], [-111.74267822619188, 26.273454305141648], [-111.74002804383512, 26.271901666039774]]], [[[-111.75991464043538, 26.39819287207282], [-111.75901475027766, 26.39901351577438], [-111.75448858380598, 26.39903745387732], [-111.75268869941686, 26.40067866928763], [-111.74982773593361, 26.40069369122832], [-111.74079099140143, 26.391831639152933], [-111.73815801428715, 26.393411543144975], [-111.7318594081177, 26.393443893355293], [-111.73401853569283, 26.39147561322786], [-111.73361995100353, 26.388686681205648], [-111.72816341916743, 26.384635185019416], [-111.72814726212263, 26.382058502411866], [-111.72994721965468, 26.38041759020622], [-111.72990189075904, 26.373204110578936], [-111.72808158960366, 26.37158163071128], [-111.72806544360921, 26.36900494335846], [-111.7377858220372, 26.357679989216972], [-111.74230518534824, 26.356840766458326], [-111.74680875896689, 26.353553863309042], [-111.74876368316234, 26.35354365884398], [-111.75133012040655, 26.355830812205614], [-111.75680730541171, 26.363144828150524], [-111.75681793053667, 26.36477651502888], [-111.77325390477814, 26.386717159846057], [-111.77327650037962, 26.390109651443318], [-111.7714770231094, 26.39175109639795], [-111.77151400602226, 26.397314933785037], [-111.76535137376477, 26.398979761944695], [-111.75991464043538, 26.39819287207282]], [[-111.74061170334298, 26.377915200200025], [-111.74351185420053, 26.38131068190955], [-111.75060743343005, 26.38127365266796], [-111.75346899652503, 26.378663980751245], [-111.74965388231139, 26.373770901373046], [-111.74255875982554, 26.373807873639095], [-111.74059692161624, 26.37559680791025], [-111.74061170334298, 26.377915200200025]]], [[[-111.77219898814069, 26.47563395338016], [-111.76860278179275, 26.479732642307503], [-111.7653573377794, 26.479407587758036], [-111.76445687132292, 26.48022826934161], [-111.75938276102289, 26.47733440167151], [-111.75411093120259, 26.477362340835597], [-111.75407465569113, 26.471798543157774], [-111.75043027397807, 26.468554298486914], [-111.75039768901894, 26.46353015966017], [-111.75580014779067, 26.458606512118184], [-111.75579033652659, 26.45710398710333], [-111.75396833350024, 26.455481891261684], [-111.75395155196857, 26.45290524925704], [-111.75575220971405, 26.45126401279275], [-111.75574240222062, 26.449761486217028], [-111.75211864991358, 26.446535037015174], [-111.75555802096082, 26.446516894118375], [-111.75752079412186, 26.444727751486877], [-111.75746306911083, 26.43590059307953], [-111.75911092615404, 26.435891851673308], [-111.76287373666663, 26.432461340693283], [-111.76286384489813, 26.430958812650346], [-111.76104216624043, 26.42933679437131], [-111.76098860205208, 26.421178437828104], [-111.7591671063734, 26.419556389560412], [-111.75913421262034, 26.41453222642447], [-111.7627341632604, 26.41124961243318], [-111.76270733999512, 26.407170426629396], [-111.76614479575348, 26.404035622945702], [-111.76795533609203, 26.404025915704416], [-111.77335432517765, 26.399101640574923], [-111.7823887035261, 26.399052525591326], [-111.78239871372857, 26.400537172269082], [-111.78787446791551, 26.407034031760684], [-111.78799730594675, 26.425111465319688], [-111.78619751257473, 26.426753094963974], [-111.78626947475108, 26.43735888507839], [-111.78446947082877, 26.439000494983517], [-111.78457448484264, 26.454501239655063], [-111.78277419648349, 26.45614283078349], [-111.78285697807789, 26.468380239226168], [-111.77671717157881, 26.473977735374216], [-111.77219898814069, 26.47563395338016]], [[-111.76461340445074, 26.43822765777279], [-111.77017123870938, 26.443175441817168], [-111.775459412308, 26.443146846583648], [-111.77832189226774, 26.440536678665186], [-111.77738983121905, 26.43659159260868], [-111.77540369685912, 26.43482363064194], [-111.7673993715003, 26.434866824527145], [-111.76461340445074, 26.43822765777279]]]]}}]}
