{"type": "FeatureCollection", "features": [{"type": "Feature", "properties": {"uga": "12", "politica": "conservacion", "procedencia": {"metodo": "digitalizacion-semiautomatica", "fuente": "Mapa de ubicación de la ficha UGA 12, Boletín Oficial No. 12 (12-mar-2014), p. 191 del PDF", "datum_supuesto": "UTM 12N (ITRF92 ≈ WGS84)", "correccion_borde_px": 1.4, "precision_aprox_m": 52.0, "revisada_en_qgis": false}, "control": {"residuo_georreferencia_m": 32.4, "area_digitalizada_ha": 1268.61, "superficie_ficha_ha": 1289.6, "diferencia_area_pct": -1.6}}, "geometry": {"type": "Polygon", "coordinates": [[[-111.55660808197457, 26.3871367132826], [-111.55611252877318, 26.387586303828467], [-111.55650328140452, 26.387934745644444], [-111.5560949040746, 26.38830524317169], [-111.55610250308966, 26.38989170121782], [-111.55532636815151, 26.38919961122558], [-111.55459472808488, 26.389202448105063], [-111.55458917467071, 26.38803987879838], [-111.55562224705118, 26.38710264398659], [-111.55520451577272, 26.38653556604879], [-111.55483761002104, 26.386868436159], [-111.55427768139704, 26.38687060553028], [-111.5529741047064, 26.385475804593263], [-111.55223935116464, 26.385945255576967], [-111.54834864932323, 26.38596021333535], [-111.54726920382673, 26.386939417672643], [-111.54727250285389, 26.38763932685399], [-111.54675593211692, 26.38810791557187], [-111.54676014846264, 26.389003228842], [-111.54728112219392, 26.38946785212264], [-111.54728660277335, 26.390630422629442], [-111.54599500513675, 26.390635355805383], [-111.54495306130033, 26.389706098043124], [-111.54365611743309, 26.3897110303464], [-111.54313515684711, 26.389246393677464], [-111.54235699341294, 26.389249344538413], [-111.54068566541866, 26.387990990749646], [-111.53949964907146, 26.389535294927178], [-111.53950380972152, 26.390430609098285], [-111.54054571730698, 26.391359907014134], [-111.5405598226927, 26.394388903477665], [-111.53926818179312, 26.394393776590732], [-111.53800802624163, 26.3934652906082], [-111.53692950269122, 26.394677721577732], [-111.53641609345758, 26.395846183268176], [-111.53642148496698, 26.397012699179015], [-111.53590482868351, 26.397481249435074], [-111.53590913806231, 26.39841446204405], [-111.53539247354117, 26.398883010485697], [-111.53541273356065, 26.403273925568726], [-111.53463983172662, 26.403276815857296], [-111.53390507226283, 26.402621482379082], [-111.53390077820802, 26.401688270012816], [-111.53285668596125, 26.400292319283803], [-111.53283633319263, 26.39585955725256], [-111.53231324712914, 26.394928274592672], [-111.53174559191852, 26.394421926210505], [-111.53101069452295, 26.39489126981565], [-111.53045072498746, 26.394893346564764], [-111.52888794065454, 26.393499286024497], [-111.52784822709127, 26.393036509636705], [-111.52711357124122, 26.392381138790114], [-111.52710933370729, 26.391447924059488], [-111.52419770604608, 26.3888503892304], [-111.52320132068127, 26.388854034967068], [-111.52227178634165, 26.389696901326033], [-111.52238312265776, 26.390298714219842], [-111.52212565977267, 26.39072836953836], [-111.52290909020975, 26.391892047822925], [-111.52292063352195, 26.39445444525356], [-111.52141611165993, 26.39445993495959], [-111.52089121684857, 26.39310384454584], [-111.51956192033877, 26.39168549946481], [-111.51906571878804, 26.392135402208602], [-111.51725530779537, 26.392141956937444], [-111.5172480485819, 26.390512772813988], [-111.51761459185387, 26.39018043570033], [-111.51721905603954, 26.38982752288189], [-111.51594675315661, 26.390746833288667], [-111.51486801761027, 26.390750718036127], [-111.51174296789796, 26.38796222993302], [-111.51070337040834, 26.387499326891593], [-111.50966173293222, 26.386569807158697], [-111.50499283312251, 26.38658635539469], [-111.50425834565472, 26.38593086415276], [-111.50425429299698, 26.384997645215897], [-111.50342641723392, 26.38425878998212], [-111.50238890394048, 26.384262435036845], [-111.50082860879593, 26.383334668875207], [-111.50035101985932, 26.383336338995196], [-111.49955054775452, 26.384061954366384], [-111.50005016416019, 26.384507876923404], [-111.5000571801744, 26.3861370667742], [-111.49907152609819, 26.386140506782613], [-111.49906769492921, 26.385249130699755], [-111.49854693018517, 26.384784328528074], [-111.4985379157101, 26.3826845835722], [-111.49801716473381, 26.382219779113434], [-111.49799899546657, 26.377982387501184], [-111.498515721849, 26.37751397183739], [-111.49850671080813, 26.37541422473882], [-111.49913161725692, 26.374847725672797], [-111.4990103964494, 26.37191283818406], [-111.49952709212197, 26.37144441891725], [-111.49952107406412, 26.370044586616324], [-111.50055343570959, 26.368874437210415], [-111.50106425634068, 26.367048023558556], [-111.50183692118783, 26.36704531808288], [-111.50309399685831, 26.368632225550822], [-111.50309803729361, 26.369565446788005], [-111.50361875065403, 26.370030234106025], [-111.50362077307796, 26.370496844611086], [-111.50444855042176, 26.371235701529752], [-111.50492608930918, 26.37123401845367], [-111.50678074221796, 26.36955246126224], [-111.5067756547385, 26.36838593535821], [-111.50832456705295, 26.366747284143557], [-111.50830944393373, 26.363289548964868], [-111.50929490275131, 26.363286048152023], [-111.50929778633353, 26.36394412031396], [-111.51012555176536, 26.364682945244034], [-111.51116288897349, 26.36467924665622], [-111.51153277063314, 26.36500937586973], [-111.51189973466819, 26.36467661489589], [-111.5124184031252, 26.36467476011647], [-111.51349794386515, 26.363695814198874], [-111.5134907289305, 26.362062678256194], [-111.51421929178434, 26.361401982159506], [-111.51555708172395, 26.361397173091955], [-111.51607780691229, 26.36186191544378], [-111.51789310113602, 26.36185536318941], [-111.5204926458961, 26.363245792244037], [-111.52152996858035, 26.36324201875983], [-111.52257148689195, 26.364171456852205], [-111.52309015221824, 26.36416956345973], [-111.52361091965051, 26.364634277610488], [-111.5243889205891, 26.364631431125066], [-111.52568980968833, 26.36555989603312], [-111.5277233371428, 26.36555241731541], [-111.52854448253558, 26.364807619757205], [-111.52853300255487, 26.362283113171504], [-111.52951844967522, 26.36227947334286], [-111.53004223472756, 26.363402234022853], [-111.53005925949671, 26.367135105066026], [-111.53058006783623, 26.367599793061952], [-111.53058219830113, 26.368066401735085], [-111.5319309478931, 26.36926978353233], [-111.5326678202503, 26.369267044485092], [-111.5342121134532, 26.36786626028076], [-111.53421833431078, 26.36921942449774], [-111.53530886328872, 26.370657044879206], [-111.53712860338092, 26.371583462721244], [-111.53837883171272, 26.371578767555935], [-111.53838421892284, 26.372741342687114], [-111.53786983708575, 26.37367650758419], [-111.53479146342798, 26.37646878387841], [-111.53716096595001, 26.37858257822735], [-111.5394487261563, 26.378573976269188], [-111.53945069893268, 26.378998740212303], [-111.54001831049732, 26.37950505976259], [-111.54183822696567, 26.380431413893394], [-111.54443190787322, 26.380421573683076], [-111.54495283328934, 26.38088620673704], [-111.54558113556658, 26.380981954097543], [-111.5458394082934, 26.38074766206511], [-111.54755312277229, 26.382276129356594], [-111.54881102476301, 26.382737927162253], [-111.54937388437344, 26.382227309415086], [-111.5493705734641, 26.381527399951228], [-111.55040252614029, 26.380356899044163], [-111.55039387979033, 26.378532316753596], [-111.55137946116757, 26.378528524360473], [-111.55138258510723, 26.3791865906278], [-111.55221072401099, 26.37992516493849], [-111.55296926520795, 26.38013703112791], [-111.55351160101249, 26.379644989835942], [-111.553503999042, 26.378049767096773], [-111.5529363369548, 26.377543501721437], [-111.55246413128216, 26.377545324643954], [-111.55244659655924, 26.373858260502974], [-111.55317814023557, 26.37385543612365], [-111.55436444644849, 26.37254476227], [-111.55316681400535, 26.371476615443502], [-111.55264811863235, 26.37147861826621], [-111.55212720589167, 26.371014012424816], [-111.55088137115304, 26.371018810661216], [-111.55190995937748, 26.37008556355541], [-111.55190574846053, 26.36919901043139], [-111.55292151432373, 26.37010499205541], [-111.55470752542118, 26.368250136636544], [-111.55548019156096, 26.368247141621666], [-111.55548556790096, 26.3693718150346], [-111.55600648634172, 26.36983640866861], [-111.55601988382033, 26.372636047541693], [-111.55654081925084, 26.373100638754597], [-111.55655311375769, 26.375666973026853], [-111.55707406511216, 26.3761315618539], [-111.55708301616282, 26.377997985911183], [-111.5576051002486, 26.378695875396275], [-111.5576344073687, 26.3847996479074], [-111.55711789158994, 26.385268273347535], [-111.55712236914935, 26.386201484239194], [-111.55660584514249, 26.386670107872167], [-111.55660808197457, 26.3871367132826]], [[-111.51614931033193, 26.377959947286108], [-111.51740496701126, 26.37795541492404], [-111.5182262658411, 26.377210675531195], [-111.51770459141825, 26.376550537725333], [-111.51770251188707, 26.37608392864156], [-111.51661318362785, 26.374879477385598], [-111.51587627377796, 26.37488213434561], [-111.51546344245153, 26.375256478069915], [-111.51557472837217, 26.37585829819483], [-111.51520822362805, 26.376190630167468], [-111.51572901481849, 26.376655371875444], [-111.51521236272258, 26.377123848658346], [-111.51614931033193, 26.377959947286108]], [[-111.53588277707262, 26.386030320221547], [-111.53533630562234, 26.385542855642452], [-111.53460040447153, 26.385778913593988], [-111.53378002627596, 26.385548667579126], [-111.53122739066535, 26.385558163778004], [-111.53040915178909, 26.385794505829026], [-111.52967111007231, 26.3855639310452], [-111.52925828660743, 26.38593831389775], [-111.52991429145098, 26.386523537013368], [-111.5304104266808, 26.38607359729736], [-111.5309703536803, 26.386071521347564], [-111.53149125193073, 26.38653620346262], [-111.53352514469772, 26.386528636807697], [-111.53404176283308, 26.38606009502579], [-111.53460168943619, 26.386058004872364], [-111.53534081928808, 26.386521857570088], [-111.53588277707262, 26.386030320221547]]]}}]}
