{"type": "FeatureCollection", "features": [{"type": "Feature", "properties": {"uga": "13", "politica": "conservacion", "procedencia": {"metodo": "digitalizacion-semiautomatica", "fuente": "Mapa de ubicación de la ficha UGA 13, Boletín Oficial No. 12 (12-mar-2014), p. 193 del PDF", "datum": "UTM 12N con desplazamiento de +30 m E y +165 m N ajustado contra la costa (INC-011)", "correccion_borde_px": 1.4, "precision_aprox_m": 37.0, "escala_por_superficie": false, "revisada_en_qgis": false}, "control": {"residuo_georreferencia_m": 9.4, "area_digitalizada_ha": 693.64, "escala_por_superficie": false, "superficie_ficha_ha": 691.43, "diferencia_area_pct": 0.3}}, "geometry": {"type": "Polygon", "coordinates": [[[-111.47069926324475, 26.387191320835996], [-111.46974710070677, 26.388055675333227], [-111.46975382478485, 26.389717544002565], [-111.47088224920604, 26.390727043091854], [-111.47088361911378, 26.391064774271392], [-111.4712597660628, 26.39140127186638], [-111.47126330247626, 26.392272387618977], [-111.47088989266587, 26.392611352340683], [-111.47089263277613, 26.393286814505164], [-111.47055285215261, 26.393595247843024], [-111.46808671960761, 26.393603335321146], [-111.46677022119535, 26.392425560292082], [-111.46545510364197, 26.39158550402123], [-111.46451815878869, 26.391588548122314], [-111.46434516582292, 26.39143377465058], [-111.46417341551448, 26.391589666637497], [-111.46305280297364, 26.391593296713797], [-111.46305023001729, 26.390948253114342], [-111.46267343499909, 26.39044286778901], [-111.46267141602857, 26.389936270375685], [-111.46041273419387, 26.38741053335081], [-111.46041073975488, 26.38690756705028], [-111.46093912943887, 26.386905866460364], [-111.46243414622239, 26.38588783583862], [-111.46318366553605, 26.385885412446996], [-111.46355707686553, 26.385546467501864], [-111.46449397308919, 26.38554343033569], [-111.46628463012382, 26.384426433038108], [-111.46673845089273, 26.384522921148086], [-111.46714547909203, 26.38415343741927], [-111.46731529649834, 26.37978910077019], [-111.46712724746664, 26.379620846319007], [-111.46711841895338, 26.377425588672537], [-111.46674232976225, 26.377089078774375], [-111.4667198342465, 26.371489710020267], [-111.46818029522936, 26.3703332839128], [-111.46911706813813, 26.3703302181229], [-111.47023846186039, 26.369651066691926], [-111.47098856005019, 26.36981746992463], [-111.4715485652427, 26.369309021966615], [-111.47248532944003, 26.369305934253706], [-111.47285866072954, 26.368966965343], [-111.4734207175052, 26.36896510833092], [-111.4745420724709, 26.36828592358606], [-111.4775396896722, 26.368275959032783], [-111.47869394174121, 26.36739734411742], [-111.47869115939325, 26.36672188027534], [-111.47906446413337, 26.366382895423627], [-111.47905611129582, 26.36435650352834], [-111.4795824321467, 26.363878557008025], [-111.4805491789491, 26.363875316594193], [-111.48318111873131, 26.366061749066763], [-111.48374386350514, 26.36622871759119], [-111.48449606968464, 26.366901647676922], [-111.48562016128473, 26.366897840374275], [-111.4859962708327, 26.367234300869615], [-111.4875733128891, 26.367130973192204], [-111.48970610780654, 26.36553298182805], [-111.49029962960567, 26.364993926784372], [-111.49029036909026, 26.36279867210332], [-111.49066362707534, 26.362459657477142], [-111.49066231449093, 26.362148713926185], [-111.48990868098619, 26.361138084219714], [-111.4899065459144, 26.36063148674317], [-111.4895304469182, 26.36029503606741], [-111.48952618028561, 26.359281840901623], [-111.48904114846182, 26.358847932695895], [-111.48922777333254, 26.358678427100433], [-111.48914582374168, 26.357932193673033], [-111.48839152188823, 26.35675268886873], [-111.48838584721122, 26.3554017610507], [-111.48800976972645, 26.355065305839503], [-111.48800611361268, 26.354194187700354], [-111.48853235180968, 26.35371620876543], [-111.48890629630111, 26.353546064654104], [-111.49115493279682, 26.353707241565363], [-111.4926478265176, 26.352351168368198], [-111.49376890796812, 26.351671835312345], [-111.49604681756082, 26.351663966521194], [-111.49849071233771, 26.353681903906136], [-111.50073863492129, 26.353674064429786], [-111.5011147440855, 26.354010485830816], [-111.50148939882183, 26.354009174823428], [-111.50220774907402, 26.354651711367033], [-111.50221588813055, 26.356536021324196], [-111.50109844999585, 26.35805974806851], [-111.50111956055989, 26.362956848950002], [-111.49962881095355, 26.36481960544405], [-111.49963970073786, 26.367352587257574], [-111.49926645387957, 26.367691624898967], [-111.49927588595136, 26.36988687509708], [-111.49658453441832, 26.37233142399991], [-111.49677261347578, 26.372499639503353], [-111.49658597793477, 26.372669154762757], [-111.49666870917517, 26.37358424693746], [-111.49707875330483, 26.373950979581036], [-111.49801555137994, 26.37394772433578], [-111.49854592263249, 26.374422062246012], [-111.49854893632121, 26.375124311271772], [-111.4981756616604, 26.375463346104283], [-111.49818435208664, 26.377489729064134], [-111.49781179257667, 26.37799762817998], [-111.49781745212364, 26.3793181304386], [-111.4957601219384, 26.379325269497006], [-111.49538394480547, 26.378988836162325], [-111.49276079491577, 26.378997888795784], [-111.49238462741074, 26.378661447427174], [-111.49163515791382, 26.37866402306723], [-111.48900490475975, 26.3769843524266], [-111.48844281047708, 26.376986271142492], [-111.48712842435343, 26.376315277470084], [-111.48600424189203, 26.376319097872035], [-111.485628102461, 26.3759826382314], [-111.48517582410851, 26.37625100659728], [-111.48472131681633, 26.375985710994666], [-111.48266593379101, 26.377343598675388], [-111.48210383724073, 26.37734549252909], [-111.48169688083998, 26.377715018167827], [-111.48169954194603, 26.378356707550658], [-111.48124818158409, 26.377952942303676], [-111.47835930718259, 26.378033524700506], [-111.47720494821101, 26.378912137094005], [-111.47721396794209, 26.381107391085898], [-111.47684061112527, 26.381446371137326], [-111.47684187290413, 26.38175368300302], [-111.47612613506527, 26.381756065292382], [-111.47478641927624, 26.38314187858193], [-111.47497506613645, 26.383452200351982], [-111.4749827735745, 26.385336510400407], [-111.47423601775806, 26.386014458050553], [-111.47423808683683, 26.38652105490183], [-111.47386470406057, 26.38686002728963], [-111.47386952839506, 26.38804208647725], [-111.47334307585534, 26.388520012195077], [-111.4725635067453, 26.388522588175768], [-111.47069926324475, 26.387191320835996]], [[-111.48298830889783, 26.371972785565074], [-111.48347376322218, 26.37153195132627], [-111.48320448513124, 26.370786347888355], [-111.48279449545463, 26.370419574584975], [-111.48188775284758, 26.370422628806892], [-111.4812941641323, 26.37096164950354], [-111.48129615165493, 26.371441458899525], [-111.48189419732586, 26.371976471826898], [-111.48298830889783, 26.371972785565074]]]}}]}
