{"type": "FeatureCollection", "features": [{"type": "Feature", "properties": {"uga": "14", "politica": "aprovechamiento-sustentable", "procedencia": {"metodo": "digitalizacion-semiautomatica", "fuente": "Mapa de ubicación de la ficha UGA 14, Boletín Oficial No. 12 (12-mar-2014), p. 195 del PDF", "datum": "UTM 12N con desplazamiento de +30 m E y +165 m N ajustado contra la costa (INC-011)", "correccion_borde_px": 1.4, "precision_aprox_m": 66.0, "escala_por_superficie": false, "revisada_en_qgis": false}, "control": {"residuo_georreferencia_m": 27.6, "area_digitalizada_ha": 2223.61, "escala_por_superficie": false, "superficie_ficha_ha": 2297.88, "diferencia_area_pct": -3.2}}, "geometry": {"type": "MultiPolygon", "coordinates": [[[[-111.39223599039569, 26.289757857268473], [-111.3919038566159, 26.289459779651935], [-111.38864593859209, 26.28946863970713], [-111.38733180958559, 26.290662326383522], [-111.38630496448555, 26.28056658360309], [-111.38855646505047, 26.280560506609895], [-111.3885582769573, 26.281104482222357], [-111.38928245206208, 26.28175448133357], [-111.39120929902423, 26.281749242651678], [-111.39154925664928, 26.284385193096444], [-111.39221349485274, 26.284981349937077], [-111.39288076137535, 26.286474450781125], [-111.3928847903019, 26.287670380210937], [-111.3935490541911, 26.288266530309976], [-111.39355407507574, 26.289754248583495], [-111.39223599039569, 26.289757857268473]]], [[[-111.40206439725448, 26.339660946221763], [-111.40041421854686, 26.34145946257008], [-111.39677661953213, 26.341469580065393], [-111.39610916219769, 26.340030502341484], [-111.3961020375307, 26.337937641804487], [-111.39543645787849, 26.337042530827844], [-111.39543340993905, 26.33614559022571], [-111.39324663424311, 26.333885834795456], [-111.39357687750403, 26.333585945232652], [-111.39343472710037, 26.33286227600311], [-111.39191154917006, 26.33089965881777], [-111.39224178754712, 26.33059977226279], [-111.3914351525383, 26.32927995049851], [-111.39143113114079, 26.32808402779934], [-111.39076664808627, 26.32748787362321], [-111.39076464094768, 26.326889912101308], [-111.3897079401377, 26.325941847696058], [-111.38910528977924, 26.325943484570868], [-111.38910347174733, 26.325399512394423], [-111.38810679064117, 26.324505262955487], [-111.38777058410314, 26.323011254139573], [-111.38658182781329, 26.321944622426344], [-111.38707716795959, 26.321494810360868], [-111.38657885009486, 26.321047678984804], [-111.38743025181168, 26.32027452288637], [-111.38808670535256, 26.31847884441643], [-111.38973775615246, 26.31697944697692], [-111.39005514565586, 26.31285260453387], [-111.3913774904974, 26.314039131616717], [-111.39263450688955, 26.314035695695807], [-111.39184281126357, 26.31475472941306], [-111.39198492812989, 26.315478402404462], [-111.39298458684655, 26.31726956988337], [-111.39298761340429, 26.318166513112388], [-111.39431751341186, 26.319657781114415], [-111.39432052619647, 26.320547530943234], [-111.3930020932873, 26.320551150583828], [-111.392337645813, 26.319955002671165], [-111.38907887528907, 26.319963882081947], [-111.38835880929412, 26.32061779190152], [-111.38836264174563, 26.32176691962136], [-111.39005597012414, 26.32298815638481], [-111.39366436480456, 26.32240441903043], [-111.39367024735303, 26.324144314372013], [-111.39433776371976, 26.32563739756353], [-111.39434485282823, 26.327730262138886], [-111.39699694961952, 26.33070558222044], [-111.3950772634722, 26.33071088578663], [-111.39438301014795, 26.331341355521], [-111.39488140222156, 26.331788458299187], [-111.39455116739981, 26.33208835084708], [-111.39502457494537, 26.332811106495072], [-111.39502761928841, 26.33370804755888], [-111.39735456190748, 26.33609348009874], [-111.397693996804, 26.33848440207794], [-111.3982256615908, 26.338961298364246], [-111.39875405195839, 26.33848145665643], [-111.39875200280615, 26.337883496628606], [-111.39987481219059, 26.33686382658705], [-111.4017271445301, 26.337929178263785], [-111.40299238697249, 26.33792562625867], [-111.4026671176986, 26.33965925405883], [-111.40206439725448, 26.339660946221763]]], [[[-111.39200044842471, 26.302315860880896], [-111.39002487564234, 26.303810361449862], [-111.38934675641674, 26.299088246936716], [-111.3886794605039, 26.29759513257971], [-111.38867447611827, 26.296100222077484], [-111.3881502686759, 26.295629765223037], [-111.38867048889126, 26.294904293450774], [-111.3880052163117, 26.294009139226365], [-111.38799827541848, 26.29192345621359], [-111.39158297456002, 26.29251168878354], [-111.39289708008987, 26.29131796373723], [-111.39291703081926, 26.297237808452547], [-111.39358235957033, 26.2981329388696], [-111.39359144584873, 26.300823775205828], [-111.39411569862705, 26.301294211330013], [-111.39378554717025, 26.301594102432563], [-111.39411772070568, 26.301892174745806], [-111.39313443377684, 26.302785326271774], [-111.39260940798027, 26.302314195604165], [-111.39200044842471, 26.302315860880896]]], [[[-111.3998122844165, 26.262590460311802], [-111.40028364106094, 26.26301353430025], [-111.40075208754828, 26.262587840812973], [-111.40404820776143, 26.2625786049764], [-111.4024060434219, 26.264070952193318], [-111.40241635027363, 26.267060781260316], [-111.40044124873597, 26.27035514565636], [-111.4001274421626, 26.275391977383006], [-111.40184800309912, 26.276936088840404], [-111.40284127948625, 26.276933304966747], [-111.40383662545497, 26.277528478957667], [-111.40543230554042, 26.277523981192132], [-111.40543419588886, 26.278067955919717], [-111.40595839223238, 26.278538350895875], [-111.40562833521496, 26.278838269100607], [-111.40577065330682, 26.279608728410906], [-111.40450896735258, 26.280455254465778], [-111.40384676325642, 26.280457119068785], [-111.40279798290894, 26.28170999685654], [-111.4031340933098, 26.28315718136678], [-111.4053190537354, 26.285117828750217], [-111.40479810546314, 26.28559117500517], [-111.40480433202178, 26.287385066687015], [-111.40414519701163, 26.28828387885324], [-111.40415141426251, 26.290077770006853], [-111.40150855591315, 26.291879097295823], [-111.40151267429204, 26.29307502457092], [-111.40091206531768, 26.2936206829709], [-111.39688705942088, 26.294229841786912], [-111.39628272459707, 26.29368753286873], [-111.3962754522412, 26.291547862032992], [-111.39674174015717, 26.29022454032139], [-111.39593432525955, 26.28860575168932], [-111.39592113000514, 26.284718982248418], [-111.39525586142342, 26.283823860341904], [-111.39524455895119, 26.28048825621231], [-111.39590473457176, 26.279888466220935], [-111.39590087898345, 26.27875233244937], [-111.39722289097507, 26.279938814987464], [-111.39948723725679, 26.279932531092044], [-111.40119736483769, 26.278425642207505], [-111.39980788224261, 26.276880601701357], [-111.39701985127863, 26.27676293855815], [-111.39635969892464, 26.277362733672053], [-111.39523053711947, 26.27634929625659], [-111.39522126430485, 26.27361165433587], [-111.39588038734712, 26.272712881478007], [-111.39587734458881, 26.271815932879296], [-111.39653746847226, 26.27121613985031], [-111.39653153239269, 26.269469039268117], [-111.39453803041516, 26.267381629870467], [-111.394531000534, 26.265301747381976], [-111.3953279732593, 26.266017121816976], [-111.3956651964332, 26.265710707218833], [-111.39519307537996, 26.26528692708424], [-111.39519089261819, 26.26464216369848], [-111.39645044733037, 26.263197752435754], [-111.3998122844165, 26.262590460311802]]], [[[-111.48955047594552, 26.353165991289472], [-111.48819727201445, 26.35439642702363], [-111.48820209682442, 26.35554553394301], [-111.48886849165088, 26.356440201070768], [-111.48887352030486, 26.357636103345072], [-111.48953993250495, 26.35853076684928], [-111.48954370949174, 26.35942769322187], [-111.49021013730443, 26.360322353169046], [-111.49021518061663, 26.361518254554795], [-111.49088036318606, 26.362113935616687], [-111.49088434874338, 26.36305765710878], [-111.49022672660489, 26.36425582768463], [-111.49023280435856, 26.365696715006376], [-111.4896299561509, 26.36569877730499], [-111.48830961825026, 26.366899203178054], [-111.4846114328276, 26.366911765164982], [-111.48161942075066, 26.364530020982446], [-111.48001365990892, 26.36393745220404], [-111.47896497007196, 26.365190871715356], [-111.47897359545645, 26.36728370107517], [-111.4780428598415, 26.368129760686344], [-111.4750607256384, 26.368139684373023], [-111.47321596932434, 26.369216312798635], [-111.47288340113134, 26.368918431600978], [-111.47241480023533, 26.369344356512194], [-111.47075804053337, 26.369349812461017], [-111.47009775562637, 26.36994994120487], [-111.46910369434978, 26.36995320105964], [-111.4670619618092, 26.371508763690137], [-111.46674602993058, 26.375349734333177], [-111.46707860130572, 26.37564762948308], [-111.4670870164949, 26.377740459386402], [-111.46775699263331, 26.37953214920283], [-111.4677619974744, 26.38077484710641], [-111.46743181603584, 26.3810749050062], [-111.46711245583805, 26.384065741184262], [-111.46618150010498, 26.384911724682464], [-111.46485830733813, 26.385513986513807], [-111.4625397091677, 26.385820476859475], [-111.46154907625841, 26.386720612640108], [-111.46017006027664, 26.386725052676116], [-111.45519082311525, 26.38464811692814], [-111.45306296065196, 26.384529469150436], [-111.45060583951121, 26.384961603146362], [-111.44862091967016, 26.38586477695717], [-111.44558785995461, 26.388320078105522], [-111.44427023926738, 26.390417031699428], [-111.44427573136461, 26.3918521167298], [-111.44328451276448, 26.39096405802995], [-111.44069076939321, 26.390374108637477], [-111.44068870451846, 26.389830144916495], [-111.43802951346835, 26.38774544902], [-111.43802502898308, 26.38655673600474], [-111.43862798986129, 26.38655488957565], [-111.44132975810291, 26.384100756119786], [-111.44132748562451, 26.383502803172604], [-111.4419879972115, 26.382902805328783], [-111.44198458361578, 26.382005875818855], [-111.44264508336688, 26.381405874968266], [-111.44262703182183, 26.376669045018858], [-111.4406274463083, 26.37368540927204], [-111.43923742013702, 26.37243976863941], [-111.43591706644003, 26.370656031589313], [-111.43498283051447, 26.37065887250193], [-111.435306549777, 26.36861901337651], [-111.43464161014276, 26.368023071504947], [-111.43462372038513, 26.363239431493817], [-111.43323277001765, 26.361694750701076], [-111.43130350057011, 26.361401592011685], [-111.4313003729425, 26.36055864756988], [-111.43057546971548, 26.359908876417702], [-111.42930999254803, 26.359912674848704], [-111.42864202565838, 26.35847375843931], [-111.42863541185035, 26.356679889997647], [-111.42697223504918, 26.354890967979653], [-111.42727423727393, 26.353969724587166], [-111.42324926933559, 26.349765336763593], [-111.42225320329368, 26.34917031201594], [-111.42092801647308, 26.34917421128764], [-111.42026326225356, 26.34857819880383], [-111.41926937696881, 26.34858111054268], [-111.41760860719485, 26.347390032518717], [-111.41661473172529, 26.34739292572306], [-111.41601002668861, 26.346850708271997], [-111.41600468028471, 26.345355813069784], [-111.41533997306846, 26.344759776865928], [-111.41533677063616, 26.343862839443954], [-111.41334164324411, 26.341775731784004], [-111.41333637849603, 26.340293834494627], [-111.41532395808917, 26.342076175825454], [-111.41726037529257, 26.34266851526099], [-111.41864081270816, 26.34141457033648], [-111.41863670378942, 26.340272642977826], [-111.42128044143199, 26.340264895903864], [-111.42294549302783, 26.342651849098257], [-111.42553589534552, 26.34264418042912], [-111.42553788510405, 26.343188148826915], [-111.42692741202335, 26.34443393360038], [-111.42886172088284, 26.34442815764651], [-111.4298544646599, 26.344126201224174], [-111.43186705969977, 26.34169770328491], [-111.43122830575146, 26.341125061225725], [-111.43122608946378, 26.340527103883925], [-111.43056133327879, 26.339931138497562], [-111.43055801418879, 26.339034202237773], [-111.42936649876259, 26.337369976561934], [-111.43015811135585, 26.33665073882301], [-111.43380420692742, 26.33723771387286], [-111.43545716120413, 26.336335755097842], [-111.43809283404845, 26.33632772321314], [-111.43651194601371, 26.338364237963876], [-111.4351868847606, 26.338368267583153], [-111.4341953199626, 26.33896923904538], [-111.43251187152974, 26.340798812783916], [-111.43315285615412, 26.341969406211046], [-111.43315730888573, 26.343165320299143], [-111.43448800846471, 26.344656200834308], [-111.43482487976824, 26.346150087659087], [-111.43681821860184, 26.34763893298394], [-111.43748642488465, 26.34913180204115], [-111.43821129808562, 26.34978153955256], [-111.43915180006046, 26.34977865995237], [-111.44014229854366, 26.34887867628972], [-111.44112974947292, 26.34887563954475], [-111.4411365264515, 26.35066231407457], [-111.44047845594147, 26.35186026413952], [-111.43882757928458, 26.35336023687897], [-111.43850285988053, 26.35510832209585], [-111.43956248210529, 26.356653970260503], [-111.44082792207476, 26.35665008169795], [-111.44082998460165, 26.357194047929784], [-111.44388101979979, 26.35963046362595], [-111.44581557706536, 26.359624455622605], [-111.4474699023125, 26.359021335506604], [-111.44983953359139, 26.356568077125885], [-111.44983166797579, 26.354535031441625], [-111.45082262075488, 26.355423052658484], [-111.45215019882454, 26.35601683039062], [-111.4530907494428, 26.356013858644], [-111.45381066280558, 26.35535962859839], [-111.45380599527337, 26.35416371989722], [-111.45512538207211, 26.352664629924654], [-111.45512325308488, 26.352120664414628], [-111.45572603389496, 26.35211874827722], [-111.45644590845346, 26.351464505140708], [-111.45644121461926, 26.350268596228066], [-111.45775817023586, 26.348171527647906], [-111.45775249944116, 26.346730630014942], [-111.45967804127626, 26.34612650356148], [-111.46171824746584, 26.34427206800938], [-111.46171608843362, 26.343728102365088], [-111.46231882519332, 26.34372615906245], [-111.4633026803799, 26.342831844809954], [-111.46298422612227, 26.346054676575605], [-111.46238147735421, 26.346056622836], [-111.46001114214542, 26.348211108826902], [-111.45970922962033, 26.34908562240473], [-111.46035289999118, 26.350854042862956], [-111.46036000137379, 26.35264790502603], [-111.46208131893265, 26.353892275987793], [-111.46539440138665, 26.353881551509446], [-111.46599937047263, 26.354423556580386], [-111.4656788377936, 26.357115423603467], [-111.46906050094076, 26.359251242319488], [-111.47085771089164, 26.357869343393375], [-111.46839101007419, 26.355957455963523], [-111.46838140411552, 26.35357283633396], [-111.4696468054794, 26.35356869364656], [-111.47102558658875, 26.352015274972647], [-111.47102217232462, 26.351172334047945], [-111.47195624698301, 26.35116926011919], [-111.47300610529265, 26.350214866723384], [-111.47299902918125, 26.348474996011646], [-111.47360178956511, 26.34847300492082], [-111.4742619359836, 26.347872860123257], [-111.4763030692559, 26.34786608954432], [-111.47724057545648, 26.348705922101843], [-111.47957935164874, 26.35348179868577], [-111.48163467020461, 26.35532277408954], [-111.48257645213253, 26.355618584753525], [-111.48428763524656, 26.354362900410777], [-111.48427911398858, 26.352316864778867], [-111.48294893608399, 26.351125433992543], [-111.48294278224253, 26.349643552779703], [-111.48374087535217, 26.35035841312525], [-111.48525788497717, 26.350227884506438], [-111.48918759993423, 26.35200840162567], [-111.49023732213337, 26.351053883920226], [-111.49022869744152, 26.349007849157903], [-111.48956359429549, 26.348412162886717], [-111.48955458854451, 26.34627253542911], [-111.49021463909938, 26.345672318260664], [-111.49021085921598, 26.34477539025594], [-111.49087089797018, 26.34417517010614], [-111.49086837482037, 26.343577218049468], [-111.49146881015034, 26.34303118880524], [-111.49483495654721, 26.343019604731296], [-111.49544000335497, 26.34356148519411], [-111.49545528443153, 26.347149194315303], [-111.49684559697985, 26.34839428968316], [-111.49943610015137, 26.348385283394038], [-111.49944999178531, 26.351620024024463], [-111.50011516340436, 26.352215663155143], [-111.50012156174992, 26.353703346484757], [-111.49847146615527, 26.353709097419877], [-111.49547951959471, 26.351327637596153], [-111.49354765193812, 26.351932265557213], [-111.49123612085968, 26.353734089763044], [-111.49018880880806, 26.353737677114953], [-111.48955047594552, 26.353165991289472]], [[-111.4531709695875, 26.36974261876878], [-111.4545247257382, 26.36851250925091], [-111.45385870465138, 26.36766447719595], [-111.45385636934273, 26.3670665239018], [-111.45313130064363, 26.36641686962297], [-111.45020259851452, 26.36642610614657], [-111.44948259700256, 26.367080318194752], [-111.44948819814, 26.368528406245595], [-111.45021326012777, 26.36917807887184], [-111.45120731741767, 26.369174950232217], [-111.45184555371596, 26.369746807012408], [-111.45214913799353, 26.369470959942884], [-111.4531709695875, 26.36974261876878]]]]}}]}
