{"type": "FeatureCollection", "features": [{"type": "Feature", "properties": {"uga": "15", "politica": "aprovechamiento-sustentable", "procedencia": {"metodo": "digitalizacion-semiautomatica", "fuente": "Mapa de ubicación de la ficha UGA 15, Boletín Oficial No. 12 (12-mar-2014), p. 198 del PDF", "datum": "UTM 12N con desplazamiento de +30 m E y +170 m N ajustado contra la costa (INC-011)", "correccion_borde_px": 1.4, "precision_aprox_m": 40.0, "escala_por_superficie": false, "revisada_en_qgis": false}, "control": {"residuo_georreferencia_m": 30.8, "area_digitalizada_ha": 151.71, "escala_por_superficie": false, "superficie_ficha_ha": 154.96, "diferencia_area_pct": -2.1}}, "geometry": {"type": "Polygon", "coordinates": [[[-111.3896327010844, 26.315881547358195], [-111.3892371093521, 26.3162403342199], [-111.38955193530707, 26.316672387975927], [-111.3892395002504, 26.316955752863702], [-111.38924178362164, 26.317638971494304], [-111.38828948001583, 26.31764155324469], [-111.38836967101949, 26.316675594689922], [-111.38817067998076, 26.316497277167386], [-111.38868091375727, 26.316034522306246], [-111.38867862136966, 26.31534756745296], [-111.38828064356075, 26.31499093287211], [-111.38827408556774, 26.313023530665916], [-111.38747636620465, 26.311773693238862], [-111.38747517642982, 26.311415983592468], [-111.38696189275531, 26.310955996145857], [-111.38715968361154, 26.31077660591717], [-111.38707305616232, 26.30980736126207], [-111.38667450876768, 26.309271866790223], [-111.38667272800248, 26.308735302075764], [-111.38576092151851, 26.30773981419067], [-111.38595870885403, 26.30756042557788], [-111.38507799167782, 26.306414457047527], [-111.38515750527993, 26.30523744352958], [-111.38495853887264, 26.30505912099578], [-111.38546873609033, 26.304596377239204], [-111.38546705539405, 26.30408827608404], [-111.38427091624196, 26.302302918426438], [-111.38287820905448, 26.301054645052602], [-111.38247795048937, 26.299982572097356], [-111.38216368958787, 26.29970089224323], [-111.3830682544702, 26.298521678547743], [-111.38305649990609, 26.294944572810852], [-111.38345027471598, 26.294049236503646], [-111.38344860359416, 26.293541134480783], [-111.38313435795136, 26.29325945633532], [-111.3838405106459, 26.29208076683236], [-111.38391011225707, 26.287891672991762], [-111.38371117769861, 26.28771334795048], [-111.38390893466759, 26.287533962003895], [-111.38382235412342, 26.286564711763173], [-111.38302369233966, 26.284957131302857], [-111.38302066211104, 26.28403438926782], [-111.38321841399352, 26.283855004237935], [-111.38301899359534, 26.283526286510188], [-111.38301126543031, 26.281172699027433], [-111.38340617118972, 26.28063507300838], [-111.38340451352282, 26.280130706077898], [-111.38416213830014, 26.28012868045887], [-111.38447457960797, 26.279845243369472], [-111.38478888364224, 26.280127001742603], [-111.38554650827209, 26.280124968817205], [-111.38594720951063, 26.281343692109065], [-111.38635869005928, 26.285814013630873], [-111.38667292308563, 26.286095685143092], [-111.38636106010985, 26.286529435553685], [-111.38676012004821, 26.28724378891658], [-111.38676664508303, 26.28921119854678], [-111.38716749845642, 26.290462116476075], [-111.38717046784127, 26.29135639320353], [-111.38748471792273, 26.29163806253339], [-111.38718808028182, 26.2919071486141], [-111.38757073868575, 26.292428454204604], [-111.38757490055254, 26.293680441188783], [-111.38797458816087, 26.29457364535023], [-111.38797756427279, 26.295467921479617], [-111.38829182749862, 26.295749588735752], [-111.38809406359294, 26.295928980597406], [-111.38837726126704, 26.296361124194746], [-111.38838024070152, 26.297255400058546], [-111.38869450976641, 26.297537066298112], [-111.3883978601284, 26.297806154795236], [-111.38877994708282, 26.298148601327135], [-111.38878412298277, 26.299400587133253], [-111.38938579227018, 26.301366378948025], [-111.38930453115721, 26.302006829888985], [-111.38958715047688, 26.302260115507828], [-111.3895919337282, 26.303690955453547], [-111.38999107353605, 26.304405297249566], [-111.39019483756081, 26.30601445212519], [-111.39039381353318, 26.306192767264715], [-111.3903986075157, 26.307623606288168], [-111.39079716614255, 26.30815909040665], [-111.39051932556686, 26.309336646230243], [-111.39071830777331, 26.309514960768123], [-111.39040589454632, 26.309798328232716], [-111.39032573691192, 26.310768024634807], [-111.39052472130078, 26.310946339381704], [-111.39021230380658, 26.311229706416416], [-111.39002050503194, 26.31319764831438], [-111.38962671825101, 26.314093000430304], [-111.3896327010844, 26.315881547358195]], [[-111.3852469970113, 26.29872690193878], [-111.386405431845, 26.29872378666761], [-111.38691972699422, 26.298257290520237], [-111.38620220769057, 26.29725754318373], [-111.38524214937225, 26.2972601241825], [-111.38481100064793, 26.29765119514811], [-111.38481326846313, 26.29833815201081], [-111.3852469970113, 26.29872690193878]]]}}]}
