{"type": "FeatureCollection", "features": [{"type": "Feature", "properties": {"uga": "16", "politica": "conservacion", "procedencia": {"metodo": "digitalizacion-semiautomatica", "fuente": "Mapa de ubicación de la ficha UGA 16, Boletín Oficial No. 12 (12-mar-2014), p. 201 del PDF", "datum": "UTM 12N con desplazamiento de +30 m E y +170 m N ajustado contra la costa (INC-011)", "correccion_borde_px": 1.4, "precision_aprox_m": 95.0, "escala_por_superficie": false, "revisada_en_qgis": false}, "control": {"residuo_georreferencia_m": 81.1, "area_digitalizada_ha": 15291.37, "escala_por_superficie": false, "superficie_ficha_ha": 15407.74, "diferencia_area_pct": -0.8}, "georreferencia": {"a_x": 47.50540209741279, "b_x": 440308.9544203838, "a_y": -47.620166098343965, "b_y": 2927854.3333840594, "factor_render": 1, "pagina_mapa": 201, "ficha_mapa": "16"}}, "geometry": {"type": "Polygon", "coordinates": [[[-111.55064633366027, 26.372013161758], [-111.55299831569634, 26.373690644848793], [-111.5530064495855, 26.375399370255273], [-111.55214021270041, 26.375402713354983], [-111.55110615060286, 26.376344411546174], [-111.55207047639011, 26.37885385111314], [-111.5520785984691, 26.380562575555203], [-111.55045863680175, 26.38038860888138], [-111.5492257838129, 26.381511262514767], [-111.54876139442423, 26.3840150784654], [-111.54686560547742, 26.384022333578386], [-111.5449526437903, 26.382309754078005], [-111.54304778034327, 26.382316992845304], [-111.54209133439801, 26.381460680082785], [-111.5392340584909, 26.381471471299005], [-111.5373212501407, 26.379758786819913], [-111.53541642613035, 26.379765923404776], [-111.53406837445667, 26.378558826982253], [-111.5340641141161, 26.37763224601283], [-111.53785608387517, 26.373814983340022], [-111.53681325217558, 26.372881180876483], [-111.53451849800587, 26.372889765537767], [-111.5340347722799, 26.37124946771535], [-111.53279160066506, 26.370136176688135], [-111.52974495365251, 26.37032768515141], [-111.52926326471794, 26.369117332439263], [-111.52924368312077, 26.36481770121926], [-111.528478722436, 26.364132573110982], [-111.52752358118995, 26.365865644570885], [-111.52866942155775, 26.366891897642223], [-111.52440544812119, 26.36690757480768], [-111.52344926624997, 26.366051131669767], [-111.52202081364068, 26.366056345553535], [-111.51724782065376, 26.363493837800746], [-111.51534325711816, 26.3635007033936], [-111.51398806010288, 26.3626456307485], [-111.5129537952815, 26.363587058048154], [-111.51248868642628, 26.366090773267555], [-111.50916472274027, 26.366102629418037], [-111.50848634017697, 26.36549486250277], [-111.50772750615553, 26.366185508818994], [-111.50726449148645, 26.369196948147916], [-111.5063159085996, 26.370060247456486], [-111.50584876090814, 26.3721339769241], [-111.50498254175946, 26.37213703437478], [-111.50423270868849, 26.372819413162187], [-111.50347697552864, 26.3721423360281], [-111.50261075600075, 26.372145379132203], [-111.50260179289192, 26.37007333145104], [-111.50108125480972, 26.36871096911499], [-111.49973889707455, 26.368715659816075], [-111.49972045591828, 26.364427126983557], [-111.50161390561337, 26.36184067756122], [-111.50159349782872, 26.35711105764925], [-111.50254044204533, 26.355884480764438], [-111.49967269052168, 26.35331467844013], [-111.49965421648186, 26.34901501770795], [-111.49865057122777, 26.348115571487885], [-111.4982146942406, 26.348512280590946], [-111.4958433879882, 26.348520506434], [-111.4958253908823, 26.344298616417127], [-111.49430527330175, 26.342936171343464], [-111.49200199664656, 26.342944097725272], [-111.48954858342091, 26.346040090543436], [-111.4900478781482, 26.35155025609759], [-111.48672431878333, 26.351561585639256], [-111.48576853830048, 26.35070488335458], [-111.48393940654698, 26.350281100194646], [-111.48294176864816, 26.35118886088641], [-111.48433837655948, 26.35244073638486], [-111.48434581791784, 26.354227261605505], [-111.48225701777909, 26.355696216499304], [-111.4796832113049, 26.355025118447763], [-111.4796799845714, 26.35424296031822], [-111.47776319564186, 26.35123955258692], [-111.47775789650132, 26.34994965004024], [-111.47576007074474, 26.34815862628924], [-111.47393276553295, 26.34816468207108], [-111.47289829818754, 26.349105824792264], [-111.47290354323414, 26.35039572840249], [-111.46815994772356, 26.354711043507443], [-111.46816487308874, 26.35593428937352], [-111.47007627993364, 26.357647923283306], [-111.4700831893179, 26.359356674693792], [-111.46818777947121, 26.35936288246885], [-111.46540884525837, 26.35729984884524], [-111.46540513606857, 26.3563732553979], [-111.4660799513125, 26.355759430398354], [-111.46483425758666, 26.35421412207738], [-111.46063371615875, 26.35379771610865], [-111.46062891452117, 26.352585587261366], [-111.45987517711389, 26.351909718439256], [-111.46034957244159, 26.35147822090997], [-111.4596699157534, 26.350868771357153], [-111.45965636478209, 26.34744014031376], [-111.46052240572529, 26.347437359463125], [-111.46345612099114, 26.345200251982266], [-111.46345296045652, 26.344406972248045], [-111.46244963124707, 26.34350726751943], [-111.45765678822605, 26.3474354220982], [-111.45624541753828, 26.35173966577312], [-111.45434774910889, 26.353465593013023], [-111.4534052971173, 26.355970645800742], [-111.45103382335023, 26.35597813202081], [-111.45035580011474, 26.35537008401823], [-111.44959668067871, 26.356060427095265], [-111.44912720941191, 26.35778179610664], [-111.4473151637457, 26.35942958481894], [-111.4424768443297, 26.359444612345246], [-111.44008643076597, 26.35687213049007], [-111.43874419797908, 26.356876247745344], [-111.43872830941568, 26.352665446915346], [-111.4395943917642, 26.352662792067605], [-111.44062916365226, 26.351721886380112], [-111.4412975587011, 26.34938829739264], [-111.44057024135232, 26.348735905257616], [-111.43843352839599, 26.35024737162363], [-111.43576590926045, 26.347425892025313], [-111.4348998654664, 26.347428523245746], [-111.43489372576326, 26.345786418683165], [-111.43297822671292, 26.342782391553303], [-111.43296837771379, 26.340135909000104], [-111.43430589382415, 26.33891971272241], [-111.43573403149193, 26.338915377841502], [-111.436768714463, 26.337974499372233], [-111.43744196139136, 26.33693083635084], [-111.43695356906282, 26.336492682253972], [-111.43437615495438, 26.33711070022821], [-111.43144291082044, 26.337119559997795], [-111.43056625455547, 26.336692220322192], [-111.4295683091081, 26.33759961499875], [-111.4312448100713, 26.34038942301874], [-111.4307703498548, 26.34082082564626], [-111.43097876670264, 26.342788418775267], [-111.43050719038104, 26.34400198519921], [-111.42821613573567, 26.344868800929707], [-111.42718697689443, 26.344871872704793], [-111.42432270998133, 26.34273050420626], [-111.4228945233432, 26.34273472594309], [-111.42050488702496, 26.340161901862217], [-111.4188765636461, 26.339986462476297], [-111.4181173538492, 26.34067664131256], [-111.4181232553904, 26.34231875064107], [-111.41575358543925, 26.3427556211378], [-111.41336563247087, 26.340612648010957], [-111.41193746982931, 26.340616760244387], [-111.40859904924032, 26.338906411322213], [-111.40336252506359, 26.33892124488146], [-111.40002427667743, 26.337210693786083], [-111.39773603224998, 26.338928752433052], [-111.39725000235424, 26.336006256793887], [-111.39486106726383, 26.333432994531503], [-111.39485500622935, 26.331646442624777], [-111.39624188562183, 26.33038601297592], [-111.39436755934537, 26.328274623259176], [-111.3943617330562, 26.326554728497957], [-111.3938842805256, 26.32612606327188], [-111.39386514653414, 26.320469743185974], [-111.39430288153763, 26.320071891618415], [-111.39242586112782, 26.317100522485145], [-111.39242006636555, 26.31538062464125], [-111.39050904964274, 26.313235948171986], [-111.39094365972035, 26.31191149839079], [-111.3902275920442, 26.311268480326156], [-111.39097611092146, 26.310588143966697], [-111.39096479169758, 26.307215002888363], [-111.3900057580313, 26.30506771814386], [-111.39000121791165, 26.303711133477336], [-111.39161438109734, 26.30224480932797], [-111.39236901228838, 26.30292249664588], [-111.3932347297552, 26.302920126195072], [-111.39324317290296, 26.305422199429803], [-111.3941979049697, 26.306279536935747], [-111.3942051784149, 26.308429411444575], [-111.39516140078666, 26.309716716553048], [-111.39518036253604, 26.315306385602035], [-111.3970944309803, 26.31831094608685], [-111.3990905433421, 26.32010309487111], [-111.39996548423798, 26.3201006570284], [-111.40100029508784, 26.31916003282061], [-111.40099760186824, 26.318377862485423], [-111.40328834703382, 26.31751148235803], [-111.40519218795873, 26.317506115498613], [-111.40670138813182, 26.316134131230072], [-111.40713755967609, 26.315306267200757], [-111.40521853211551, 26.314012099949597], [-111.40478245815196, 26.3144085292267], [-111.40042193147366, 26.31442077057682], [-111.39946708662538, 26.31356347675512], [-111.39860129072717, 26.31356588571701], [-111.39764086095956, 26.311066459130338], [-111.3976291210612, 26.30762666230229], [-111.39715173521962, 26.307198006081848], [-111.39714147707002, 26.304188182145307], [-111.39617797102346, 26.300751013328835], [-111.39710902065956, 26.29466206842964], [-111.39797200625534, 26.293877496775412], [-111.40035132626542, 26.29387087798513], [-111.40138590403558, 26.29293025027528], [-111.40138025099002, 26.29128812618999], [-111.40272173435162, 26.29128436769858], [-111.40423062883623, 26.289912408020783], [-111.40422168610381, 26.28733255503233], [-111.40513211046716, 26.286073378259964], [-111.40468880234073, 26.284818019087602], [-111.40325686221938, 26.28353210952182], [-111.4032491994605, 26.28131557104071], [-111.4060965899157, 26.279157642811843], [-111.40457710873503, 26.277430893215136], [-111.40219812531804, 26.277437578208545], [-111.40085263655759, 26.276229178672835], [-111.40037389377116, 26.275370553484713], [-111.40035891283124, 26.27100412822924], [-111.40082877649449, 26.26928289364137], [-111.4022501396814, 26.267558994886247], [-111.40223976791384, 26.264549156200264], [-111.40413679051575, 26.262823905248215], [-111.40318109182839, 26.261603307339097], [-111.40317789203479, 26.260676693865815], [-111.40412488408414, 26.259384088035887], [-111.40411149191875, 26.255514291696432], [-111.40600236295833, 26.252069105721457], [-111.40619672354109, 26.250166967759622], [-111.40551794468499, 26.249557242385734], [-111.40551048183335, 26.247407353218122], [-111.40264309951769, 26.24354557706285], [-111.40112538696292, 26.242182095608836], [-111.39969842724493, 26.242186072074734], [-111.39664943353482, 26.240304047722578], [-111.40213909885836, 26.235310657405755], [-111.40213640791865, 26.23452847804267], [-111.4040298058051, 26.234523167654157], [-111.40498402889273, 26.235380447642786], [-111.40680958440767, 26.23537529167164], [-111.40775783476599, 26.234512638789663], [-111.40966032084489, 26.23450722843667], [-111.41298055589255, 26.23191782964971], [-111.4163098300817, 26.231908224898802], [-111.41725798166448, 26.231045510089142], [-111.42304220443067, 26.23102860180959], [-111.42399653618465, 26.231885754650992], [-111.42685019505399, 26.23187730802351], [-111.42780456136984, 26.232734435051064], [-111.43018262659531, 26.23272733691189], [-111.43109842381467, 26.233549776443372], [-111.43351752857632, 26.231779573478402], [-111.43398704157904, 26.230136006914034], [-111.4368315645843, 26.230127390091024], [-111.43727017381433, 26.230521257804234], [-111.44244557335074, 26.225810398466276], [-111.44434464155421, 26.224944576649236], [-111.44624039997879, 26.22321877592479], [-111.44869520272343, 26.22321113512943], [-111.44964965518764, 26.2240681170095], [-111.45297868969664, 26.224057665778435], [-111.45393318010458, 26.224914618618648], [-111.45583549840268, 26.224908599064133], [-111.45679001648651, 26.225765532468248], [-111.45869234786768, 26.22575947492758], [-111.45964689362668, 26.22661638889206], [-111.46107365202818, 26.226611819604894], [-111.46202822204064, 26.227468717330574], [-111.463454990362, 26.227464124269936], [-111.46440958462782, 26.228321005754147], [-111.46527474083506, 26.22831820793134], [-111.46527785341316, 26.229100381417222], [-111.4684191456886, 26.23234836528891], [-111.46747136661568, 26.23321141271541], [-111.4687140520417, 26.234326765945497], [-111.4701409026984, 26.234322105396426], [-111.48198928868638, 26.244954575294297], [-111.4824723256307, 26.246739531307178], [-111.48179821933685, 26.247353432924267], [-111.48256374242031, 26.248040281347954], [-111.48494210093146, 26.24803227285787], [-111.48628811783011, 26.249239882147343], [-111.48964128361239, 26.25481821713756], [-111.49250998336, 26.258248237002945], [-111.49251361053292, 26.259108181171573], [-111.4939462157037, 26.260393195842603], [-111.49730190564355, 26.266401304997675], [-111.49854361871395, 26.267514940958296], [-111.49921615119625, 26.266902418357695], [-111.5015857957597, 26.266894160443986], [-111.50159839616873, 26.269826179965026], [-111.5030349401299, 26.271971040016076], [-111.50304820245505, 26.275047491598286], [-111.50213892936908, 26.276307276089163], [-111.50496592227972, 26.278413913817932], [-111.50497336684866, 26.280133793951844], [-111.50784314728521, 26.283563479983194], [-111.50832645771364, 26.285281673636817], [-111.50787152364524, 26.290079678679188], [-111.50692544872452, 26.291372951264087], [-111.50646080830887, 26.29395444625291], [-111.50361680865126, 26.296544310419808], [-111.50410383333822, 26.299122453189796], [-111.50319253236057, 26.299952273806678], [-111.50390914369657, 26.300594721635406], [-111.5031613570299, 26.301275638698183], [-111.50316478186483, 26.302068918547327], [-111.50459803858178, 26.30335380998115], [-111.50460205078328, 26.304280404893877], [-111.50345554875393, 26.305756016797606], [-111.50558900958522, 26.312379792763668], [-111.50702616462723, 26.31452459152581], [-111.50703206983937, 26.315881152362103], [-111.50521963377807, 26.31709969466424], [-111.50426772994867, 26.317103045192887], [-111.50228558043553, 26.31890767674485], [-111.50228900195577, 26.31970095475043], [-111.50524427011759, 26.322778168108], [-111.50706555098337, 26.32148181679597], [-111.51047245360895, 26.321039754214393], [-111.51382130200045, 26.324897555320973], [-111.51564823085947, 26.32489099621216], [-111.51763027012274, 26.323086182973135], [-111.51761145378745, 26.318853173583204], [-111.51569810140165, 26.316710198233054], [-111.5156939987382, 26.31578360653107], [-111.51664207571217, 26.314920246141398], [-111.51663860647692, 26.314138088040757], [-111.52090719087273, 26.31283272531285], [-111.52225082726083, 26.313257812620268], [-111.52225433404575, 26.314039970119303], [-111.52425226879166, 26.3158303524598], [-111.5251180661462, 26.315827184711633], [-111.52512159258092, 26.316609341571073], [-111.52895261307643, 26.32175494022742], [-111.52896818933904, 26.32518354762708], [-111.52429639219723, 26.32563068137302], [-111.52235116224973, 26.327402122141944], [-111.523078795528, 26.328054096603992], [-111.52375154059719, 26.32744146088951], [-111.52525652346887, 26.32743595471627], [-111.526173735876, 26.32825775694401], [-111.5287848770232, 26.326743244801328], [-111.52950179472266, 26.327385557797225], [-111.53041151689922, 26.32655702939213], [-111.53286846361217, 26.326547918246618], [-111.5356592598021, 26.329117352491217], [-111.53802335522688, 26.32566872057615], [-111.53905232740046, 26.32566485539744], [-111.54039980644478, 26.32687192243189], [-111.54135978260375, 26.328588189328364], [-111.54136578155544, 26.329878082930215], [-111.54328182793186, 26.332450665506187], [-111.54328985638196, 26.3341705221148], [-111.54424591533716, 26.335026838408897], [-111.54378395760511, 26.33803839259233], [-111.54617825799886, 26.341039087009644], [-111.54618229505361, 26.34189901392013], [-111.5490528001228, 26.34489784113185], [-111.54906529230242, 26.34754427577434], [-111.54859296088512, 26.348339368229258], [-111.55098963816056, 26.351769935226248], [-111.55099569734445, 26.353048704043054], [-111.55012962672684, 26.353052032368215], [-111.54794730786301, 26.355039710038742], [-111.5510181637506, 26.35778940754235], [-111.55103242992188, 26.360799141792484], [-111.55295125581311, 26.36380153433537], [-111.55296557580392, 26.366811265076212], [-111.55392197780856, 26.36766750757528], [-111.55393254360159, 26.369883970454683], [-111.55064633366027, 26.372013161758]], [[-111.45083095558411, 26.303610638450238], [-111.45281532827636, 26.302236678891884], [-111.4523313483488, 26.300154978335858], [-111.45081231678697, 26.298792049229043], [-111.44898577970469, 26.298797776916075], [-111.44747730567869, 26.300170200460332], [-111.44748530401826, 26.30225340374509], [-111.44900434298998, 26.30361636734495], [-111.45083095558411, 26.303610638450238]], [[-111.46035129391899, 26.234104025482814], [-111.46083587168486, 26.233662823234848], [-111.46063082700026, 26.232621857790264], [-111.45986714379009, 26.231936333543366], [-111.45844537877514, 26.233230819042745], [-111.45769082588959, 26.23255347160021], [-111.45681654785314, 26.23255625307931], [-111.45558271812342, 26.23367957135255], [-111.45634799852147, 26.234366564016515], [-111.45722229015445, 26.23436378521004], [-111.4589193798542, 26.23281866171924], [-111.46035129391899, 26.234104025482814]], [[-111.45465287640235, 26.233682515874847], [-111.45344893653586, 26.232601697905164], [-111.45272736103765, 26.233258612949186], [-111.45393130119292, 26.23433943686391], [-111.45465287640235, 26.233682515874847]], [[-111.49559647011577, 26.301708285999588], [-111.49679227163966, 26.300619542817596], [-111.49602631571457, 26.29993278132777], [-111.49515153776787, 26.299935803159112], [-111.49440210381762, 26.30061813154769], [-111.49368554390642, 26.29997563548528], [-111.49130090729375, 26.301283417242896], [-111.49321884073095, 26.302146455791018], [-111.49412863122959, 26.301318153764896], [-111.49559647011577, 26.301708285999588]], [[-111.49931335669838, 26.28062656846349], [-111.50030867125565, 26.279720151637466], [-111.49954289025086, 26.278671537986966], [-111.49744106532685, 26.27885904513647], [-111.49644413619968, 26.279766898665187], [-111.49741014276734, 26.280633176312467], [-111.49784577265635, 26.28023646949918], [-111.49931335669838, 26.28062656846349]]]}}]}
