{"type": "FeatureCollection", "features": [{"type": "Feature", "properties": {"uga": "17", "politica": "aprovechamiento-sustentable", "procedencia": {"metodo": "digitalizacion-semiautomatica", "fuente": "Mapa de ubicación de la ficha UGA 17, Boletín Oficial No. 12 (12-mar-2014), p. 203 del PDF", "datum": "UTM 12N con desplazamiento de +30 m E y +165 m N ajustado contra la costa (INC-011)", "correccion_borde_px": 1.4, "precision_aprox_m": 97.0, "escala_por_superficie": false, "revisada_en_qgis": false}, "control": {"residuo_georreferencia_m": 17.1, "area_digitalizada_ha": 12489.96, "escala_por_superficie": false, "superficie_ficha_ha": 12521.93, "diferencia_area_pct": -0.3}}, "geometry": {"type": "Polygon", "coordinates": [[[-111.61388342385598, 26.33710676006273], [-111.61461476587472, 26.33775999291435], [-111.61385212670208, 26.338454260611183], [-111.6138613609702, 26.340204533346817], [-111.61289544484227, 26.341083823604617], [-111.61290466578251, 26.342834096012197], [-111.61193872087938, 26.343713380009905], [-111.61194792848782, 26.34546365208891], [-111.60519491519246, 26.35336873490527], [-111.60520174761088, 26.354681438884004], [-111.60327407251977, 26.35731503514086], [-111.60327861374216, 26.358190170982205], [-111.60239952538011, 26.3589901690453], [-111.60086563737384, 26.35899661165288], [-111.59647734629928, 26.355076751833884], [-111.58974843632899, 26.350807683761662], [-111.5897369906532, 26.348550573658663], [-111.590703145953, 26.347671436362628], [-111.5906764819319, 26.34242059992962], [-111.59155552959375, 26.34162067271998], [-111.5925260714717, 26.34161666310992], [-111.59349214880045, 26.340737507493976], [-111.59494794997816, 26.34073147112855], [-111.59572130766273, 26.340027665351787], [-111.5942588108443, 26.33872100012704], [-111.59647060870518, 26.336708074216688], [-111.59645974970745, 26.334589487809506], [-111.5932402050686, 26.331277245397278], [-111.58820285223729, 26.334982332683772], [-111.58239306498287, 26.33763153588459], [-111.57948371233094, 26.338080908495684], [-111.57803228779666, 26.338961929409262], [-111.57407450933184, 26.339415417541836], [-111.57358708888269, 26.338979789145863], [-111.56755934356978, 26.33882009579365], [-111.56707621478265, 26.33925958859008], [-111.5663060307003, 26.338571164418735], [-111.5629070895367, 26.338146974118846], [-111.55561357451974, 26.335112367775206], [-111.55220646368683, 26.332937628124938], [-111.54888316837727, 26.329966178321783], [-111.54790447772943, 26.328219595100222], [-111.54635484791537, 26.326833906049497], [-111.54538442150944, 26.326837601055058], [-111.54303187662529, 26.323862313004437], [-111.53953347084322, 26.32073358498589], [-111.53718334578683, 26.320304825977956], [-111.53641983331772, 26.320999157811325], [-111.5351627524894, 26.319874798709794], [-111.53370719711579, 26.319880223792627], [-111.53155794767163, 26.318829348822817], [-111.53079246770436, 26.321203792262406], [-111.52990952279625, 26.32120705810227], [-111.52846946914484, 26.322516463148144], [-111.52846192270866, 26.320853675144264], [-111.52622715947165, 26.317982970017358], [-111.52719355359427, 26.3171042535273], [-111.52455478173961, 26.315179436554015], [-111.52454497227379, 26.313001146535136], [-111.52591301289371, 26.312996136385912], [-111.5271697881587, 26.311853337675064], [-111.52447848607153, 26.309009783162466], [-111.52181483450761, 26.31231050489628], [-111.52298340057081, 26.313355982872043], [-111.51871698469404, 26.313809061581704], [-111.51669702243991, 26.31564554731266], [-111.51670253885155, 26.316889014336457], [-111.51816584822451, 26.318634069424537], [-111.51818757551833, 26.32351667520513], [-111.51682488667035, 26.324755486493597], [-111.51383580643208, 26.324766230381723], [-111.51042209161751, 26.320840170092712], [-111.50586230101447, 26.323298140941283], [-111.50246094164483, 26.31981855353988], [-111.50370553578459, 26.318248009313386], [-111.50370209176893, 26.317451710434515], [-111.505070189154, 26.317446898346915], [-111.50709036841987, 26.31561057371223], [-111.50708305000371, 26.313929526862214], [-111.5061089225599, 26.313057798811737], [-111.50610131821738, 26.311307487135984], [-111.50435621546872, 26.309309870353232], [-111.50508108509494, 26.308650942302876], [-111.50414366977907, 26.307376117892808], [-111.504135797188, 26.305556540250635], [-111.50510225926034, 26.304677970169568], [-111.50509497303258, 26.302996920239405], [-111.50412095308496, 26.30212517582317], [-111.50411308266263, 26.300305596842545], [-111.50504125884875, 26.299461794109316], [-111.5040979431223, 26.29680496575813], [-111.50699516942278, 26.29373165803097], [-111.5069875582234, 26.291981341879687], [-111.50891829288439, 26.289786578396697], [-111.50889759024233, 26.285042470936098], [-111.50499451826104, 26.27980521954295], [-111.50498474790592, 26.277548055053717], [-111.5059493779415, 26.276301163500882], [-111.50440094020281, 26.27491499348413], [-111.50351834215799, 26.274918091764192], [-111.50301670524088, 26.271060424441522], [-111.50204297152496, 26.270188657977503], [-111.5020335602972, 26.268000753871874], [-111.50101117509345, 26.267085391015666], [-111.49959876652316, 26.267930387749093], [-111.49815344813913, 26.267935409291418], [-111.49717265739748, 26.26539214052554], [-111.49131813050506, 26.2570981131086], [-111.49131444842197, 26.256222948524947], [-111.48839026634765, 26.25273221055985], [-111.48838448764056, 26.251350197533263], [-111.48907086221648, 26.250726111705255], [-111.487404014076, 26.24879725845217], [-111.4873981718879, 26.247396992628023], [-111.48710833422994, 26.247660529210606], [-111.48564821170268, 26.246352704221316], [-111.48516514578291, 26.24679192574999], [-111.48394840177141, 26.24570205570243], [-111.48322379576959, 26.246360878958896], [-111.46794341967257, 26.232671117400105], [-111.46493110636331, 26.228663713715836], [-111.463473203595, 26.227793239178197], [-111.46201878045102, 26.227797921350977], [-111.46104571402698, 26.226925862612624], [-111.45667905641689, 26.226064618222356], [-111.45570604386378, 26.22519252241109], [-111.45376685394243, 26.225198656690935], [-111.45230907607251, 26.224328066838623], [-111.44988510535126, 26.22433567309031], [-111.44891215732177, 26.22346353023599], [-111.44705076596773, 26.223469330674853], [-111.44318238805405, 26.226106862301137], [-111.44221278392268, 26.226109848338254], [-111.44143922815329, 26.226812840501836], [-111.44192568701527, 26.227248938054647], [-111.43835077086727, 26.230497600242916], [-111.43544184689759, 26.230506442336786], [-111.43302746759845, 26.23313929024816], [-111.42858620111431, 26.233152602889916], [-111.4276133353434, 26.23228031585656], [-111.42470436289516, 26.232288941187598], [-111.42401375509377, 26.23166969135481], [-111.42353051406118, 26.23210870877728], [-111.4227618823161, 26.231419482706446], [-111.41315273905236, 26.23144742557961], [-111.41313755504646, 26.227150397233412], [-111.41188010627941, 26.2251502023801], [-111.41236336326176, 26.224711223522252], [-111.41263273855304, 26.221481384587655], [-111.41647484776925, 26.224927293672632], [-111.4174896446352, 26.224005404204828], [-111.41672030846684, 26.222948286174592], [-111.41787953785496, 26.221895163992286], [-111.42038123926707, 26.221887870620847], [-111.42329945756612, 26.224504866891255], [-111.42758645345522, 26.224929772525027], [-111.42863991905008, 26.22397259009331], [-111.42863375767512, 26.222291502908078], [-111.42620025408964, 26.21967317866266], [-111.42619202993748, 26.21741596994317], [-111.42900553681633, 26.215298495359562], [-111.43142609976384, 26.21441606640694], [-111.43675839522074, 26.21439996908746], [-111.43869248833234, 26.213081301949686], [-111.44458556775497, 26.212625610035634], [-111.44624566603355, 26.213241757389987], [-111.44741460567325, 26.212179242818735], [-111.45137032081901, 26.212166880989216], [-111.45477543202357, 26.21521930089412], [-111.45720263243192, 26.21608678857141], [-111.45857438851958, 26.21731633787325], [-111.45955767092269, 26.22081393526624], [-111.46276022381107, 26.22412023404733], [-111.46203562835638, 26.224778952246364], [-111.46305785616492, 26.225695072317833], [-111.46694148886573, 26.226995283826742], [-111.46791459919076, 26.227867302047088], [-111.4687968464625, 26.227864427422094], [-111.46879863563802, 26.228310672009865], [-111.47053760996099, 26.226729661758842], [-111.47130648797607, 26.227418629518564], [-111.47470012589324, 26.227407462437696], [-111.4755937421926, 26.22784209955078], [-111.47655978921978, 26.226963718104816], [-111.47946501977913, 26.226078875281573], [-111.48047983802779, 26.225156079095864], [-111.48002996117889, 26.224317033141663], [-111.47605324957541, 26.221625850777112], [-111.473144561572, 26.221635452889075], [-111.4697440605998, 26.21989623751997], [-111.46789232435896, 26.219902275700846], [-111.46788913899717, 26.219105961675147], [-111.46536890226858, 26.216847322296992], [-111.46303071880313, 26.21641727885376], [-111.46301170732593, 26.21161341804805], [-111.46485667335836, 26.209935955578988], [-111.46630738640854, 26.20905607412903], [-111.47551902366182, 26.20946350323827], [-111.47822401719087, 26.207003551447595], [-111.47800675776081, 26.203756965176268], [-111.47645962204878, 26.202370461958306], [-111.47411387187574, 26.20237821293704], [-111.47306097527266, 26.20333572393532], [-111.47306419360937, 26.204132039114715], [-111.46975858022651, 26.204142873182644], [-111.4687926669392, 26.20502120984262], [-111.46685381491037, 26.205027516163295], [-111.46202050163755, 26.208543865214356], [-111.45814267650243, 26.208556270687875], [-111.4568963830318, 26.20968931750227], [-111.45564127279846, 26.208564217401747], [-111.45089196591992, 26.20857918576152], [-111.45320949932686, 26.206472388375325], [-111.45611611327574, 26.206025606915357], [-111.45716917437433, 26.205068218142294], [-111.4571626083844, 26.2033871330359], [-111.45639449162113, 26.202698549355645], [-111.4568774878355, 26.202259422823012], [-111.45664861378941, 26.195880411862987], [-111.45712847256515, 26.19464496649872], [-111.4580104707346, 26.194642161367913], [-111.46187402788193, 26.19112906113653], [-111.46477848941262, 26.19024452113499], [-111.47008507319133, 26.18410097142971], [-111.47298576335189, 26.182341092085114], [-111.47734376496945, 26.181451516198035], [-111.48052441228074, 26.179436660377274], [-111.48101081480907, 26.17987262929264], [-111.48266190728991, 26.17837062421944], [-111.48701422767449, 26.176167995627843], [-111.49328445680825, 26.169145146855403], [-111.49813008218784, 26.169128462555133], [-111.50103371495359, 26.168243199696537], [-111.50353424107082, 26.168234475942423], [-111.51131770771262, 26.17520852964097], [-111.51423290607438, 26.17694851486141], [-111.51755091011367, 26.179920909125652], [-111.5253477618365, 26.189519674340804], [-111.52535360727296, 26.190822833614913], [-111.52447164679316, 26.190826051148125], [-111.52369882241929, 26.191529478876735], [-111.52390557261543, 26.19215047989821], [-111.5246841583415, 26.192847788459872], [-111.52613223559705, 26.19152972726413], [-111.53216857488562, 26.19737124205554], [-111.53412924135932, 26.202177468243175], [-111.53754622988181, 26.2074158165095], [-111.53852774726012, 26.21003768158988], [-111.5405624647824, 26.211859263513563], [-111.55700364623694, 26.221782190099105], [-111.56580583016252, 26.237500949415583], [-111.56679248785387, 26.240997752277934], [-111.56776857510113, 26.2423066573117], [-111.56777495383153, 26.24361939042952], [-111.57362556128365, 26.250159935728156], [-111.57363200803862, 26.251472666068352], [-111.57440112933986, 26.252160603170857], [-111.57364060440322, 26.25322297281311], [-111.57470249355819, 26.254172756430737], [-111.57712919800245, 26.254600611675844], [-111.57850265382129, 26.25582898337088], [-111.57948985579682, 26.259325681309235], [-111.58046624093635, 26.260634491848837], [-111.58047276757206, 26.26194721868904], [-111.58242999321325, 26.265439967578143], [-111.58243654331102, 26.26675269308119], [-111.58369515743892, 26.268313758391294], [-111.58297098606258, 26.268973076189585], [-111.58439391071062, 26.27024541054143], [-111.58440048428174, 26.271558134705653], [-111.58732577936374, 26.274609281352166], [-111.5902578694792, 26.278973085939487], [-111.59220679529896, 26.28071538959712], [-111.60392877262831, 26.296419487228505], [-111.60393784088465, 26.29816977346108], [-111.60491256023269, 26.299040829040408], [-111.60492164430569, 26.300791114314983], [-111.60589639320571, 26.301662162385046], [-111.60590776820354, 26.303850017712847], [-111.6068825504074, 26.304721058139567], [-111.6068939454482, 26.306908912134023], [-111.60786876096206, 26.30777994491533], [-111.60787789292908, 26.309530227097387], [-111.6088527380104, 26.310401252363725], [-111.6088778964842, 26.31521452468839], [-111.60985508858391, 26.316523111426523], [-111.60987571174152, 26.320461239472348], [-111.61085296020502, 26.321769817492267], [-111.61086673416814, 26.324395234020972], [-111.61184172800156, 26.32526623460431], [-111.6128305573115, 26.32876264215973], [-111.61380560283713, 26.329633627959012], [-111.61383098736873, 26.33444688291228], [-111.6143185362495, 26.334882372455795], [-111.61388342385598, 26.33710676006273]], [[-111.46028097977907, 26.207508813431065], [-111.46153677478164, 26.20636704776266], [-111.46027058256053, 26.204865037363057], [-111.4585683003554, 26.20597358325075], [-111.46028097977907, 26.207508813431065]], [[-111.48782285160397, 26.24701084692933], [-111.48925257768894, 26.247925389463205], [-111.49099391280485, 26.246781250087242], [-111.48928208479452, 26.245683990801382], [-111.48782285160397, 26.24701084692933]], [[-111.46880000077078, 26.228651147547318], [-111.46832048659961, 26.229975077050884], [-111.46986789792263, 26.231361658884566], [-111.47180718563557, 26.231355306028394], [-111.47274133796897, 26.23219231831295], [-111.47443201075241, 26.230655179685648], [-111.4766163706672, 26.231304338997756], [-111.47734092257576, 26.230645548459098], [-111.47879717002878, 26.23107829544697], [-111.47977329248675, 26.230190733127554], [-111.47927653379057, 26.229745673662464], [-111.47831048484994, 26.2306240730645], [-111.4770939746545, 26.22953413932093], [-111.47616665584086, 26.230377296064066], [-111.47511924478484, 26.230380762177287], [-111.47414606030694, 26.22950879405253], [-111.47123717541835, 26.229518360237883], [-111.47026402674038, 26.22864636523241], [-111.46880000077078, 26.228651147547318]], [[-111.48120571866218, 26.22974835403097], [-111.48247145052129, 26.230882313211033], [-111.4839259077278, 26.23087742356579], [-111.48538399812072, 26.231747687651403], [-111.4882133282785, 26.231300514586167], [-111.48926634676928, 26.230342894560703], [-111.48771718623469, 26.22858820511503], [-111.48674756766921, 26.228591491824503], [-111.48581334582065, 26.227754571144423], [-111.48392010793191, 26.229476219808873], [-111.48169880364809, 26.22929998571422], [-111.48120571866218, 26.22974835403097]], [[-111.47164841230337, 26.19197253951894], [-111.47233903088372, 26.192591563758484], [-111.47476531138652, 26.190824079231916], [-111.4732976687807, 26.189944601661956], [-111.47136258990197, 26.19082614054446], [-111.47063297124897, 26.190172138797568], [-111.46965710710752, 26.191059640383827], [-111.47067909480452, 26.191975713730077], [-111.47164841230337, 26.19197253951894]], [[-111.57779742703997, 26.297436897162417], [-111.56806173237807, 26.282632576099886], [-111.56553819762946, 26.28037576434269], [-111.56408314286651, 26.280381489801314], [-111.56144934941359, 26.279332954839333], [-111.56029035911784, 26.280387685515482], [-111.56026312898686, 26.274717446928303], [-111.56239368047359, 26.271899449512272], [-111.56121451190238, 26.27084473442895], [-111.56120786626649, 26.26946274104788], [-111.56410713000746, 26.26726345588163], [-111.5640968914366, 26.265144836791162], [-111.56312275961623, 26.26427349015476], [-111.56310798513451, 26.261210452180656], [-111.56037846652693, 26.25833306484136], [-111.55989563766487, 26.25877253341417], [-111.55766707832461, 26.25721455462376], [-111.55621231030743, 26.257220195693233], [-111.55523830356353, 26.25634879260928], [-111.55135275061222, 26.255051002187955], [-111.54997579950803, 26.255056281040993], [-111.54844431482113, 26.257328925898875], [-111.54631761015098, 26.25882482396397], [-111.54554808711173, 26.258136270279422], [-111.5446656217495, 26.258139619539907], [-111.54465374390672, 26.255593004803856], [-111.54367983570259, 26.254721521563972], [-111.54366354058355, 26.251220890449336], [-111.54065829561047, 26.249403026842202], [-111.53686252277494, 26.24854208777727], [-111.5368525124914, 26.2463637818865], [-111.53781824220134, 26.24548499543684], [-111.53781018538196, 26.24373467614594], [-111.53877588641106, 26.242855883386923], [-111.5387678161788, 26.241105563731548], [-111.53973178744847, 26.239858448989295], [-111.53507413683242, 26.23699691420933], [-111.53676404497124, 26.235459054392635], [-111.53578021218283, 26.23457842355047], [-111.53428867132943, 26.234986464820675], [-111.53384089007992, 26.234585640370838], [-111.53282693451146, 26.235508338328025], [-111.53283056457177, 26.23630464262017], [-111.53118128088904, 26.236127053786184], [-111.5299258622634, 26.237269417870948], [-111.52849508208195, 26.242525743506757], [-111.52761632782008, 26.243325290395703], [-111.52559907397685, 26.243332683806337], [-111.52268203839013, 26.241592972316575], [-111.51956462741263, 26.24054540713707], [-111.51831098761492, 26.24212525282218], [-111.51831875177969, 26.243875578019388], [-111.51783582072487, 26.244314907611294], [-111.51784133200265, 26.24555838676946], [-111.51958374331474, 26.247118286999562], [-111.51882111045005, 26.247812057881855], [-111.51882464700601, 26.248608362604582], [-111.5159249015625, 26.24861880555082], [-111.51106451131626, 26.246010648087765], [-111.5096972527611, 26.246015505136853], [-111.50968011517324, 26.242086861424024], [-111.51012484527455, 26.24168232733427], [-111.50910211242815, 26.24076655127449], [-111.50578399280795, 26.240340680095738], [-111.50424805066577, 26.241737703848578], [-111.50377450751857, 26.24436489831214], [-111.50289556773981, 26.24516429649945], [-111.50095418365824, 26.244733489743666], [-111.49969785847797, 26.24587606273387], [-111.50047718506858, 26.246573959123772], [-111.50135956929425, 26.246570882614666], [-111.5013670398353, 26.24831161860298], [-111.49992514095227, 26.251300905435198], [-111.49848002846622, 26.25130592732007], [-111.49750649543093, 26.250434124853033], [-111.49661448613472, 26.250437211285252], [-111.49507830199701, 26.25183413853338], [-111.49460051555475, 26.25351687351407], [-111.49566177546922, 26.254467251109656], [-111.49954110240567, 26.254453812238136], [-111.50387762271217, 26.257029094681098], [-111.50461224928998, 26.25636100752063], [-111.5048828764622, 26.253997547470846], [-111.50632802082797, 26.253992460693414], [-111.51167356730318, 26.25659904552715], [-111.5136151863294, 26.25702970323685], [-111.51672864455047, 26.259381041244918], [-111.51528970639202, 26.26068984733635], [-111.5145594030514, 26.26003608467286], [-111.5130620566778, 26.261397962698936], [-111.50777145436948, 26.27148127457519], [-111.5061188799228, 26.272984031574182], [-111.50832388919834, 26.27582968173018], [-111.50981604486212, 26.27542190325665], [-111.51467764453751, 26.27803007467005], [-111.51613268185568, 26.278024850451175], [-111.51710658556982, 26.278896517890676], [-111.51807661732464, 26.278893020196982], [-111.52050950551477, 26.280634562914603], [-111.5219645739707, 26.280629279100136], [-111.52333777094016, 26.281858178346404], [-111.52334397151864, 26.28324017802417], [-111.51852056272732, 26.28931461860089], [-111.52492985542567, 26.292870856078853], [-111.52725717234044, 26.292862323329004], [-111.52514211275152, 26.294785860346185], [-111.52246730096726, 26.293264077324572], [-111.52000922624303, 26.29681744557039], [-111.52002058720306, 26.29936405590206], [-111.51808978287467, 26.29937104139595], [-111.51477569802779, 26.29807021566467], [-111.51476831677525, 26.29639875939278], [-111.51398908754129, 26.295701416517627], [-111.51127951401644, 26.297286404623918], [-111.51234293106509, 26.298604959687545], [-111.5141959034507, 26.298598330649057], [-111.51419941630733, 26.299394630320084], [-111.5149786718707, 26.300091971312167], [-111.51546184090972, 26.299652651145013], [-111.51817772466768, 26.301647098628898], [-111.52099032956008, 26.301636911867515], [-111.51955144282014, 26.30294529133464], [-111.51955503570841, 26.303751182501376], [-111.52057789077108, 26.304666401712115], [-111.52226895666058, 26.303128709209563], [-111.52397374969783, 26.30465403779311], [-111.52546621471284, 26.304246093537166], [-111.52887000257958, 26.30598392117867], [-111.53032538547502, 26.305978547823603], [-111.53129963092753, 26.306850110427234], [-111.53226989306651, 26.306846513287784], [-111.53539522829278, 26.30920649254257], [-111.53636148052497, 26.308327715367785], [-111.53810358742008, 26.309450248216567], [-111.54044740631694, 26.308566269041343], [-111.54149550860798, 26.308562316007137], [-111.54218719218827, 26.309180978717013], [-111.54296015329086, 26.3084779215176], [-111.54193537831814, 26.307194553517967], [-111.54004522978707, 26.307604166604087], [-111.54003513400612, 26.305425879779396], [-111.54100131983851, 26.304547071911404], [-111.5409955916749, 26.303313200256273], [-111.54341156954042, 26.303304068648167], [-111.54945190499805, 26.306527834882413], [-111.5501377512941, 26.305903930694555], [-111.5525633790218, 26.305894607295684], [-111.55333677037056, 26.305191026341987], [-111.5528495718985, 26.304755321826885], [-111.5538156539534, 26.303876429170177], [-111.55331829877287, 26.303431639416015], [-111.5526324840966, 26.304055558525825], [-111.550701612355, 26.304062984125515], [-111.550695454312, 26.302759850831197], [-111.55262552962118, 26.300564512355514], [-111.55262138018195, 26.29968936164009], [-111.55455136898964, 26.297493997700172], [-111.55454758078477, 26.296697703071523], [-111.5554303363639, 26.2966942884624], [-111.55648337418295, 26.29573618363867], [-111.55647710797514, 26.294423457501], [-111.55764425011684, 26.292922016400624], [-111.5561726150109, 26.291605851063537], [-111.5542344319741, 26.292050933860015], [-111.5534646400537, 26.29136242999385], [-111.55200944521323, 26.29136803523356], [-111.54618046286079, 26.289640002967985], [-111.54257243299413, 26.287719658978567], [-111.54083670077685, 26.287909903663557], [-111.53986254621503, 26.287038402191367], [-111.53869202663414, 26.287734277079903], [-111.53597612772606, 26.28574021445008], [-111.53459881098098, 26.285745351449723], [-111.53315924159439, 26.287054802529756], [-111.53314732285973, 26.28444758824151], [-111.53411339063771, 26.28356882607412], [-111.53410537591807, 26.28181851500334], [-111.53507141495484, 26.280939746511688], [-111.53506539375965, 26.279627012973652], [-111.53594436474276, 26.278827421122752], [-111.53747721454285, 26.278821689882463], [-111.53942536359936, 26.28056472292978], [-111.54185046855787, 26.280555588824868], [-111.54254198498882, 26.28117425478364], [-111.54302497138406, 26.280734843439085], [-111.54525379496631, 26.282293040413922], [-111.54613644288905, 26.28228968468558], [-111.5461401712785, 26.283085982040955], [-111.5472021171774, 26.28403596435043], [-111.54982764351364, 26.28333445428434], [-111.55448595678905, 26.28575834615944], [-111.55545603965716, 26.285754594971085], [-111.55643029778508, 26.286625989077077], [-111.55780761990393, 26.28662064240761], [-111.55877351633184, 26.285741717152117], [-111.56079149200585, 26.285733846240806], [-111.56273587781374, 26.286601402984545], [-111.56410956836045, 26.287829903244265], [-111.56411380185304, 26.288705053688744], [-111.56606463419979, 26.29088528872307], [-111.57291140669992, 26.302235265320775], [-111.57515499900875, 26.304676747515433], [-111.57592772831019, 26.303973515908933], [-111.57591907841416, 26.302223222243786], [-111.57688496275553, 26.301344177085767], [-111.57686980255083, 26.29828116228406], [-111.57779742703997, 26.297436897162417]], [[-111.50179501822812, 26.223761358416976], [-111.49989647122, 26.224170463271825], [-111.4981574222181, 26.2257522917953], [-111.49893660346332, 26.226450200547646], [-111.50079802825498, 26.22644372762875], [-111.50253517065231, 26.224424284182597], [-111.50179501822812, 26.223761358416976]], [[-111.5003556319986, 26.227267096321206], [-111.49749486098952, 26.229429876285415], [-111.49604042474832, 26.229434902979357], [-111.49498747066053, 26.230392571851635], [-111.49576770738274, 26.231458350784457], [-111.49790013507855, 26.231267284358527], [-111.497910940877, 26.233804333928866], [-111.49654382234937, 26.233809063768945], [-111.49577054803878, 26.23451234381545], [-111.49748413258278, 26.236047112115646], [-111.4989431196295, 26.234720159366603], [-111.49821307121357, 26.23406630756421], [-111.49897387234165, 26.23293506104713], [-111.50061591079805, 26.23144154590677], [-111.5013849947424, 26.232130349377506], [-111.50275980460907, 26.231687957172543], [-111.50353301782165, 26.23098464012079], [-111.50236546103375, 26.229938977237914], [-111.50420671853917, 26.229932530054167], [-111.50546283034056, 26.228789918241553], [-111.50419690205334, 26.227656164062097], [-111.50128995232613, 26.2281039211095], [-111.5003556319986, 26.227267096321206]], [[-111.51548119480125, 26.30402843023926], [-111.51694237981988, 26.3053359259894], [-111.51771547070715, 26.304633002543085], [-111.51771189040116, 26.30382711124019], [-111.51664999743048, 26.30287691236808], [-111.51519465008816, 26.302882146404166], [-111.51450314542315, 26.30226335026907], [-111.51373005030446, 26.302966256688048], [-111.51373360294, 26.303772148593993], [-111.5147564132245, 26.304687409987675], [-111.51548119480125, 26.30402843023926]], [[-111.51861712362339, 26.190882372252926], [-111.51595015173594, 26.1928702481823], [-111.5166901844997, 26.193533105630213], [-111.51761691941327, 26.192689691712733], [-111.52004215360188, 26.19311853742492], [-111.52129771965798, 26.191975789625772], [-111.52051864050087, 26.191277997274828], [-111.51934701040908, 26.191536126667046], [-111.51861712362339, 26.190882372252926]], [[-111.54258204973651, 26.235437206423764], [-111.54155912245709, 26.234521663624104], [-111.53921275118581, 26.23453048621967], [-111.53843973316128, 26.23523399199429], [-111.540675746357, 26.236363792144374], [-111.54156764198201, 26.236360433794633], [-111.54258204973651, 26.235437206423764]], [[-111.56626723340187, 26.314592805589783], [-111.56861520435844, 26.31458351513488], [-111.57015130498255, 26.31318581382974], [-111.57014307736341, 26.3115047838803], [-111.56859341402554, 26.3101193326344], [-111.5672158167776, 26.310124787317566], [-111.56520094128119, 26.312837091432037], [-111.56520485153976, 26.313642975382496], [-111.56626723340187, 26.314592805589783]]]}}]}
