{"type": "FeatureCollection", "features": [{"type": "Feature", "properties": {"uga": "18a", "politica": "preservacion", "procedencia": {"metodo": "digitalizacion-semiautomatica", "fuente": "Mapa de ubicación de la ficha UGA 18a, Boletín Oficial No. 12 (12-mar-2014), p. 206 del PDF", "datum": "UTM 12N con desplazamiento de +30 m E y +165 m N ajustado contra la costa (INC-011)", "correccion_borde_px": 1.4, "precision_aprox_m": 149.0, "escala_por_superficie": false, "revisada_en_qgis": false}, "control": {"residuo_georreferencia_m": 74.7, "area_digitalizada_ha": 4137.65, "escala_por_superficie": false, "superficie_ficha_ha": 4448.66, "diferencia_area_pct": -7.0}}, "geometry": {"type": "MultiPolygon", "coordinates": [[[[-111.61356072844733, 26.07704858825841], [-111.60956065656251, 26.081370039833203], [-111.60688159710439, 26.078973621772235], [-111.60476236981421, 26.0783099392062], [-111.6024046957766, 26.080458479246637], [-111.60167980451885, 26.084376032678016], [-111.59884906946326, 26.084387808426357], [-111.59884283937986, 26.083163619562246], [-111.59571496485499, 26.08036530655202], [-111.59285425815969, 26.080377087144015], [-111.58768174879575, 26.085765308425806], [-111.58766898442764, 26.083209558123105], [-111.5846010941273, 26.08046444151857], [-111.58317713654532, 26.081761678227636], [-111.57722110375099, 26.08245820565851], [-111.57276794322136, 26.085838853171552], [-111.56967250378855, 26.086523688174182], [-111.56831065097747, 26.085304840104364], [-111.56830090605517, 26.083287135532], [-111.56604403771824, 26.081829900241377], [-111.5644272809622, 26.08330233909764], [-111.56448794991469, 26.095946620177564], [-111.56089651330629, 26.09273224276796], [-111.56085803564189, 26.084661419044803], [-111.55922723899576, 26.083201641852625], [-111.55565117823284, 26.0832154562867], [-111.55786183260547, 26.081202389408734], [-111.55784646632098, 26.077960481429344], [-111.56081101405287, 26.07794899209897], [-111.56187345868956, 26.078900047458458], [-111.56589989333696, 26.076583964161227], [-111.56887943437592, 26.076572250728898], [-111.57227916706005, 26.07415108976385], [-111.5757023076161, 26.07654519635269], [-111.58377711174047, 26.07651276101056], [-111.58451865459297, 26.075837179138443], [-111.58973279994575, 26.075815968203], [-111.59047430366803, 26.0751403563246], [-111.5928312204933, 26.075803274725228], [-111.60016107305174, 26.075772981291475], [-111.60090251551344, 26.075097316874157], [-111.60388200025147, 26.07508488151592], [-111.6061096867519, 26.073730385550174], [-111.60908913402123, 26.073717843312288], [-111.61291874080051, 26.068200058040013], [-111.61290536799241, 26.065630740729684], [-111.6173591944964, 26.065611763664617], [-111.61946966776749, 26.06749951677], [-111.61949146556091, 26.071642628786936], [-111.61355371700952, 26.075703461405887], [-111.61356072844733, 26.07704858825841]]], [[[-111.57231761218272, 26.020720978907384], [-111.5705335388456, 26.02437338973436], [-111.57159536602954, 26.025324205710803], [-111.57161870121087, 26.030139950943056], [-111.56657744881596, 26.03473338832005], [-111.56654849996782, 26.028707009591216], [-111.56802794947286, 26.02668344334825], [-111.56799233329819, 26.019285130055284], [-111.56904164057413, 26.017653403614453], [-111.56709770717448, 26.015912498128397], [-111.55831217166161, 26.015946695175323], [-111.56261209738055, 26.01202865032154], [-111.56570885666311, 26.012016566515513], [-111.5693221272366, 26.014020145845443], [-111.57093788912783, 26.012547654889968], [-111.57092487796787, 26.009857356131473], [-111.5723942402466, 26.005816020253853], [-111.57596675013644, 26.002559840204036], [-111.58264017215214, 26.003205695286347], [-111.57746680866121, 26.00792135059885], [-111.575994314662, 26.01129016032931], [-111.57303275175757, 26.014664864530495], [-111.57231761218272, 26.020720978907384]]], [[[-111.60276063849552, 25.986914075455218], [-111.60207278458002, 25.986298220123658], [-111.60204886982888, 25.981603413944416], [-111.60458087046032, 25.98187546504802], [-111.60532170871396, 25.981199780051206], [-111.60725072552513, 25.98292685194968], [-111.60860546516307, 25.982921160008026], [-111.60861176881018, 25.984145363648704], [-111.60979330733187, 25.985203137414416], [-111.6043175933839, 25.99154861354285], [-111.59837646711443, 25.994263659476722], [-111.58874823467478, 26.00101547031484], [-111.58871880060269, 25.99511002907838], [-111.5923000433329, 25.99375023379008], [-111.5952639237671, 25.991047717394494], [-111.59972314354741, 25.989684124883976], [-111.60276063849552, 25.986914075455218]]], [[[-111.63510216949454, 26.052002768636605], [-111.63131886725837, 26.05477693046859], [-111.63133688765818, 26.058139745497297], [-111.62776428562044, 26.06139727236113], [-111.62392148265349, 26.06141392916717], [-111.62242481116826, 26.06007523073432], [-111.61721139419048, 26.060097610172118], [-111.61571481448749, 26.058758840264087], [-111.61434417602568, 26.058764678282742], [-111.61286164145571, 26.06011613814486], [-111.6031795557854, 26.060156908980247], [-111.60169687345613, 26.061508256514816], [-111.59576824295969, 26.06153284124346], [-111.59797779922498, 26.05951917243467], [-111.59797158503437, 26.058294979157424], [-111.60974693316652, 26.056900574851838], [-111.6119707174229, 26.054873426682775], [-111.62091115688514, 26.0555078426349], [-111.63129073017157, 26.046719310183345], [-111.63575885428531, 26.046699712949632], [-111.63692958344983, 26.04563200138474], [-111.63767790206865, 26.04630127898673], [-111.64245736578397, 26.04599749549219], [-111.65062658146218, 26.041925459610457], [-111.65583916063335, 26.04190188897302], [-111.65955490209612, 26.040539816314435], [-111.66339699747121, 26.040522224240384], [-111.66625238957208, 26.042405873111473], [-111.66555323132309, 26.050466810285073], [-111.66110001929063, 26.050487263085245], [-111.65810616650478, 26.047810627140404], [-111.65374944076207, 26.04648525657898], [-111.65004086205956, 26.049192306185], [-111.64706205851179, 26.049205682065413], [-111.64483531467131, 26.05056079735352], [-111.64321998318471, 26.052034099727283], [-111.64248927307573, 26.054606722179933], [-111.63878062078267, 26.054623174458403], [-111.63510216949454, 26.052002768636605]]], [[[-111.66411783197215, 26.191847291903528], [-111.66266841788641, 26.199238964235974], [-111.66088796828011, 26.200861306671246], [-111.65820887945732, 26.199138498720625], [-111.65386905596488, 26.199158290844196], [-111.6538509513707, 26.19591649363425], [-111.65071872602627, 26.1931194972927], [-111.64922377031013, 26.192453686255707], [-111.64785530045087, 26.19313241968218], [-111.64339666131019, 26.193152427674555], [-111.64337885137674, 26.18991062102086], [-111.64174555767954, 26.188451843091045], [-111.64037708908657, 26.189130505699016], [-111.6299424399784, 26.189849133371904], [-111.62770925709209, 26.19053145977395], [-111.6235653406198, 26.193629713361677], [-111.62057216496855, 26.191624954006866], [-111.61578670860987, 26.19192811445681], [-111.61357542258952, 26.19394169159099], [-111.61356203212983, 26.1913859918227], [-111.61192908135988, 26.189926869387666], [-111.60758607139248, 26.189272705753048], [-111.60756583580218, 26.185371528864724], [-111.60892290805657, 26.185365792871185], [-111.61040703908286, 26.18401436802366], [-111.61413484386507, 26.183998507820505], [-111.61561889661573, 26.18264703033603], [-111.61872012215017, 26.182633730873004], [-111.62021834553944, 26.183972417762675], [-111.62232885806674, 26.182618170846258], [-111.62605661001308, 26.18260200263242], [-111.62767392020812, 26.181128882118777], [-111.62766015710494, 26.178559612258297], [-111.63286377785863, 26.178536825839004], [-111.63436210613986, 26.179875364257136], [-111.64169839913937, 26.17984284182613], [-111.64287037285038, 26.178775077975878], [-111.64405400507533, 26.17983231990416], [-111.64541100367835, 26.179826241017242], [-111.64617070267275, 26.182392156004457], [-111.64780396410785, 26.183850885473785], [-111.64916100824712, 26.183844770362654], [-111.64917151890849, 26.185741478985186], [-111.6515541813505, 26.18786934626938], [-111.65678077977101, 26.189190714179112], [-111.66126949179782, 26.191860411209486], [-111.66411783197215, 26.191847291903528]]], [[[-111.62292063996102, 26.015803680866764], [-111.62146643362782, 26.0224148259173], [-111.61924785106635, 26.0224243481013], [-111.61713820411603, 26.020536565446402], [-111.61860553448176, 26.016387058238628], [-111.62156935802872, 26.013684011690433], [-111.62036956482206, 26.012048183030533], [-111.61486444568233, 26.01571722659735], [-111.60670464499786, 26.0157517018493], [-111.61248837791999, 26.01115337570753], [-111.61546273411733, 26.01046816071586], [-111.61768556033189, 26.008440929075945], [-111.62003774700024, 26.008430861623616], [-111.62228172456966, 26.010438973067647], [-111.62513715732395, 26.009754071771095], [-111.62884799139543, 26.010410563218446], [-111.62886160822133, 26.012966684417954], [-111.62676205382111, 26.012975801688544], [-111.62453574418988, 26.014330602564208], [-111.62292063996102, 26.015803680866764]]], [[[-111.69880117355638, 26.116288763608132], [-111.69573006599788, 26.113546270445553], [-111.6876528946569, 26.11358501991021], [-111.68617054372197, 26.114937219952605], [-111.68393520929098, 26.11494784121887], [-111.6824527978296, 26.116300003972125], [-111.68096255657333, 26.11630705058137], [-111.67948009338964, 26.11765918352844], [-111.67724470405918, 26.117669702083592], [-111.67427962251902, 26.12037387853092], [-111.66757328869498, 26.120405091326994], [-111.66385514407598, 26.121767402270862], [-111.6622390986144, 26.123240917239592], [-111.66224600041029, 26.124465084327877], [-111.66002551164287, 26.124475269279653], [-111.65852761869931, 26.12313697981687], [-111.65343040093595, 26.12316017656555], [-111.65194752953789, 26.124512032836737], [-111.63916053808458, 26.124569301974113], [-111.63772264736784, 26.123284211253793], [-111.63629877911266, 26.124581963594654], [-111.63170873702597, 26.124602153212866], [-111.63021115835679, 26.1232635635181], [-111.62350460095045, 26.123292729229167], [-111.6197574419069, 26.119273446891203], [-111.61840113671113, 26.119279271413017], [-111.6176424811849, 26.116713169126964], [-111.61389573413034, 26.11269372341144], [-111.60867377885187, 26.10869361717923], [-111.61150549787983, 26.108681636652108], [-111.61298864817459, 26.10733018858517], [-111.61669898013616, 26.107314369041084], [-111.61745754997874, 26.109880481074345], [-111.62238730165426, 26.114957461624456], [-111.6216457387097, 26.115633235043745], [-111.6265834448448, 26.119378089505187], [-111.63615140797678, 26.11933618508139], [-111.63763440090615, 26.117984488177264], [-111.63924362962932, 26.117977361621342], [-111.64180469976644, 26.1202663008372], [-111.64285772307291, 26.119306435157792], [-111.6473285939476, 26.119286428578356], [-111.64894477708447, 26.117813077456617], [-111.64892315912294, 26.113898685143337], [-111.65412389173856, 26.113875183947425], [-111.65562161503226, 26.11521352408368], [-111.65848313485968, 26.1152004831748], [-111.65996581445451, 26.113848561609636], [-111.66226410098884, 26.114456909756473], [-111.66294624693104, 26.11383488823681], [-111.67188753142584, 26.11379349851317], [-111.67572701472498, 26.11029176400897], [-111.67571611044714, 26.10839504572799], [-111.67793628823595, 26.108384625016228], [-111.6794342053542, 26.109722714891717], [-111.68464975678116, 26.10969804543475], [-111.68614776574275, 26.111036063476234], [-111.68751899359435, 26.111029531794006], [-111.69136186844871, 26.108199940783297], [-111.69060953074464, 26.106966140736848], [-111.69057808219678, 26.101612516829057], [-111.70703441132676, 26.11497056188002], [-111.70839064238439, 26.114963904521247], [-111.70915596585382, 26.11830976732134], [-111.70114498997783, 26.12697137971409], [-111.69667387604963, 26.126993061151364], [-111.69147340973115, 26.12970837335518], [-111.68774738732552, 26.12972620256529], [-111.68626483832915, 26.131078404609088], [-111.68402919677352, 26.131089033415282], [-111.68254658719951, 26.132441198142914], [-111.6780830156418, 26.133807405855208], [-111.67660030253415, 26.135159510919816], [-111.67138361185384, 26.135183911236247], [-111.66990080292825, 26.136535948948772], [-111.6593483067928, 26.13658462248652], [-111.65722398939018, 26.13524918881176], [-111.65276747814647, 26.137959724556794], [-111.64606011089305, 26.137989955421066], [-111.64414698593498, 26.139733630475813], [-111.64160055167545, 26.137458253233362], [-111.64158959692357, 26.135453798337632], [-111.64592707355928, 26.135434420421333], [-111.6474101507292, 26.134082624235017], [-111.64890062770196, 26.134075920207813], [-111.65051698995947, 26.132602551001085], [-111.65050275646104, 26.130033275303802], [-111.6534685665599, 26.13001985798975], [-111.65496649270374, 26.131358198190355], [-111.65708318645305, 26.131348562601474], [-111.65856608198978, 26.129996654244977], [-111.66092067926216, 26.129985875308304], [-111.66241868808697, 26.13132413643885], [-111.6652805964571, 26.13131095309912], [-111.66676339515843, 26.129958962204643], [-111.6727173617349, 26.128586155671197], [-111.67420003932837, 26.127234090083856], [-111.67792599322077, 26.127216612655715], [-111.67940859264482, 26.125864494743297], [-111.68313449905793, 26.125846883526698], [-111.68461702030793, 26.12449471330693], [-111.68983322179275, 26.12446984336053], [-111.69131564724168, 26.12311760586624], [-111.69429629548327, 26.123103279761956], [-111.6966530919186, 26.12095326599445], [-111.69664112757702, 26.11893562150657], [-111.69880117355638, 26.116288763608132]]], [[[-111.64229002924904, 26.26592820727348], [-111.64676650164971, 26.265908114361146], [-111.64826612840119, 26.267246468016985], [-111.6525938334658, 26.26722686428191], [-111.64903016862736, 26.27047165839909], [-111.64454609458778, 26.269146742436174], [-111.63848427082355, 26.276692905918832], [-111.63775584354497, 26.27993799374259], [-111.63478622307314, 26.279951157199744], [-111.63109339268829, 26.275985774038855], [-111.62997962206008, 26.276999503884706], [-111.6287951106301, 26.275942175924385], [-111.62743699170935, 26.27594811826889], [-111.62742259706674, 26.27327115323462], [-111.62877408873528, 26.272041061730615], [-111.6302663288056, 26.27203451863342], [-111.63336971771047, 26.269209686788248], [-111.63335876893466, 26.26719205790143], [-111.63885626327729, 26.262863326598914], [-111.64229002924904, 26.26592820727348]]], [[[-111.69139273990687, 26.26501441444648], [-111.68992445931305, 26.2690568033092], [-111.6871043555222, 26.271626033349634], [-111.68708930915231, 26.26907039859678], [-111.68590417012084, 26.268013367646695], [-111.6870767977268, 26.26694506381103], [-111.68706492176477, 26.264927456176352], [-111.68848968498374, 26.26362938776004], [-111.68691485721975, 26.26222474617919], [-111.67510493771262, 26.263625863194743], [-111.67393243203716, 26.264693887932804], [-111.67212457090024, 26.264312399934088], [-111.66976449060863, 26.266462034868066], [-111.66903383215198, 26.26915566581239], [-111.66768280633626, 26.270386128213648], [-111.66607149097953, 26.270393612397893], [-111.66470647449685, 26.26917576451338], [-111.66469498405725, 26.267158148172086], [-111.66162041058905, 26.264414864324596], [-111.65796069667401, 26.2663956682486], [-111.65424535227628, 26.26641264452459], [-111.65421964593423, 26.261825796429182], [-111.65258519436249, 26.26036717750986], [-111.65034706756282, 26.260377330120104], [-111.64749752625016, 26.257834117733353], [-111.65641256959134, 26.256448533205937], [-111.66719876253406, 26.261389328863192], [-111.67121764461064, 26.25705266538684], [-111.67613573075853, 26.25865730537986], [-111.67793570628841, 26.257693668885846], [-111.68359206227143, 26.25794945318863], [-111.6843341426382, 26.257273363428705], [-111.6855189530256, 26.258330229948715], [-111.69074509630191, 26.258977745220133], [-111.69404141094918, 26.261248722095118], [-111.69139273990687, 26.26501441444648]]], [[[-111.69630001840129, 26.214562178185187], [-111.69408932598257, 26.216577335216677], [-111.69409658950325, 26.217801478342516], [-111.69273916420153, 26.21780802501838], [-111.69125558424896, 26.21916028313337], [-111.67664792884908, 26.218274617952535], [-111.67590604523939, 26.21895066768809], [-111.67472172762716, 26.21789370665017], [-111.66726404445022, 26.217928510844033], [-111.66657427583918, 26.217312832891235], [-111.66589156016187, 26.21793487393215], [-111.66204365814846, 26.217952643652428], [-111.6599366575536, 26.217289768630707], [-111.65990699032034, 26.21203034976791], [-111.65690518080685, 26.208681281422244], [-111.65689392951369, 26.20667685245325], [-111.65825123574557, 26.20667064662354], [-111.66135223536689, 26.203845229945333], [-111.66133399648109, 26.200617011979965], [-111.6686791063563, 26.20717416346215], [-111.66943634824759, 26.209188325663153], [-111.6725057524295, 26.211258944641184], [-111.67318839407585, 26.210636873053794], [-111.67703604670264, 26.210618809751136], [-111.67928101752202, 26.211953343952576], [-111.68375538942374, 26.211932138353486], [-111.68600045991276, 26.213266565400055], [-111.69047487572846, 26.213245149740164], [-111.69272004586212, 26.214579469601652], [-111.69630001840129, 26.214562178185187]]], [[[-111.68521381142503, 26.10162452919529], [-111.68522870863478, 26.10418058914136], [-111.67865728753515, 26.104211662702546], [-111.67704166781685, 26.10568533882877], [-111.67704871841448, 26.106909505185254], [-111.67421748260176, 26.106922770027733], [-111.67420660429939, 26.1050260502693], [-111.66958248436184, 26.10156379610563], [-111.66822639682081, 26.101570085428186], [-111.66821187090639, 26.099014015558662], [-111.66956792897415, 26.099007726943274], [-111.671050278557, 26.097655694803006], [-111.67787424139279, 26.09762378672243], [-111.68311270021363, 26.101634496150478], [-111.68521381142503, 26.10162452919529]]]]}}]}
