{"type": "FeatureCollection", "features": [{"type": "Feature", "properties": {"uga": "18b", "politica": "conservacion", "procedencia": {"metodo": "digitalizacion-semiautomatica", "fuente": "Mapa de ubicación de la ficha UGA 18b, Boletín Oficial No. 12 (12-mar-2014), p. 209 del PDF", "datum": "UTM 12N con desplazamiento de +30 m E y +170 m N ajustado contra la costa (INC-011)", "correccion_borde_px": 1.4, "precision_aprox_m": 152.0, "escala_por_superficie": false, "revisada_en_qgis": false}, "control": {"residuo_georreferencia_m": 101.2, "area_digitalizada_ha": 1943.02, "escala_por_superficie": false, "superficie_ficha_ha": 2198.07, "diferencia_area_pct": -11.6}, "georreferencia": {"a_x": 76.14486009121983, "b_x": 418378.4226706894, "a_y": -75.83493812191912, "b_y": 2917022.63050941, "factor_render": 1, "pagina_mapa": 209, "ficha_mapa": "18b"}}, "geometry": {"type": "MultiPolygon", "coordinates": [[[[-111.67444727742665, 25.923691503838995], [-111.67592327857379, 25.927050924677065], [-111.67821604270078, 25.92909447997615], [-111.67822846041221, 25.93126365786188], [-111.67672729402591, 25.934694454641654], [-111.67674294316447, 25.937433402699952], [-111.67448513531838, 25.941552463093775], [-111.67083722422088, 25.944871136463277], [-111.66931632254793, 25.944878172552365], [-111.66780314482062, 25.946254667422995], [-111.66552176402645, 25.946265168301107], [-111.66022908904186, 25.951767435447145], [-111.65870809548755, 25.951774361857144], [-111.65705984008046, 25.953273402804644], [-111.657078849011, 25.956697092672332], [-111.6525496608281, 25.962880371623797], [-111.6451161944418, 25.969639196507913], [-111.636764181849, 25.97241520154468], [-111.63132676972852, 25.976669596996263], [-111.63134078222978, 25.979293587955123], [-111.63592326573618, 25.982697295344686], [-111.6359342801541, 25.984744436595168], [-111.63062585310608, 25.98476767129768], [-111.62694035209432, 25.981481954553125], [-111.62617240495945, 25.980115769068732], [-111.62615003612044, 25.975892363121442], [-111.62684351117638, 25.975262089695136], [-111.6252429093622, 25.973834943747264], [-111.61927676166833, 25.973860595180874], [-111.61245223474283, 25.977998177256335], [-111.61004587454619, 25.980184654323313], [-111.61005584624436, 25.982116839856914], [-111.60488308868675, 25.982138556341777], [-111.60410901458526, 25.97952480407485], [-111.60181650661633, 25.977480083899525], [-111.60212397359633, 25.97570942610135], [-111.60028567617331, 25.97406972576284], [-111.60318484484303, 25.974057671899963], [-111.60483408041146, 25.972559230854984], [-111.60482770024322, 25.97131178426204], [-111.60773465590677, 25.971299607623287], [-111.60924886039368, 25.969923726430814], [-111.61077010189244, 25.96991731531689], [-111.61228425302247, 25.968541403054434], [-111.61456608711148, 25.96853173301567], [-111.6160801758214, 25.96715578189416], [-111.62062722577299, 25.967136358144646], [-111.62064095787123, 25.96975328479779], [-111.6223056051759, 25.971237693155167], [-111.62610874081963, 25.971221291579084], [-111.62681321123235, 25.971849432031842], [-111.6275109906029, 25.971215218957344], [-111.63283537324332, 25.971192037314147], [-111.63524112422995, 25.9690051896702], [-111.63446280232283, 25.96570686575149], [-111.63736960385862, 25.965694096497366], [-111.63888338633225, 25.964317911874048], [-111.64192570736333, 25.96430445347132], [-111.64357430893855, 25.962805580522097], [-111.6435675230627, 25.961558141477916], [-111.64495309406887, 25.961551975643793], [-111.65265581643159, 25.95454786126589], [-111.65718469030672, 25.948364578155157], [-111.66234634300494, 25.943669817133777], [-111.66613315433216, 25.940913429017947], [-111.66765400607312, 25.94090642734437], [-111.67081503034449, 25.938030759491625], [-111.67232418266917, 25.935969496745283], [-111.6723047505777, 25.932545807695178], [-111.6730612314471, 25.931857539615123], [-111.67151786246254, 25.927871131732058], [-111.6692213684424, 25.925142728283348], [-111.66920590165672, 25.92240377133721], [-111.66760115739916, 25.920973181628177], [-111.66387418489865, 25.923675764734625], [-111.65627102069952, 25.923710393729973], [-111.65280361189747, 25.926176274959673], [-111.65203951054185, 25.9254949566175], [-111.6502035075445, 25.92647677673118], [-111.64412453913805, 25.927188683215945], [-111.64021017663377, 25.93143662638338], [-111.64022423904122, 25.934038647377673], [-111.63732077303366, 25.93144936417625], [-111.63731340593665, 25.930079878293245], [-111.63564916471977, 25.928595626846846], [-111.6327267180317, 25.928608416982488], [-111.62804788382167, 25.93217461387615], [-111.62805514449134, 25.933544101819628], [-111.62654161897683, 25.934920174112726], [-111.62655610777747, 25.937659149492816], [-111.62504251298046, 25.939035206633623], [-111.62506058427175, 25.94245892473368], [-111.62354691164168, 25.943834966783346], [-111.62355773038328, 25.94588919706465], [-111.62204759494053, 25.947949967244757], [-111.61915490825604, 25.9505793552741], [-111.61383143923659, 25.950602017015413], [-111.60990815874439, 25.953479673285038], [-111.60992227451572, 25.95621865026459], [-111.60690121466008, 25.960339898268842], [-111.60691175230764, 25.962394130304794], [-111.60539761458989, 25.96376998724231], [-111.605403998637, 25.96501743500337], [-111.59795367312853, 25.96573315972985], [-111.59793986425905, 25.963001253468402], [-111.60235445026748, 25.9603659594409], [-111.6047570606113, 25.957494864313308], [-111.60473606583115, 25.95338639523355], [-111.60623955982707, 25.949956310240236], [-111.60546217993347, 25.946657804916583], [-111.61000845140556, 25.946638728670102], [-111.61153646761724, 25.948001804410758], [-111.61369892548024, 25.947992657456076], [-111.6183788164814, 25.944426912470092], [-111.62290552847588, 25.937559922386775], [-111.62289893066914, 25.93630540082927], [-111.61971040721907, 25.934142751375436], [-111.6166688482306, 25.93415572894724], [-111.61558268711468, 25.933186773885417], [-111.61450664422821, 25.934164915701587], [-111.6107082210734, 25.934865737221646], [-111.60919447346463, 25.936241631988594], [-111.60679429063073, 25.93625170463735], [-111.60311886915488, 25.932972360794718], [-111.60677741358687, 25.932957085584693], [-111.60842604144968, 25.931458606149793], [-111.60916881147844, 25.928031677746628], [-111.6117419872263, 25.92569264845993], [-111.61294756078397, 25.926768263769326], [-111.61433273290935, 25.926762398267943], [-111.61434275093676, 25.928694596505206], [-111.6174120669437, 25.93085787709436], [-111.62120313809164, 25.928787392104546], [-111.62424455664313, 25.92877432185923], [-111.62879214542093, 25.926015619253043], [-111.6310731528569, 25.92600570407762], [-111.63258651312552, 25.924629585846503], [-111.64170671436835, 25.92390472989479], [-111.64290081036803, 25.92281873176472], [-111.64366484268423, 25.923500099868928], [-111.64930616153067, 25.923186122699835], [-111.65081927041776, 25.921809818209002], [-111.65310018705028, 25.92179955788427], [-111.65429415569227, 25.920713467959406], [-111.6550582382561, 25.921394775203268], [-111.65689412184047, 25.920412895184942], [-111.65917500881336, 25.92040253977808], [-111.6623357081412, 25.917527055474935], [-111.66231343697736, 25.91354064916831], [-111.66825994289951, 25.913513359132473], [-111.67280589760529, 25.910753300610754], [-111.67659050087535, 25.9107356877121], [-111.67659761888113, 25.911983127187394], [-111.67780799816309, 25.91306209385283], [-111.67510118954853, 25.916213617494265], [-111.67514019065116, 25.923061005448353], [-111.67444727742665, 25.923691503838995]]], [[[-111.7000080922261, 26.266559659287925], [-111.69847483806174, 26.26519768078808], [-111.69630657411825, 26.2652082112689], [-111.69282200798844, 26.26837087373325], [-111.69390757196983, 26.26933523380889], [-111.69393195847165, 26.27343637732882], [-111.69089825795245, 26.27345100900984], [-111.68873503707535, 26.271529271245818], [-111.68872223622513, 26.269360200460994], [-111.69023923693273, 26.267983469760082], [-111.69022708990538, 26.265929358759628], [-111.69325686603456, 26.262491147529996], [-111.69400381508419, 26.259870682735656], [-111.7014761809426, 26.259834379135008], [-111.70148778937764, 26.261766454265565], [-111.70608384649942, 26.266529911155036], [-111.7000080922261, 26.266559659287925]]], [[[-111.71515402350222, 26.25211294244003], [-111.71517498766555, 26.25553644868369], [-111.71670830247542, 26.256898249304648], [-111.7167375883897, 26.26166917228479], [-111.71292089952728, 26.25827946981684], [-111.71000689786771, 26.258293905034634], [-111.70999445130113, 26.256246872690188], [-111.71150755784984, 26.25430018138241], [-111.70830452624645, 26.25145508428974], [-111.70296751428249, 26.251481301121945], [-111.7011234302023, 26.24984305914379], [-111.70383699404563, 26.24669105129993], [-111.70382535445137, 26.24475897308996], [-111.70673902237561, 26.244744670115114], [-111.70839062992209, 26.24324505246713], [-111.70836646516548, 26.239258864575564], [-111.71202574420757, 26.239240778942563], [-111.71203334444876, 26.240488152249668], [-111.71324749932462, 26.24156669754349], [-111.71173528210878, 26.243628366625522], [-111.71282494109818, 26.24527729098356], [-111.71284583071271, 26.248700802227017], [-111.71515402350222, 26.25211294244003]]], [[[-111.71715170131135, 26.330282919797497], [-111.70546580312019, 26.339509020386238], [-111.70285751824557, 26.337193804194655], [-111.70282787712672, 26.332285977941186], [-111.70648665279842, 26.328966447914674], [-111.71271789382118, 26.33030503323237], [-111.71715170131135, 26.330282919797497]]], [[[-111.72371476670766, 26.28013652135376], [-111.71851238014169, 26.280162657446972], [-111.71396182953598, 26.28429368160237], [-111.71243654253519, 26.284301261166842], [-111.71091960219506, 26.285678222345915], [-111.7071229407846, 26.28569697914752], [-111.7071022280359, 26.28228055399639], [-111.70968101022909, 26.27993977819377], [-111.7119813936726, 26.281982545848948], [-111.71319141763611, 26.28031122997528], [-111.71152116637344, 26.278828043322207], [-111.70861452824458, 26.278842421679936], [-111.71164042087035, 26.276095644159664], [-111.71010343863868, 26.274164056489816], [-111.71008607279185, 26.271310296112745], [-111.71115998692636, 26.270335380840493], [-111.70547794255806, 26.26460783270794], [-111.71372183316362, 26.26456709474604], [-111.71567694571546, 26.262791997158565], [-111.71688698380359, 26.26386660712445], [-111.71827610228645, 26.263859665578398], [-111.71829216073513, 26.266469359474762], [-111.71537795807347, 26.266483907862362], [-111.7137897836263, 26.267925807949627], [-111.71571892816577, 26.269638997032413], [-111.71768317199444, 26.269340395703033], [-111.71984681721457, 26.271261688976868], [-111.71985597372405, 26.272746045933008], [-111.71758440828698, 26.27538133496879], [-111.71925468439515, 26.276864451203068], [-111.72066056057568, 26.276857400210304], [-111.72185742065999, 26.275770743798834], [-111.72369782033935, 26.27740480371021], [-111.72371476670766, 26.28013652135376]]]]}}]}
