{"type": "FeatureCollection", "features": [{"type": "Feature", "properties": {"uga": "19", "politica": "restauracion", "procedencia": {"metodo": "digitalizacion-semiautomatica", "fuente": "Mapa de ubicación de la ficha UGA 19, Boletín Oficial No. 12 (12-mar-2014), p. 212 del PDF", "datum": "UTM 12N con desplazamiento de +30 m E y +170 m N ajustado contra la costa (INC-011)", "correccion_borde_px": 1.4, "precision_aprox_m": 106.0, "escala_por_superficie": false, "revisada_en_qgis": false}, "control": {"residuo_georreferencia_m": 94.5, "area_digitalizada_ha": 2976.99, "escala_por_superficie": false, "superficie_ficha_ha": 3228.57, "diferencia_area_pct": -7.8}}, "geometry": {"type": "MultiPolygon", "coordinates": [[[[-111.43233743854007, 26.207419902061293], [-111.43235835569256, 26.21308122647968], [-111.43024262000885, 26.21260755914679], [-111.42926804542365, 26.21309048481533], [-111.42238791559932, 26.21311085864375], [-111.42660731776527, 26.20879029382202], [-111.42659716939663, 26.20600624511251], [-111.42920601876467, 26.20787053621796], [-111.42969254673167, 26.207427828467157], [-111.43233743854007, 26.207419902061293]]], [[[-111.54679942374436, 26.25835222802314], [-111.54896602176336, 26.255895937938547], [-111.54896191690774, 26.255022701845565], [-111.5518315102179, 26.255212950634938], [-111.55236047077175, 26.254730912552837], [-111.56269034870606, 26.259682861718684], [-111.56270422885713, 26.26256283125749], [-111.56377370928872, 26.26399864805953], [-111.56378761880003, 26.266878615329667], [-111.56537508997252, 26.26830037308463], [-111.56282796523655, 26.26831037989788], [-111.561674395896, 26.26936166211803], [-111.5616882568797, 26.27224162827781], [-111.56010585394893, 26.27464782685566], [-111.5595902915033, 26.277935112193905], [-111.56128767292138, 26.279455251947738], [-111.56704104244167, 26.280392644674478], [-111.56704528720773, 26.281265874986484], [-111.57453380911056, 26.291316132055194], [-111.5745385395369, 26.292276115821974], [-111.57774595262698, 26.296103245991986], [-111.57775583909365, 26.298097956342357], [-111.57670249095531, 26.30002219731396], [-111.57618961366464, 26.303777505360234], [-111.5740740473181, 26.303785987259168], [-111.57256910506081, 26.30243875741619], [-111.57042688370163, 26.29908728482233], [-111.57042218572273, 26.298127301275606], [-111.56721495273752, 26.294300005428216], [-111.56613815310992, 26.291424247807473], [-111.56400096646968, 26.289032653732267], [-111.5639963234622, 26.28807266776967], [-111.56176509505693, 26.286074652088118], [-111.55812901416925, 26.285608835976454], [-111.55729268165119, 26.286370847449927], [-111.55591544091243, 26.28513742447161], [-111.55325860672869, 26.285147690838613], [-111.54909693152828, 26.28372366389827], [-111.54909282067155, 26.28285043120925], [-111.54716957822318, 26.280649760310332], [-111.54588954807646, 26.28181588511321], [-111.5437743692038, 26.281823913964292], [-111.5437613489991, 26.279030699468198], [-111.54264084644853, 26.2780269316177], [-111.54162535473559, 26.278952016810436], [-111.53994552945942, 26.278958345291734], [-111.53887841513587, 26.278002347244612], [-111.53684108556698, 26.278489984974115], [-111.5351580381024, 26.280023039966135], [-111.53358595902814, 26.28482893250113], [-111.53178675133027, 26.286467623442807], [-111.53040977451155, 26.285233951539972], [-111.52890147653164, 26.285239517796928], [-111.52752403449821, 26.286493981927368], [-111.52837925305374, 26.287260226257633], [-111.52988757729449, 26.28725466509303], [-111.53072409816383, 26.28649281054253], [-111.53125765979166, 26.28697084027475], [-111.53178684824181, 26.286488876567027], [-111.5326302816414, 26.28724451216991], [-111.53688130670908, 26.28722867217486], [-111.53794849080069, 26.288184682795144], [-111.53975968834527, 26.28693911599824], [-111.54166816466238, 26.288170691386476], [-111.54326230976518, 26.288164665557893], [-111.54486093982644, 26.289118611090874], [-111.54698648266505, 26.289110525161473], [-111.54805376568031, 26.290066458820732], [-111.55433895803466, 26.29100232224123], [-111.55434574715737, 26.29243029237708], [-111.55328750259555, 26.293394381391668], [-111.55329170377448, 26.294279622729693], [-111.55573489275406, 26.296467563683816], [-111.55437085440303, 26.297710219083314], [-111.55437952943196, 26.299534192855365], [-111.55309862493647, 26.298387132065336], [-111.55225197979861, 26.29915839671073], [-111.5522610771081, 26.301078369390535], [-111.55024229432166, 26.303399378288958], [-111.54864794273774, 26.30340548492147], [-111.54706035057923, 26.30485155379924], [-111.5459116111467, 26.304855930134014], [-111.54249240834503, 26.303227651850754], [-111.54058942942089, 26.305442845873813], [-111.54059388313537, 26.306402833308965], [-111.53847689578019, 26.308330804571977], [-111.53848093167353, 26.309204035701867], [-111.53689673138138, 26.309209974532163], [-111.53423053647388, 26.30729992098304], [-111.53210465745752, 26.30730782303569], [-111.52784202488567, 26.304923559107674], [-111.52687516448027, 26.304927113617296], [-111.52708996774108, 26.30281569583581], [-111.52654453551374, 26.3023270691345], [-111.52548596880942, 26.303290956678996], [-111.52464246289163, 26.302535281818383], [-111.52304811642959, 26.30254110376082], [-111.52202400370811, 26.301623585249104], [-111.5198572809344, 26.30207269891905], [-111.51612864772859, 26.300166147838958], [-111.5135808063165, 26.300175291318535], [-111.51515551359296, 26.298741645068873], [-111.5151516542905, 26.297868409382254], [-111.51673570596937, 26.29786271299549], [-111.51824843839138, 26.298817264095483], [-111.5194026921085, 26.297766324712807], [-111.51939841459587, 26.29680633282308], [-111.52045697456785, 26.295842489457687], [-111.52150731658193, 26.29304541106815], [-111.52309130112961, 26.29303964549101], [-111.5257117386766, 26.294431322110196], [-111.52651732138719, 26.29369773623556], [-111.5198059103812, 26.290552795468603], [-111.51799345735802, 26.288928718883227], [-111.51979137337423, 26.287291587536725], [-111.52276518204981, 26.28651139510728], [-111.52116461937356, 26.285077203182787], [-111.5232771760662, 26.282189489954348], [-111.5181605444904, 26.27903863628289], [-111.51709785996594, 26.279042468352728], [-111.50911096270102, 26.275230973587295], [-111.50761301984674, 26.275236277961316], [-111.50760922097048, 26.27436303838384], [-111.50654240991751, 26.273406794768185], [-111.50653791832218, 26.272372051217733], [-111.50970483070594, 26.267560783540524], [-111.51180894722496, 26.262753237373385], [-111.51286726708582, 26.261789449069372], [-111.51286132271377, 26.26043620968382], [-111.51435907441582, 26.2604308533433], [-111.51653217407703, 26.258933650363502], [-111.51541055997058, 26.257928282202], [-111.5111542841531, 26.25650347282088], [-111.50902304618339, 26.255071020861173], [-111.50742934430332, 26.255076659788628], [-111.5063627137728, 26.25412040968846], [-111.50476331929794, 26.255172812031418], [-111.50477124327679, 26.257006053869585], [-111.50318774325086, 26.257011610167787], [-111.49892549180174, 26.25414643479779], [-111.49477166324436, 26.254160802715138], [-111.4947595141132, 26.251292808892817], [-111.4965587167897, 26.249654574270348], [-111.49762522690878, 26.250610899508047], [-111.49815439435778, 26.250129057709515], [-111.49895428825228, 26.250846293296135], [-111.50006552536192, 26.249834413187873], [-111.50112176943236, 26.248390709412604], [-111.50111591309287, 26.247025454307042], [-111.50004940810739, 26.24606915444873], [-111.50003922746936, 26.243690403313455], [-111.50131900897685, 26.244837962994247], [-111.50207203557027, 26.244634087609267], [-111.50428413124953, 26.24261954995903], [-111.5042779168892, 26.24117954760553], [-111.50524047722344, 26.24030290899367], [-111.50798208946628, 26.24029324310295], [-111.50873891647151, 26.240971819467486], [-111.51000869618477, 26.239815299264322], [-111.5094980418086, 26.244521187216176], [-111.51119428814837, 26.246041943425556], [-111.51802464816963, 26.248417513560973], [-111.51917841382125, 26.24736657603015], [-111.51810996305953, 26.24600515967219], [-111.51809260423337, 26.24209041622046], [-111.5191506872982, 26.24112658241079], [-111.51914258433828, 26.239302583247053], [-111.52126552449843, 26.241205684722214], [-111.52232786401113, 26.241201826947574], [-111.52707615083723, 26.243545764919066], [-111.52871607546726, 26.24205171843635], [-111.52870738855336, 26.240131722494905], [-111.52976536517775, 26.239167811850926], [-111.52974839504324, 26.235423818420763], [-111.53129503632086, 26.236810129749287], [-111.53346050525856, 26.2363608584675], [-111.53452718903222, 26.237316908841063], [-111.53612064177892, 26.237310972982527], [-111.54006159611033, 26.23988686798205], [-111.5392269905571, 26.2406473859679], [-111.53923363543723, 26.242087380394196], [-111.53817792307923, 26.243531357665713], [-111.53713287510097, 26.24730057087003], [-111.53829610134247, 26.248342987800108], [-111.54352102827981, 26.250243338173355], [-111.54353849395949, 26.25399655795623], [-111.54460542256696, 26.25495252737954], [-111.54461213794453, 26.256392517654042], [-111.54679942374436, 26.25835222802314]], [[-111.53082585885933, 26.259890928432664], [-111.53303992569278, 26.258355952864765], [-111.53303150264075, 26.256510708945097], [-111.53133482220547, 26.25499021937797], [-111.52929568344304, 26.25499774796327], [-111.52761286813893, 26.256530715846015], [-111.52762120557452, 26.258375961382896], [-111.52931788849911, 26.259896494094278], [-111.53082585885933, 26.259890928432664]], [[-111.53690453481634, 26.301589919169196], [-111.53876853669546, 26.299892295308616], [-111.53661993098186, 26.2974897074403], [-111.53533520293772, 26.297695750611854], [-111.53448691718346, 26.298468301999332], [-111.53690453481634, 26.301589919169196]]]]}}]}
