{"type": "FeatureCollection", "features": [{"type": "Feature", "properties": {"uga": "1a", "politica": "aprovechamiento-sustentable", "procedencia": {"metodo": "digitalizacion-semiautomatica", "fuente": "Mapa de ubicación de la ficha UGA 1a, Boletín Oficial No. 12 (12-mar-2014), p. 136 del PDF", "datum": "UTM 12N con desplazamiento de +30 m E y +170 m N ajustado contra la costa (INC-011)", "correccion_borde_px": 1.4, "precision_aprox_m": 15.0, "escala_por_superficie": false, "revisada_en_qgis": false}, "control": {"residuo_georreferencia_m": 12.6, "area_digitalizada_ha": 102.66, "escala_por_superficie": false, "superficie_ficha_ha": 103.734, "diferencia_area_pct": -1.0}}, "geometry": {"type": "Polygon", "coordinates": [[[-111.69166753399078, 26.568210106489815], [-111.6874686846002, 26.564378885141146], [-111.68772478081969, 26.56414439359711], [-111.68840841957581, 26.564141091874223], [-111.68855951678901, 26.564002739318607], [-111.68931911433212, 26.56399906610288], [-111.6894702102462, 26.5638607126035], [-111.68992596814024, 26.56385850625769], [-111.69015302267997, 26.563719784184926], [-111.690760286475, 26.563648029999907], [-111.69087986979487, 26.5635385287858], [-111.69106412443321, 26.56364655652439], [-111.69144268296903, 26.56343828628822], [-111.69159460165258, 26.563437548909203], [-111.69174569405551, 26.563299193053204], [-111.69265555020122, 26.563019527847377], [-111.69378996360352, 26.562188274317442], [-111.69394188056337, 26.562187534467757], [-111.69462260299738, 26.561702539235064], [-111.69500197866658, 26.561631877992603], [-111.69712047864428, 26.560245305420292], [-111.69924940322093, 26.558295575804273], [-111.69924864453776, 26.55817054296132], [-111.69938666353399, 26.55816986558527], [-111.70000478169781, 26.55760375544801], [-111.70015502020385, 26.557327772725753], [-111.70075889590639, 26.556705503933458], [-111.70090829450541, 26.556291902258668], [-111.70151132311565, 26.555532012193463], [-111.70151048546632, 26.55539439401218], [-111.7018117869678, 26.55498004350768], [-111.701810110998, 26.55470480713884], [-111.70196117967583, 26.554566440748694], [-111.70195908430921, 26.554222395277048], [-111.70211015218618, 26.55408402873576], [-111.70210889472133, 26.553877601447404], [-111.70225996197274, 26.55373923475317], [-111.70225828502345, 26.5534639983629], [-111.70240935156168, 26.553325631516632], [-111.70240767428591, 26.55305039511922], [-111.70255874011099, 26.552912028120932], [-111.70255664311199, 26.552567982613564], [-111.70315922205947, 26.551739276678635], [-111.70352306458746, 26.551406010895036], [-111.70672602933973, 26.55145897463795], [-111.70710662950546, 26.55159470902287], [-111.70748638590187, 26.551592824293344], [-111.70756275954352, 26.55166125626396], [-111.70827859960424, 26.551755212492388], [-111.71128224946757, 26.551298685414505], [-111.71233627156494, 26.55203775725979], [-111.712337183838, 26.55218537905964], [-111.71174678415386, 26.552726231917305], [-111.71151935304046, 26.552796178700415], [-111.71068727499076, 26.5533508194043], [-111.71053537022551, 26.553351576875425], [-111.70962817787644, 26.554044208173718], [-111.70788802362658, 26.55515384061495], [-111.7069816452287, 26.555984073497235], [-111.70509120996635, 26.55736966225776], [-111.70259475859775, 26.559033460296444], [-111.70227879506626, 26.55932284811018], [-111.70227955707526, 26.559447880851685], [-111.702141536634, 26.559448561059963], [-111.70032694326113, 26.56083371388352], [-111.70001096908457, 26.56112309680574], [-111.70001172869259, 26.561248129576473], [-111.69987370602793, 26.561248807630523], [-111.69911788587129, 26.561871818364274], [-111.69526436301162, 26.56526242056959], [-111.69435698445326, 26.565954957151618], [-111.69209014384259, 26.567961510399506], [-111.69166753399078, 26.568210106489815]], [[-111.70039420977741, 26.559403517007073], [-111.70077360160823, 26.55912382555504], [-111.70037734148461, 26.55870032138417], [-111.70008611105901, 26.55870175258666], [-111.69984568036224, 26.558921952824445], [-111.69984687329298, 26.55911837617364], [-111.70008996556287, 26.55933620108527], [-111.7002733160838, 26.559295189916313], [-111.70039420977741, 26.559403517007073]]]}}]}
