{"type": "FeatureCollection", "features": [{"type": "Feature", "properties": {"uga": "1b", "politica": "aprovechamiento-sustentable", "procedencia": {"metodo": "digitalizacion-semiautomatica", "fuente": "Mapa de ubicación de la ficha UGA 1b, Boletín Oficial No. 12 (12-mar-2014), p. 139 del PDF", "datum": "UTM 12N con desplazamiento de +30 m E y +170 m N ajustado contra la costa (INC-011)", "correccion_borde_px": 1.4, "precision_aprox_m": 15.0, "escala_por_superficie": false, "revisada_en_qgis": false}, "control": {"residuo_georreferencia_m": 13.2, "area_digitalizada_ha": 350.54, "escala_por_superficie": false, "superficie_ficha_ha": 350.75, "diferencia_area_pct": -0.1}}, "geometry": {"type": "Polygon", "coordinates": [[[-111.46329038917916, 26.538291573070506], [-111.46267141066534, 26.538293583169214], [-111.46266977850006, 26.537886687811113], [-111.46231200447225, 26.53763612018263], [-111.46220233702194, 26.537735708600334], [-111.46142676167975, 26.537738220856877], [-111.46076308963339, 26.53820053057655], [-111.46034304927618, 26.537894219592353], [-111.46034105251564, 26.537393903577097], [-111.46064988555159, 26.5370432834378], [-111.46080276503619, 26.536483393169913], [-111.4610206205812, 26.53628556167755], [-111.46140784401594, 26.536144459993036], [-111.46202633526941, 26.53565298535924], [-111.46312188603167, 26.534587916636614], [-111.46311964036217, 26.534028527615718], [-111.4632741888183, 26.533888176466142], [-111.46327138090429, 26.53318894012959], [-111.46358047484955, 26.53290823733751], [-111.46357939457707, 26.532639393446406], [-111.46311210526765, 26.532151440007826], [-111.46311042122396, 26.531731898102322], [-111.46295391138449, 26.531382783492635], [-111.46294970292368, 26.530333928545797], [-111.4618575297996, 26.528729204509446], [-111.46106486536095, 26.52794995244969], [-111.46083193322232, 26.527880780744155], [-111.46020957378815, 26.527393318183236], [-111.459899371385, 26.527394318895606], [-111.45935540377585, 26.52711637358305], [-111.4592003029299, 26.527116873089767], [-111.45874740841052, 26.526711429259933], [-111.45859064088283, 26.526292385605448], [-111.45842090988504, 26.52614043560413], [-111.45826581033039, 26.52614093407759], [-111.45811015562748, 26.526001584866854], [-111.45764485749096, 26.526003078760144], [-111.45750327928225, 26.525876330106854], [-111.45734734874344, 26.52566705627327], [-111.45734457774539, 26.524967818546827], [-111.45718892574372, 26.524828468272858], [-111.45718477087644, 26.52377961151077], [-111.45687236372193, 26.523221215157992], [-111.45631296575446, 26.522581037371534], [-111.45576985776515, 26.522512849236776], [-111.4550705529867, 26.522165458663405], [-111.45444990051315, 26.522097512864814], [-111.45312912908939, 26.52147239257955], [-111.4515006482301, 26.52147755687194], [-111.45118964138076, 26.52126876682535], [-111.4483979638173, 26.521277570492405], [-111.4483201456169, 26.52120789035876], [-111.44793241275038, 26.521209108554597], [-111.44731149817063, 26.521071207654348], [-111.44505806636462, 26.519889535626273], [-111.44451363074656, 26.51947168460295], [-111.44373656354722, 26.519054555320704], [-111.44326968151678, 26.51863645813877], [-111.44272606272628, 26.518428372006483], [-111.4424926243765, 26.51821932190398], [-111.44219846165915, 26.518220234123092], [-111.44238367312673, 26.518052068805712], [-111.44230532490919, 26.517842537306343], [-111.44242723533594, 26.517731846585324], [-111.44242589548713, 26.517382226623695], [-111.44335212780804, 26.516260553641086], [-111.44366042010404, 26.51577012132552], [-111.44365993130917, 26.515642919612745], [-111.44387853573414, 26.515642239569114], [-111.44403308365162, 26.51550190892573], [-111.4469147058061, 26.515492910255244], [-111.4474585889885, 26.515770904551257], [-111.44769121776784, 26.51577017467134], [-111.44784684608014, 26.515909535789092], [-111.44815701813988, 26.51590856168269], [-111.44831264719565, 26.516047922280055], [-111.44862281960734, 26.516046947156166], [-111.44877844940656, 26.51618630723313], [-111.44908862217021, 26.51618533109174], [-111.4495549703749, 26.51646356136084], [-111.44986514385027, 26.516462583521598], [-111.45002077569598, 26.51660194220885], [-111.45033094952322, 26.516600963352076], [-111.45070667278257, 26.516739626297756], [-111.45171145581551, 26.51589735069721], [-111.45249921581697, 26.515462658920253], [-111.45249757156255, 26.51504311540922], [-111.45265105408818, 26.514633930577908], [-111.45249514777227, 26.51442465080236], [-111.45249432568518, 26.514214879019292], [-111.45218306300971, 26.513936166765884], [-111.45202688475788, 26.513656962497144], [-111.4520257473371, 26.513366416028383], [-111.45218028221089, 26.513226076678425], [-111.45205729095134, 26.513057079853485], [-111.4521791869168, 26.51294638090711], [-111.45217863927574, 26.512806533017326], [-111.45256469938971, 26.51238575997523], [-111.45256420085855, 26.512258558357377], [-111.45270525809694, 26.512258110823655], [-111.45309186319056, 26.511977184263436], [-111.45488782972897, 26.511971469165], [-111.45504346141064, 26.51211082245997], [-111.45636164787541, 26.512106611905953], [-111.45651728149484, 26.51224596356516], [-111.45690498380038, 26.512244722420203], [-111.45706061825486, 26.512384073473083], [-111.45760340208349, 26.512382333499637], [-111.45775903755678, 26.512521683774594], [-111.45822428135043, 26.512520190210473], [-111.46102244365348, 26.51418936946017], [-111.46117752709071, 26.514188868197525], [-111.46209787087803, 26.51515218987891], [-111.46303314631531, 26.516337877438097], [-111.46303370718859, 26.516477725046126], [-111.46318935472061, 26.51661706915915], [-111.46318991578994, 26.51675691675861], [-111.46334556388963, 26.51689626068834], [-111.463346125155, 26.517036108279232], [-111.46397040820298, 26.518013024886336], [-111.46428705335612, 26.519620262312692], [-111.46436572382437, 26.519899704911996], [-111.46453545322424, 26.52005164798866], [-111.4646905444592, 26.52005114280393], [-111.46484619885, 26.520190484949826], [-111.46523392737892, 26.520189220821035], [-111.46538958260493, 26.520328562360156], [-111.46569976577715, 26.52032754995492], [-111.46585542174647, 26.520466890973093], [-111.46616560526978, 26.520465877549945], [-111.46632126198244, 26.520605218047166], [-111.46663144585685, 26.5206042036061], [-111.46740860431264, 26.521021206856318], [-111.46787444857505, 26.521159528792623], [-111.46966313510215, 26.52241229334432], [-111.47019388255657, 26.522887370509512], [-111.47159687949429, 26.52463085310915], [-111.47190993313873, 26.52532906336379], [-111.47206560333888, 26.52546839731748], [-111.47206674742694, 26.52574809181131], [-111.47222241838719, 26.52588742557559], [-111.47222384900111, 26.52623704366269], [-111.47237952081755, 26.526376377234605], [-111.47238066571175, 26.526656071680137], [-111.47253633828834, 26.52679540506263], [-111.47253805623744, 26.527214946692617], [-111.47269401619091, 26.527424203479434], [-111.47269602119232, 26.527913668657693], [-111.4728519823947, 26.528122925234843], [-111.47285456120315, 26.528752237524643], [-111.47301023721317, 26.528891570303497], [-111.47301142824215, 26.529182115277003], [-111.47285689801465, 26.529322476832032], [-111.47285919042842, 26.52988186544231], [-111.4727046590899, 26.530022226833648], [-111.47270637789289, 26.530441768263554], [-111.47255184562707, 26.530582129490806], [-111.47255385030164, 26.531071594462325], [-111.47239960331096, 26.531281879090468], [-111.47240074849891, 26.531561573342746], [-111.47224621437843, 26.531701934241813], [-111.47224735921552, 26.531981628483805], [-111.47209282435146, 26.532121989218396], [-111.47209396883768, 26.532401683450114], [-111.47193943323003, 26.532542044020214], [-111.47194029132997, 26.532751814687316], [-111.47178575507063, 26.53289217509276], [-111.47178632695865, 26.533032022201084], [-111.47147811023278, 26.533522513175406], [-111.47147920895343, 26.533791356729463], [-111.47163489022726, 26.533930690843142], [-111.47163574782543, 26.534140461478607], [-111.47179171572783, 26.534349718946597], [-111.47179371750678, 26.534839183713192], [-111.47194940058982, 26.534978517439114], [-111.47195196789968, 26.53560603365051], [-111.47142310253918, 26.53560778328823], [-111.47111373525739, 26.535818579286854], [-111.47048045890023, 26.535750745921742], [-111.47036999111725, 26.535651877604728], [-111.47018277647747, 26.53575172791286], [-111.46963988370364, 26.53575351720053], [-111.46940778443236, 26.535894130505408], [-111.46877479269334, 26.535896213111744], [-111.46838587590881, 26.53561779331863], [-111.46801063769827, 26.53561902553066], [-111.46785609280391, 26.535759381735044], [-111.4673907559576, 26.53576090794359], [-111.46723621011074, 26.535901263485737], [-111.46700354138542, 26.535902025772057], [-111.4668489948743, 26.53604238090042], [-111.46669388219344, 26.536042888714725], [-111.46646206143343, 26.536253420848823], [-111.46530125255079, 26.536886534467808], [-111.46421883243401, 26.53772915698937], [-111.46390916487401, 26.537870013956876], [-111.46374063589268, 26.53802305761306], [-111.46374114730979, 26.53815025857203], [-111.46344494305241, 26.538151221747388], [-111.46329038917916, 26.538291573070506]], [[-111.45871087880474, 26.521049444304538], [-111.45898957528483, 26.520866514999618], [-111.45887804339748, 26.520557638139486], [-111.45870832058134, 26.520405688253852], [-111.45833313131867, 26.52040689435786], [-111.45808735142867, 26.520630104443534], [-111.45808786335397, 26.520759101376836], [-111.45841323380678, 26.52105040123286], [-111.45871087880474, 26.521049444304538]]]}}]}
