{"type": "FeatureCollection", "features": [{"type": "Feature", "properties": {"uga": "1c", "politica": "aprovechamiento-sustentable", "procedencia": {"metodo": "digitalizacion-semiautomatica", "fuente": "Mapa de ubicación de la ficha UGA 1c, Boletín Oficial No. 12 (12-mar-2014), p. 142 del PDF", "datum": "UTM 12N con desplazamiento de +30 m E y +165 m N ajustado contra la costa (INC-011)", "correccion_borde_px": 1.4, "precision_aprox_m": 9.0, "escala_por_superficie": true, "revisada_en_qgis": false}, "control": {"residuo_georreferencia_m": 0.0, "area_digitalizada_ha": 221.33, "escala_por_superficie": true, "superficie_ficha_ha": 221.28, "diferencia_area_pct": 0.0}}, "geometry": {"type": "Polygon", "coordinates": [[[-111.43768061578852, 26.386835923509757], [-111.43767903791964, 26.38641733242874], [-111.43758386713546, 26.386332195664657], [-111.43758078305552, 26.385513815925943], [-111.4376753091669, 26.385428099181073], [-111.43767353822263, 26.384958251954867], [-111.43772050474769, 26.384836792300344], [-111.43757694577342, 26.38449552017758], [-111.4374817766599, 26.384410383302214], [-111.43748129390585, 26.384282243131143], [-111.43680687578752, 26.38376405186475], [-111.43652233571915, 26.383764919835475], [-111.43604746069919, 26.383595511586527], [-111.43581034429653, 26.383596233672577], [-111.4356677539599, 26.38351123992482], [-111.43491656009192, 26.383513524174568], [-111.43481353082286, 26.383606949139953], [-111.43481497022076, 26.383991369819373], [-111.43472894579261, 26.384069374696264], [-111.43446426041604, 26.38405223413386], [-111.43441699672859, 26.38409509146975], [-111.4343418199915, 26.384027835954306], [-111.43419954958904, 26.384028267564464], [-111.43410438330554, 26.383943128402546], [-111.43397064443027, 26.38394353391158], [-111.4339703538994, 26.383865791185354], [-111.43375195018798, 26.383542686097243], [-111.43387388572613, 26.383432119025677], [-111.43387356655754, 26.383346692192465], [-111.43406214175445, 26.38304712320972], [-111.43396652304622, 26.38284066919447], [-111.4339654057528, 26.382541675252703], [-111.43387024087352, 26.382456535900268], [-111.43386896427296, 26.382114828514524], [-111.43377379981797, 26.382029689087705], [-111.43377348074259, 26.381944262236615], [-111.4335826739967, 26.381645842895953], [-111.43329686412396, 26.381304996943665], [-111.43329654540953, 26.381219570078528], [-111.43291541541456, 26.380750870041414], [-111.43291509698841, 26.380665443165345], [-111.43234412371187, 26.38015460156678], [-111.43238726689891, 26.38002291669515], [-111.43228734717397, 26.379933519198637], [-111.43191555060768, 26.37993464137366], [-111.43172618090283, 26.380020640423464], [-111.43133922819895, 26.38002180680887], [-111.43119664549525, 26.37993680847054], [-111.43068258340635, 26.379938355866614], [-111.43016220893419, 26.380281631843513], [-111.43006736500658, 26.380281916792622], [-111.42997283733402, 26.380367628592744], [-111.42973572733086, 26.380368340536247], [-111.42944364016562, 26.380633184802416], [-111.42939858686945, 26.38127402889446], [-111.42935132240227, 26.381316884583487], [-111.42935287625222, 26.381737193592425], [-111.42949609171986, 26.38199304753585], [-111.43035239044256, 26.38271661250985], [-111.43033382602538, 26.38308314939684], [-111.43038140742932, 26.38312572026591], [-111.43030673373596, 26.383193428421325], [-111.4303073668227, 26.383364282170962], [-111.42992987866097, 26.3838779833481], [-111.42946509512043, 26.384127977802653], [-111.42937024804293, 26.384128262328304], [-111.42927571676094, 26.384213973666856], [-111.42912586784385, 26.384214422962955], [-111.42789002178642, 26.38344927192652], [-111.4278037066422, 26.383449529905935], [-111.42761231176226, 26.38298793280472], [-111.42723072716424, 26.38239107716046], [-111.42723025576355, 26.382262936779487], [-111.42713509598585, 26.382177792882896], [-111.4271332108417, 26.3816652313235], [-111.4270853170685, 26.38153723241304], [-111.42693401901839, 26.381401857706372], [-111.42626885063018, 26.38106212836039], [-111.42522555980618, 26.38106523105778], [-111.4251304024728, 26.380980085784575], [-111.42494071335058, 26.38098064896679], [-111.42442591052968, 26.3805200069036], [-111.42433044211974, 26.380349434103856], [-111.42434715252051, 26.37947033572779], [-111.42423296608854, 26.379368160640304], [-111.42441316826955, 26.37936762654423], [-111.42474418245342, 26.37911036113376], [-111.42513113245522, 26.379109212610402], [-111.42522628823578, 26.379194357923907], [-111.42555823907837, 26.379193371589675], [-111.42583990652052, 26.379445404969704], [-111.42593066011992, 26.37936311989621], [-111.42612034657598, 26.379362555434323], [-111.42621487632303, 26.37927684614127], [-111.42649940578316, 26.3792759987919], [-111.42659393517724, 26.37919028925178], [-111.42692588594902, 26.37918929974666], [-111.42702041495454, 26.379103589928594], [-111.42716267945902, 26.379103165526715], [-111.42725720821831, 26.37901745555425], [-111.42735205114838, 26.379017172479355], [-111.42754961088183, 26.378838042637366], [-111.42754851030212, 26.37853904827555], [-111.42763847569438, 26.378243194723062], [-111.42759469877291, 26.378204024324607], [-111.42759265469408, 26.377648749025365], [-111.42749734128691, 26.37752089178466], [-111.42744850581745, 26.37713661197028], [-111.42729705603799, 26.37695852400784], [-111.42644207348741, 26.37657664742764], [-111.42634691900098, 26.376491502875904], [-111.42625207812064, 26.376491785259944], [-111.42568209366881, 26.376237197217787], [-111.42525499786342, 26.376153038442414], [-111.42511242431252, 26.376068033886543], [-111.42487532293524, 26.37606873767409], [-111.4247327497609, 26.375983732734507], [-111.42449564854398, 26.375984435891244], [-111.42442808538671, 26.375923978025963], [-111.42416339490168, 26.375899992620123], [-111.42326054327472, 26.37539009666951], [-111.42316570325553, 26.375390376998325], [-111.42278541046015, 26.375135216522427], [-111.42269910143678, 26.375135471349694], [-111.42231697513162, 26.374375431321948], [-111.42141181936906, 26.373224820204417], [-111.4214110199572, 26.3730044269282], [-111.42150508323044, 26.372790580043294], [-111.42192195509246, 26.37241261046357], [-111.4223955219472, 26.372240358269075], [-111.42249004876203, 26.372154651387145], [-111.42301165436845, 26.372153111437502], [-111.4231619463208, 26.37201684115674], [-111.42320812028994, 26.371674992656306], [-111.4232553831842, 26.371632138957864], [-111.42325351602544, 26.371119576384686], [-111.42344116548276, 26.370563739483007], [-111.4236765424761, 26.370093189137332], [-111.42372305378537, 26.369844451641306], [-111.42410144257404, 26.369843331513696], [-111.42419658991922, 26.3699284777226], [-111.42443367878701, 26.369927775210275], [-111.42452882644243, 26.370012921193627], [-111.42475643191125, 26.37001224625929], [-111.42461559676647, 26.370139947367758], [-111.42457080722585, 26.37085939270182], [-111.42476141671737, 26.371115111459783], [-111.4248571903351, 26.371371111354268], [-111.42496089811998, 26.371463915827363], [-111.42509557594383, 26.371463516079814], [-111.4251901001168, 26.37137780743796], [-111.42537977355305, 26.37137724411498], [-111.42604206433438, 26.370948135170515], [-111.42623173704818, 26.37094757072757], [-111.42642109624143, 26.370861578967414], [-111.42765396780139, 26.370857902345683], [-111.42774848957573, 26.370772192036757], [-111.42808799356004, 26.370771177495374], [-111.42818314455681, 26.370856320999515], [-111.42836523974702, 26.370855776389714], [-111.42861020226026, 26.370676503214312], [-111.42860802479085, 26.370086197999505], [-111.42874174780768, 26.370085797695022], [-111.42883626814927, 26.370000086676352], [-111.42931802314489, 26.36999864317608], [-111.42940461557751, 26.370076127329355], [-111.42950024060265, 26.370289410521497], [-111.42950152892479, 26.370637944202446], [-111.42940716642278, 26.370766369170223], [-111.42940777261728, 26.3709303977033], [-111.42948293794535, 26.370997656071864], [-111.42943567763353, 26.371040511798437], [-111.42978932977837, 26.371527248822098], [-111.42998803652219, 26.37166247843265], [-111.43036722586712, 26.37161862530734], [-111.43046237921466, 26.371703767257863], [-111.43088156796755, 26.37170250650161], [-111.43097608800639, 26.371616794093008], [-111.431165761689, 26.3716162231014], [-111.4312602814461, 26.37153051050761], [-111.43140253659763, 26.371530082006426], [-111.43168609471212, 26.37127294357706], [-111.43211190607967, 26.371015375394304], [-111.43225416058449, 26.37101494605485], [-111.43253803355925, 26.370843232957952], [-111.43272770593995, 26.370842659912988], [-111.4328222239085, 26.37075694630094], [-111.43310673225544, 26.370756086077268], [-111.43344620441052, 26.37049109086212], [-111.43354011274845, 26.370242206910643], [-111.43367367643906, 26.37019908850204], [-111.43396592018628, 26.370240917135582], [-111.43406107499084, 26.37032605669243], [-111.43439300010891, 26.370325050186853], [-111.43448815529192, 26.370410189454166], [-111.4348200806315, 26.37040918195569], [-111.43491523619294, 26.370494320933464], [-111.43519974381776, 26.370493456559384], [-111.4352948997235, 26.37057859527956], [-111.43557940754029, 26.370577730148625], [-111.43591197428823, 26.370747574038685], [-111.43629163933154, 26.370831845719756], [-111.43747966409298, 26.371511644499204], [-111.43757450076723, 26.371511354728664], [-111.43795481346343, 26.371766475799365], [-111.43804965033964, 26.371766185711554], [-111.4385725429842, 26.372106296771328], [-111.43866738012993, 26.372106006270947], [-111.43942010237083, 26.372779437283207], [-111.44075333929761, 26.37422761344198], [-111.4409441518395, 26.37452602345617], [-111.440944476084, 26.374611450313825], [-111.44103963956009, 26.374696585072417], [-111.44104012603634, 26.374824725353808], [-111.44132626668896, 26.37525098291623], [-111.4413267534932, 26.37537912318274], [-111.44161289658588, 26.375805380108947], [-111.4416133837181, 26.375933520360565], [-111.44180403887161, 26.376189215680427], [-111.44180517602962, 26.376488209573555], [-111.44190050417465, 26.376616057121694], [-111.44190164160224, 26.376915050993098], [-111.44199680768334, 26.37700018505553], [-111.4419981079072, 26.377341892313318], [-111.44209343697779, 26.377469739706278], [-111.44209473751265, 26.377811446937187], [-111.44218990447791, 26.377896580849583], [-111.44219104271421, 26.378195574655795], [-111.4422862100682, 26.37828070849475], [-111.44228867573084, 26.378928234964004], [-111.44219415828798, 26.379013954723494], [-111.44220033786134, 26.38063706355223], [-111.44210581898133, 26.380722783251375], [-111.44210646935672, 26.380893636790937], [-111.44201211276119, 26.381022069812836], [-111.44201308813248, 26.381278350113185], [-111.44191856859777, 26.381364069689365], [-111.44191938124644, 26.381577636599463], [-111.44182486140146, 26.381663356114146], [-111.44182599888578, 26.381962349777773], [-111.4417314786622, 26.382048069231022], [-111.44173245345804, 26.382304349504363], [-111.44163793289005, 26.38239006889614], [-111.44163825775658, 26.382475495651935], [-111.44154373698075, 26.3825612149821], [-111.44135566900407, 26.382988933719272], [-111.44107259108173, 26.38337423109803], [-111.44107291554641, 26.383459657848604], [-111.440884033594, 26.38367380908281], [-111.44069596143572, 26.38410152694023], [-111.44050707775473, 26.384315677679773], [-111.44050740181676, 26.384401104425628], [-111.44009071070566, 26.384821840648705], [-111.43768061578852, 26.386835923509757]], [[-111.43351325752965, 26.376008673140912], [-111.43375080455631, 26.375872127669332], [-111.43365535194991, 26.37570838662359], [-111.43350405404321, 26.375573018751094], [-111.43332211090976, 26.375616283452892], [-111.4332190872489, 26.375709707302683], [-111.4332195396659, 26.375831022174694], [-111.43337083758627, 26.375966390342917], [-111.43351325752965, 26.376008673140912]]]}}]}
