{"type": "FeatureCollection", "features": [{"type": "Feature", "properties": {"uga": "1d", "politica": "aprovechamiento-sustentable", "procedencia": {"metodo": "digitalizacion-semiautomatica", "fuente": "Mapa de ubicación de la ficha UGA 1d, Boletín Oficial No. 12 (12-mar-2014), p. 145 del PDF", "datum": "UTM 12N con desplazamiento de +30 m E y +165 m N ajustado contra la costa (INC-011)", "correccion_borde_px": 1.4, "precision_aprox_m": 10.0, "escala_por_superficie": false, "revisada_en_qgis": false}, "control": {"residuo_georreferencia_m": 0.0, "area_digitalizada_ha": 99.69, "escala_por_superficie": false, "superficie_ficha_ha": 99.42, "diferencia_area_pct": 0.3}}, "geometry": {"type": "Polygon", "coordinates": [[[-111.40551993402167, 26.346513928594746], [-111.40547580320778, 26.34647441675781], [-111.40547204909466, 26.345397460673873], [-111.40537537346395, 26.345096183490174], [-111.40537342190012, 26.34453616623209], [-111.40527719751405, 26.344364123697204], [-111.40527569671774, 26.343933341145622], [-111.40519992186877, 26.343865495464513], [-111.4052475835557, 26.34382228200526], [-111.40508264952798, 26.34341694278849], [-111.40508204951847, 26.34324462974404], [-111.40411449775212, 26.342464195265585], [-111.40329991554131, 26.341949545663322], [-111.40306086064759, 26.341950218219665], [-111.40296494026963, 26.341864330568665], [-111.40076563645019, 26.341870497886994], [-111.40066971781152, 26.341784608678502], [-111.4004306631794, 26.341785276843545], [-111.40033474485602, 26.341699387406194], [-111.40019991330826, 26.34169976399753], [-111.40019947173687, 26.34157139502328], [-111.40058032690321, 26.341096465125663], [-111.40067520641252, 26.340880806321127], [-111.40081819285216, 26.340751170341303], [-111.40110342222583, 26.34027650645778], [-111.4023341917239, 26.33920383845003], [-111.40242981143386, 26.33920356998609], [-111.40271607416082, 26.339030451015354], [-111.4028595035048, 26.339030047915806], [-111.40333670533339, 26.338770233431728], [-111.40367137302388, 26.33876929120222], [-111.4038145030235, 26.33868273055925], [-111.40429259933136, 26.338681382688165], [-111.40438791915992, 26.33859495633652], [-111.4049138246627, 26.338593471491105], [-111.40500914395284, 26.338507044731404], [-111.40558285856713, 26.338505422322623], [-111.40567817728277, 26.338418995123494], [-111.40630734078677, 26.338417212856037], [-111.40640326072194, 26.338503098315467], [-111.40683354659814, 26.338501877538903], [-111.40692946698735, 26.338587762639808], [-111.40726413400391, 26.33858681202701], [-111.40736005477774, 26.338672696834184], [-111.4077425316254, 26.338671609203438], [-111.40783845281854, 26.338757493684483], [-111.4082209299221, 26.338756404773818], [-111.40831685153458, 26.338842288928706], [-111.40865151922526, 26.33884133506776], [-111.40874744122233, 26.33892721892891], [-111.40893868003407, 26.338926673385007], [-111.4090346023116, 26.33901255704964], [-111.40917803152095, 26.339012147627034], [-111.40927395404422, 26.339098031127545], [-111.40946519312409, 26.339097484877836], [-111.40956111592781, 26.33918336818181], [-111.40975235514105, 26.339182821547283], [-111.40984827822523, 26.33926870465473], [-111.41003951757186, 26.33926815763539], [-111.41013544093649, 26.3393540405463], [-111.41027887054697, 26.339353630017108], [-111.41066226174976, 26.339611004096426], [-111.41075788169529, 26.33961073007229], [-111.41176402538643, 26.340210944407403], [-111.41200338153624, 26.340296413859967], [-111.41252234585825, 26.340761036623267], [-111.41396156359218, 26.342135403965546], [-111.41415388103164, 26.342436398930992], [-111.41415418774334, 26.34252255536551], [-111.41434619947388, 26.342737393613938], [-111.4150197061327, 26.34389856829015], [-111.4153079605226, 26.34428544099092], [-111.41530842191007, 26.344414675590034], [-111.4154046610774, 26.344586711212376], [-111.4154055840825, 26.3448451803942], [-111.41550166988623, 26.344974137740284], [-111.41550243924897, 26.34518952871149], [-111.41559852544914, 26.34531848598178], [-111.41559944891463, 26.345576955130838], [-111.41569553554774, 26.345705912324043], [-111.41569645924447, 26.345964381455932], [-111.41588955773747, 26.346480764725786], [-111.4158904818967, 26.346739233823335], [-111.41598656982866, 26.346868190785244], [-111.41598764518857, 26.347168872129764], [-111.41584516713652, 26.34716928569709], [-111.41536611362463, 26.34691220341935], [-111.4150792359464, 26.346913034737064], [-111.4149354897529, 26.346827293807376], [-111.41455298643746, 26.34682840095055], [-111.41445705361096, 26.346742521197385], [-111.41408219095307, 26.346743604980787], [-111.41398687183045, 26.346830037676575], [-111.41316641173304, 26.34683240578555], [-111.41307047991346, 26.346746525092016], [-111.41250436559876, 26.34674815595627], [-111.41240904528468, 26.346834587616275], [-111.41178747714827, 26.346836375246692], [-111.41168358214729, 26.34693058087447], [-111.41163668389693, 26.34718918745912], [-111.41154166741464, 26.347361774953193], [-111.41149535089511, 26.34778494455829], [-111.41092255203678, 26.347786588414476], [-111.41063536786467, 26.34770125445167], [-111.41039630136905, 26.34770193938256], [-111.41030037084145, 26.347616056829132], [-111.4101091177777, 26.347616604356976], [-111.41001318753068, 26.347530721606947], [-111.40982193460036, 26.34753126874983], [-111.40972600463391, 26.347445385803194], [-111.40934349903463, 26.347446479063805], [-111.40924756948768, 26.347360595790875], [-111.40872162463491, 26.347362097000403], [-111.40862569561165, 26.34727621330393], [-111.40833881679198, 26.34727703113732], [-111.40824288811876, 26.347191147179412], [-111.40800382259998, 26.34719182810641], [-111.40790789424207, 26.347105943919495], [-111.4076688288884, 26.34710662428555], [-111.4075729008458, 26.347020739869645], [-111.40714258350033, 26.34702196323169], [-111.40704665591198, 26.34693607845711], [-111.4068630443101, 26.346936599934565], [-111.40637769435406, 26.347333434980083], [-111.4063791994555, 26.347764217268285], [-111.4062838737092, 26.347850644904188], [-111.40618945048158, 26.348195541837608], [-111.4060550356304, 26.348317408973983], [-111.40591159489213, 26.348317815403973], [-111.40581626834604, 26.348404242731416], [-111.40547393250614, 26.348405211911857], [-111.40537800497849, 26.348319326035593], [-111.40509112347007, 26.348320137396502], [-111.40500298680647, 26.348277307894417], [-111.404089246984, 26.34923536798449], [-111.40399466652144, 26.349537185264033], [-111.40385197218238, 26.349752980797255], [-111.40385388995473, 26.350305248023844], [-111.4033853087286, 26.35030656805741], [-111.40338503677029, 26.35022816133019], [-111.40319273381742, 26.349927152062936], [-111.40318780859009, 26.34850643619774], [-111.40327483430525, 26.34850619128635], [-111.40337016284649, 26.348419765628204], [-111.4036092310267, 26.348419092403017], [-111.40370455924581, 26.34833266652502], [-111.40380018644335, 26.34833239706046], [-111.4038955144486, 26.348245971056834], [-111.40399114157262, 26.348245701465647], [-111.40432523748069, 26.348072444449468], [-111.40442533124676, 26.34798169678125], [-111.40433308729118, 26.347856163074407], [-111.40433246434507, 26.347676966305393], [-111.40442749184423, 26.34750438347203], [-111.40551993402167, 26.346513928594746]], [[-111.40985429605705, 26.34314576884868], [-111.40995818922262, 26.3430515645199], [-111.40995760625938, 26.34288613538653], [-111.40985305156956, 26.342792527299828], [-111.40952601271057, 26.342793462265814], [-111.409422119418, 26.342887666286046], [-111.40942270161982, 26.343053095430488], [-111.40952725620511, 26.3431467038291], [-111.40985429605705, 26.34314576884868]]]}}]}
