{"type": "FeatureCollection", "features": [{"type": "Feature", "properties": {"uga": "2", "politica": "aprovechamiento-sustentable", "procedencia": {"metodo": "digitalizacion-semiautomatica", "fuente": "Mapa de ubicación de la ficha UGA 2, Boletín Oficial No. 12 (12-mar-2014), p. 148 del PDF", "datum": "UTM 12N con desplazamiento de +30 m E y +170 m N ajustado contra la costa (INC-011)", "correccion_borde_px": 1.4, "precision_aprox_m": 78.0, "escala_por_superficie": false, "revisada_en_qgis": false}, "control": {"residuo_georreferencia_m": 54.3, "area_digitalizada_ha": 3762.33, "escala_por_superficie": false, "superficie_ficha_ha": 3784.15, "diferencia_area_pct": -0.6}, "georreferencia": {"a_x": 38.75969008147547, "b_x": 422054.2635168246, "a_y": -39.03783287442058, "b_y": 2946720.61096752, "factor_render": 1, "pagina_mapa": 148, "ficha_mapa": "2"}}, "geometry": {"type": "Polygon", "coordinates": [[[-111.76603316297653, 26.546259946981998], [-111.76640109296824, 26.547341029561146], [-111.76298639168287, 26.54976213118386], [-111.76136557010513, 26.54977079912133], [-111.75941315098541, 26.548723834408367], [-111.75746771386304, 26.548734187068494], [-111.75707631179567, 26.54838380605574], [-111.75558442448697, 26.548391722986104], [-111.75497221865683, 26.54895285380591], [-111.75438512641422, 26.548427271374486], [-111.75208724244759, 26.549115141888528], [-111.7496882468482, 26.54912778114977], [-111.74812731392117, 26.5484310611795], [-111.74624202533396, 26.546743080239413], [-111.74467203976484, 26.544636523084087], [-111.74466521134245, 26.543579174332997], [-111.74388252138465, 26.54287833795696], [-111.743877974236, 26.542173438506573], [-111.74224108452012, 26.54070768251211], [-111.74067804626287, 26.539658426708332], [-111.73818045165905, 26.539524345967653], [-111.73779364815735, 26.539878810368222], [-111.73740233523199, 26.539528373004952], [-111.73530017276512, 26.54039119098354], [-111.73105177642286, 26.545347511548087], [-111.73027361945839, 26.54535150048567], [-111.7294999221871, 26.54606038659654], [-111.72600041099832, 26.546430716645617], [-111.72445072437397, 26.547495988552292], [-111.72211841362902, 26.54786028659161], [-111.72095776258492, 26.54892354950687], [-111.71995628828229, 26.549486501145502], [-111.71956499497882, 26.549136014834666], [-111.71397594052237, 26.55248332219523], [-111.71313327099607, 26.552487541466355], [-111.7110179996575, 26.551293686945886], [-111.71046965821897, 26.551795920087937], [-111.70923789099938, 26.551802055481833], [-111.70829213146874, 26.550954797583042], [-111.70713131963817, 26.55201795062894], [-111.70572949711966, 26.55076208345786], [-111.70501575989474, 26.550765616020247], [-111.70262115961474, 26.552604199067947], [-111.70226454203649, 26.55328520309223], [-111.70285142733651, 26.55381100424152], [-111.70108617647935, 26.55613638896044], [-111.70109046467527, 26.55684129369723], [-111.69457804462222, 26.562095690806867], [-111.69069722647582, 26.563876872598257], [-111.68720160561055, 26.563893776706486], [-111.68719778542733, 26.563253310707363], [-111.68641530052918, 26.562552156281278], [-111.68640480210576, 26.56078989023084], [-111.68476835668957, 26.559323468550712], [-111.68203819095032, 26.558279172246888], [-111.67734174446885, 26.553719542726306], [-111.67390832636121, 26.55444074907305], [-111.66964035801436, 26.556575654758166], [-111.66886211502106, 26.556579309872703], [-111.6680879583052, 26.557287870302634], [-111.66692058617501, 26.55729333879914], [-111.6661464125807, 26.558001888924963], [-111.6653681594011, 26.558005525138505], [-111.66459397138206, 26.558714067028166], [-111.66342658397448, 26.55871950717138], [-111.66226324741369, 26.559429847940553], [-111.66070672039324, 26.559437074060295], [-111.65837595628913, 26.560152792033676], [-111.6576017102744, 26.560861296787962], [-111.65643429946498, 26.56086668004889], [-111.65371833830397, 26.562289026105866], [-111.6525509121211, 26.562294377815448], [-111.65139610976112, 26.56335100591417], [-111.65138455254538, 26.561306762834043], [-111.65060229453194, 26.560605407180784], [-111.65059433457178, 26.559195583663946], [-111.64981209589439, 26.558494223113975], [-111.64980017177254, 26.556379486774194], [-111.64738007221142, 26.553858802382774], [-111.64582361579451, 26.5538658645562], [-111.64511294569459, 26.553228594834454], [-111.64354272281757, 26.55076843476089], [-111.64353878763725, 26.550063521079267], [-111.64197256775614, 26.548308255324304], [-111.64193528459194, 26.54161156813215], [-111.64069069731187, 26.540495325821944], [-111.6364801209572, 26.54016172067182], [-111.63607751770462, 26.537709333829245], [-111.6380055580248, 26.53457987897781], [-111.63676108540646, 26.53346359920863], [-111.63488504568875, 26.533119498150803], [-111.63487570242262, 26.531421647556392], [-111.6336312942306, 26.530305338821087], [-111.63253531585977, 26.53031020467701], [-111.63211932043443, 26.525390589591414], [-111.63514518402194, 26.522621849453298], [-111.63747729432501, 26.522258977449482], [-111.63870923462099, 26.521131621119935], [-111.63870533404139, 26.520426703839405], [-111.64102173005874, 26.51724410583294], [-111.6417883143392, 26.515190296778805], [-111.64521137265389, 26.515174855336856], [-111.64523268099916, 26.51898745634175], [-111.64601461904334, 26.519688851296422], [-111.64642364434263, 26.523263028599175], [-111.64564956591474, 26.523971468871803], [-111.64548818668918, 26.524827686525903], [-111.64606028389358, 26.527846743891114], [-111.64490276691058, 26.529562956700058], [-111.64614727378859, 26.530679165346445], [-111.64763228854878, 26.530672428410288], [-111.6476358836826, 26.531312902511836], [-111.64927146088718, 26.532779772548572], [-111.65270440498547, 26.532059166644032], [-111.65393629600122, 26.530931681114325], [-111.65429113712166, 26.529898334676854], [-111.65353756873374, 26.52922253781569], [-111.6535315799771, 26.528165166167696], [-111.65291655904731, 26.52761360368442], [-111.6538415655647, 26.526766961938122], [-111.65617369362091, 26.526403783938463], [-111.6577217411033, 26.52498678731101], [-111.6601202822722, 26.52497570531687], [-111.6604789245255, 26.52529731515267], [-111.66206762442452, 26.524197303409373], [-111.66283957730383, 26.52313631906534], [-111.66281528979829, 26.5189068358373], [-111.66513707432695, 26.516781229513814], [-111.66668081280142, 26.51465922426746], [-111.66667674255744, 26.513954310284603], [-111.66930994211488, 26.511897674690147], [-111.66973121480581, 26.51746466599939], [-111.67090637668946, 26.518869008072556], [-111.6709189665003, 26.521035105229664], [-111.66898621571049, 26.523158979843338], [-111.66783724800526, 26.52628519803161], [-111.67064417336768, 26.52845126218721], [-111.67181125268176, 26.528445768704575], [-111.67298244297345, 26.529145177312444], [-111.67603022203093, 26.52913076097146], [-111.67664271748853, 26.52856996207085], [-111.67703381191276, 26.528920571127486], [-111.67997671242566, 26.526580297668797], [-111.67994794316598, 26.521697278682154], [-111.67831007342575, 26.519878306763538], [-111.67760320095566, 26.519881666641716], [-111.6775953804104, 26.518549365455495], [-111.67868916504521, 26.518191699500495], [-111.68147862639785, 26.51853086538324], [-111.68297143407788, 26.519869145200893], [-111.68336460380804, 26.520572192999662], [-111.68337921113039, 26.52303938083989], [-111.68501720542537, 26.524858291331192], [-111.68728683770279, 26.524847371563325], [-111.68806066096731, 26.52413871012063], [-111.69000571323188, 26.524129312866222], [-111.69155753046977, 26.52341686656276], [-111.69428058432734, 26.523403636548213], [-111.69970959286614, 26.5205573871397], [-111.70521999800245, 26.52053024789869], [-111.70678461827846, 26.52193236069432], [-111.70826305074915, 26.520873684365306], [-111.708273432057, 26.522565461366792], [-111.71022929392977, 26.52431805552584], [-111.71062481398076, 26.525373477341564], [-111.7106338118317, 26.526834648159188], [-111.7100817235132, 26.52734041425162], [-111.71188729177938, 26.529308725252267], [-111.7147583895728, 26.52697415341207], [-111.71537759842411, 26.5275289397261], [-111.71647353164028, 26.527523437711245], [-111.71647750836024, 26.528163902895088], [-111.71850292266677, 26.52962800797831], [-111.72076822906115, 26.528911649014383], [-111.72158440905577, 26.52816383246975], [-111.72121508015849, 26.526781527120228], [-111.72043264597589, 26.526080555072937], [-111.72042164481032, 26.52431829290601], [-111.71941512846963, 26.523416534735617], [-111.72041032409302, 26.522504672144493], [-111.72117511561311, 26.52038602481802], [-111.72265155198292, 26.519033139143627], [-111.72497881617005, 26.519021329219683], [-111.72656543097798, 26.52388330219626], [-111.72813257496412, 26.525637625764272], [-111.7281370226607, 26.526342529348927], [-111.72938228154338, 26.52745799684746], [-111.73560656837267, 26.52742602528689], [-111.73795194344083, 26.52917622043784], [-111.73989931951161, 26.529518591713323], [-111.74181882666919, 26.530536810178205], [-111.74372511206845, 26.529498689132247], [-111.74683062344258, 26.529482458128545], [-111.74723749078572, 26.532235580824313], [-111.74965697530001, 26.534402092909957], [-111.75075296537439, 26.534396326086448], [-111.75059456468935, 26.535592013831298], [-111.75158353688369, 26.536477524064583], [-111.7531645903802, 26.534319165392407], [-111.75315572150599, 26.532960725425983], [-111.75237305492286, 26.53225993419862], [-111.7523589297899, 26.530093878865415], [-111.75313237878207, 26.52938487232452], [-111.75311857635558, 26.527270174238872], [-111.75389200209939, 26.526561163801844], [-111.75388509458591, 26.525503814604715], [-111.75575020742822, 26.524148537041484], [-111.7576908667038, 26.524490701649366], [-111.75769507162752, 26.525131161152515], [-111.75847772026229, 26.525831924204287], [-111.7584893032937, 26.527594170824603], [-111.75927197373954, 26.52829492881505], [-111.75931174392925, 26.53433791997077], [-111.75853830139805, 26.535046959443797], [-111.75855452575708, 26.537514101365534], [-111.75780923461241, 26.538197307497985], [-111.75941776595074, 26.539637353992124], [-111.76088841932948, 26.53962951208695], [-111.75996411518372, 26.54047683293063], [-111.76013361404775, 26.54097894086445], [-111.76252110199222, 26.54311620032399], [-111.76371839299357, 26.542786525392838], [-111.7663866950192, 26.54517498586999], [-111.76603316297653, 26.546259946981998]], [[-111.72647598901803, 26.536069412255383], [-111.72726914817768, 26.536779860302836], [-111.72766647371914, 26.53641580381331], [-111.72687331472878, 26.535705357939317], [-111.72647598901803, 26.536069412255383]], [[-111.7251790909633, 26.536213484053526], [-111.72516062443768, 26.535573094268223], [-111.72433898017151, 26.53483709892927], [-111.72313979433237, 26.535935821260324], [-111.72314389153814, 26.53658936658582], [-111.72396554111822, 26.53732536853374], [-111.7251790909633, 26.536213484053526]], [[-111.73834226653412, 26.534412807146477], [-111.73682039278494, 26.534743946844358], [-111.73581087004543, 26.53566907824717], [-111.73660408255837, 26.53637947326353], [-111.7373776717458, 26.535670549892266], [-111.73776897120665, 26.53602098778584], [-111.73893983493883, 26.534947971118207], [-111.73834226653412, 26.534412807146477]], [[-111.73466485248119, 26.535674988182077], [-111.73426294319705, 26.535315029779845], [-111.73347883817824, 26.53603355709085], [-111.7338807476333, 26.536393517666482], [-111.73466485248119, 26.535674988182077]], [[-111.74571579430206, 26.53653753185146], [-111.74672524319692, 26.535612331929155], [-111.74593197520707, 26.53490199434892], [-111.74336965263495, 26.53470995045014], [-111.74223040595179, 26.534040157177685], [-111.74141818029672, 26.534784553533118], [-111.74142464623164, 26.535790546551496], [-111.74205074639032, 26.53635122842582], [-111.742598875439, 26.535848877063245], [-111.74344141785346, 26.53584448611397], [-111.74399598151962, 26.536341090565514], [-111.74499987505675, 26.53618881287069], [-111.74571579430206, 26.53653753185146]], [[-111.75435193735906, 26.541740255283216], [-111.75352616237372, 26.5410009385215], [-111.75242343128859, 26.541006763245086], [-111.75157918787144, 26.541780581007664], [-111.75159033880088, 26.54349146885091], [-111.75244463465617, 26.544256325633583], [-111.75315832403585, 26.544252556410548], [-111.75400257427229, 26.543478729401045], [-111.75435193735906, 26.541740255283216]], [[-111.75646751584303, 26.538028202650974], [-111.75450241358496, 26.536619204575267], [-111.7541051740111, 26.536983334081793], [-111.75488788367458, 26.537684114431944], [-111.75411439141732, 26.538393130634596], [-111.75513583246452, 26.539307638787044], [-111.75646751584303, 26.538028202650974]]]}}]}
