{"type": "FeatureCollection", "features": [{"type": "Feature", "properties": {"uga": "20", "politica": "conservacion", "procedencia": {"metodo": "digitalizacion-semiautomatica", "fuente": "Mapa de ubicación de la ficha UGA 20, Boletín Oficial No. 12 (12-mar-2014), p. 215 del PDF", "datum": "UTM 12N con desplazamiento de +30 m E y +165 m N ajustado contra la costa (INC-011)", "correccion_borde_px": 1.4, "precision_aprox_m": 34.0, "escala_por_superficie": false, "revisada_en_qgis": false}, "control": {"residuo_georreferencia_m": 8.6, "area_digitalizada_ha": 534.83, "escala_por_superficie": false, "superficie_ficha_ha": 541.92, "diferencia_area_pct": -1.3}}, "geometry": {"type": "Polygon", "coordinates": [[[-111.75681071753085, 26.28668287017997], [-111.75697223590477, 26.28716004682159], [-111.75594624269054, 26.288251919043564], [-111.75595127345795, 26.289027938217032], [-111.75560993976323, 26.289495363291902], [-111.75561378185263, 26.290088257569], [-111.7553004022884, 26.290089907371843], [-111.7549580580308, 26.29040212712339], [-111.75409717042973, 26.290406653771612], [-111.753754821966, 26.290718870728586], [-111.75272175372733, 26.29072429348542], [-111.75237940058291, 26.291036507246773], [-111.75100197201114, 26.2910437228155], [-111.7498027101575, 26.291981249547966], [-111.74894180987651, 26.291985745519167], [-111.74859944275558, 26.29229795050471], [-111.74443959306271, 26.292319592407033], [-111.74392107018576, 26.292011862962916], [-111.74136587867632, 26.29202508738917], [-111.74033673807106, 26.292651238442275], [-111.73982019384451, 26.29265390263386], [-111.73876122415719, 26.29346332777015], [-111.73876319114665, 26.293773736444045], [-111.73808035427959, 26.29470850695866], [-111.73808231956372, 26.29501891562643], [-111.73739947011832, 26.29595368300965], [-111.73740241549815, 26.296419295996962], [-111.73706098540657, 26.296886678516902], [-111.73606602036502, 26.297481582122618], [-111.73605445607413, 26.295650170582565], [-111.734984316625, 26.294696477786367], [-111.73432407045524, 26.29485506784538], [-111.73156813730748, 26.294713936478544], [-111.72934041577587, 26.296432582784572], [-111.7281075885241, 26.29643884442955], [-111.72744611503883, 26.29584928344862], [-111.72751498329306, 26.295293299581314], [-111.72734182913415, 26.29513896784823], [-111.7277825818091, 26.29458109815524], [-111.72777386185265, 26.29318425573196], [-111.72811628857846, 26.292872099245912], [-111.72811144222172, 26.292096075584173], [-111.72826897417666, 26.291952467580284], [-111.72776045354891, 26.29103619060317], [-111.72775657865473, 26.290415371472513], [-111.72671480134538, 26.28902376345305], [-111.7267078761465, 26.287912527955932], [-111.72704932302753, 26.28744516917354], [-111.72703883407542, 26.285762716740216], [-111.72600000655378, 26.28483671649664], [-111.7259855154433, 26.282508641554276], [-111.72252390849681, 26.279577118849996], [-111.72251333483135, 26.277869861400678], [-111.72181797192304, 26.27678688895839], [-111.72077830783867, 26.275705641910413], [-111.72059944089253, 26.274620068640065], [-111.71973100436483, 26.273382743411418], [-111.71955406530796, 26.272607579131936], [-111.71730272454138, 26.270445900664196], [-111.71729303293706, 26.268869043152574], [-111.71763446431652, 26.26840170590993], [-111.71778862843121, 26.265476739815945], [-111.71657601102022, 26.264241112421423], [-111.71595350246872, 26.26322294795121], [-111.71612468928703, 26.263066883843535], [-111.7158788833964, 26.26284769478886], [-111.71584272267557, 26.256949872223206], [-111.71445808840188, 26.25571508100487], [-111.71445523976034, 26.255249463004503], [-111.71393411394668, 26.254476000491284], [-111.71391893396424, 26.251992703424435], [-111.7120822076461, 26.249428439609375], [-111.71225337999822, 26.249272380127604], [-111.71165202828259, 26.247192413966626], [-111.71164824644292, 26.24657158884269], [-111.71130023748431, 26.245952468337176], [-111.71129740264955, 26.24548684938328], [-111.71050198833275, 26.244314301262396], [-111.71077241499174, 26.24406774592922], [-111.71093413786367, 26.242359624158137], [-111.71161784512341, 26.241580184233687], [-111.71134364658455, 26.241205915459766], [-111.71161406439825, 26.24095935862017], [-111.71160839354164, 26.240028120098337], [-111.71400174095558, 26.237377658978883], [-111.71399889642724, 26.236912039743572], [-111.71424100068957, 26.23653521002471], [-111.71406605634608, 26.236070446007492], [-111.71433645667655, 26.235823884231483], [-111.71432791988327, 26.234427026234282], [-111.71466547045792, 26.233338869786614], [-111.71465408420806, 26.23147639188603], [-111.71499542080527, 26.23100906053606], [-111.71498782712185, 26.229767408343566], [-111.7158416232529, 26.228676679832542], [-111.7163483781415, 26.227122042445977], [-111.71751361965826, 26.225747251469098], [-111.71891683296154, 26.225585029172297], [-111.71957881243036, 26.226329850786453], [-111.71959042718787, 26.2282171296789], [-111.71941929498149, 26.22837319751644], [-111.7193559965456, 26.22983561933738], [-111.71952904134817, 26.229989964323586], [-111.71925866540212, 26.230236535563368], [-111.71926725953497, 26.231633392864524], [-111.7189307111374, 26.232876765728403], [-111.71858938524667, 26.23334410609244], [-111.71859797255634, 26.23474096299524], [-111.71791435155289, 26.23552043508593], [-111.71791911817755, 26.236296466612554], [-111.71740758405781, 26.23707507651369], [-111.71724024617262, 26.237851967062213], [-111.71553538594668, 26.24049905413414], [-111.71519862268381, 26.241717616434098], [-111.71554568843864, 26.2421815214443], [-111.71573586042554, 26.24512958227746], [-111.71678376975566, 26.247607731946346], [-111.71747795262631, 26.24853553164646], [-111.7174798591845, 26.248845943734707], [-111.71817405510738, 26.24977373964609], [-111.71852402146399, 26.250703254123895], [-111.71921728125774, 26.25147583842831], [-111.71974129701077, 26.252714899302564], [-111.72251447222796, 26.255805188789072], [-111.72269044200299, 26.256425145643536], [-111.72321067278509, 26.257043369129452], [-111.72321836301187, 26.258285014361594], [-111.72356743463413, 26.259059308482332], [-111.72356951195988, 26.25939452124032], [-111.72322813012835, 26.259861872138465], [-111.72323197574813, 26.26048269453559], [-111.72223380260097, 26.261080637444643], [-111.72117594723278, 26.26204513855315], [-111.72100653269094, 26.262486818246273], [-111.72117962909721, 26.262641159499964], [-111.7211882584644, 26.264038009908933], [-111.7214617375986, 26.264281852916294], [-111.72119209394185, 26.264658832224846], [-111.72154117238966, 26.26543313047276], [-111.72154692882077, 26.26636436367283], [-111.72189601499022, 26.267138660720935], [-111.72189985475455, 26.267759482671757], [-111.72224702676128, 26.2682233676661], [-111.72225086857561, 26.268844189474976], [-111.72294522479584, 26.269771956508475], [-111.72294810912632, 26.270237572697912], [-111.72346936685967, 26.271010998120612], [-111.72348668738995, 26.273804693993636], [-111.72559526345535, 26.275684495348578], [-111.72680519585704, 26.2764544247951], [-111.72971820910364, 26.279205503192053], [-111.73007030364872, 26.280445391850826], [-111.73146026579067, 26.282456042932424], [-111.73146221240097, 26.28276645259218], [-111.7321577007257, 26.283849374795924], [-111.73251568532646, 26.286020484212862], [-111.73324040116137, 26.28682075377415], [-111.73407029262617, 26.286816511236538], [-111.73407402475878, 26.287409408645352], [-111.73583474826103, 26.288669990167218], [-111.73635127530459, 26.288667340693458], [-111.7368697638114, 26.288975098375033], [-111.73804748295622, 26.288969046125104], [-111.73890639613955, 26.288654207111072], [-111.74321078239484, 26.288631979249832], [-111.7440696783674, 26.288317109664742], [-111.74492658668679, 26.287691826534896], [-111.74527093445941, 26.28769003867173], [-111.7469847195613, 26.286439453455625], [-111.74784557928311, 26.286434970100892], [-111.7481879316699, 26.286122766987596], [-111.75111484514164, 26.286107478149695], [-111.75145718763079, 26.285795267432018], [-111.75421191998083, 26.28578081700675], [-111.75455425304582, 26.28546859908666], [-111.75647563754293, 26.285458484329848], [-111.7569640155881, 26.28589361481149], [-111.75681071753085, 26.28668287017997]], [[-111.72888721911559, 26.28342831392697], [-111.72943161012623, 26.282931996667028], [-111.72942691223031, 26.28218077358821], [-111.72904949227605, 26.28184434936146], [-111.72804400862563, 26.281849453082536], [-111.72749961650901, 26.28234576517108], [-111.72750333396982, 26.282941783597174], [-111.72805389004039, 26.28343254354684], [-111.72888721911559, 26.28342831392697]]]}}]}
