{"type": "FeatureCollection", "features": [{"type": "Feature", "properties": {"uga": "21", "politica": "aprovechamiento-sustentable", "procedencia": {"metodo": "digitalizacion-semiautomatica", "fuente": "Mapa de ubicación de la ficha UGA 21, Boletín Oficial No. 12 (12-mar-2014), p. 217 del PDF", "datum": "UTM 12N con desplazamiento de +30 m E y +165 m N ajustado contra la costa (INC-011)", "correccion_borde_px": 1.4, "precision_aprox_m": 34.0, "escala_por_superficie": false, "revisada_en_qgis": false}, "control": {"residuo_georreferencia_m": 17.0, "area_digitalizada_ha": 212.52, "escala_por_superficie": false, "superficie_ficha_ha": 216.62, "diferencia_area_pct": -1.9}}, "geometry": {"type": "Polygon", "coordinates": [[[-111.39895920843867, 26.26268557145039], [-111.3974356057819, 26.262689796056996], [-111.39741999479999, 26.258103506269165], [-111.39775827557335, 26.257796609207613], [-111.39775523238315, 26.25690318160763], [-111.39741487167896, 26.256598163063163], [-111.39741018634828, 26.25522135275521], [-111.39570532008811, 26.25277837278969], [-111.39553152193685, 26.25155500773195], [-111.3941712082923, 26.25064086375617], [-111.39365916285725, 26.249724384658755], [-111.39328822156614, 26.249391918507744], [-111.39294892373012, 26.249392846974896], [-111.39229837140559, 26.24865724314271], [-111.3922973439552, 26.248351284791994], [-111.39127433566775, 26.246824268531363], [-111.39127279864513, 26.246365330826947], [-111.3909324857445, 26.246060295937262], [-111.39093146198827, 26.24575433742586], [-111.39059115176946, 26.245449301671727], [-111.39058961752328, 26.244990363841964], [-111.38997997568815, 26.24429138377932], [-111.39014910644553, 26.24413794392868], [-111.38990747363594, 26.243921351805106], [-111.38990637108569, 26.243590947379083], [-111.3903833332184, 26.24315823122566], [-111.39343015524719, 26.24116117177494], [-111.39393855040396, 26.241006798170506], [-111.39512290390994, 26.240085662057254], [-111.39548928201701, 26.240084654158153], [-111.39718875503877, 26.24099785087525], [-111.39769766495853, 26.24099644327061], [-111.40007676741922, 26.242213684043932], [-111.40109564765893, 26.242516804739907], [-111.40191332361833, 26.24251451990892], [-111.40208602614027, 26.243404399186534], [-111.40481192675962, 26.246762316315344], [-111.40482146874305, 26.249515937408276], [-111.40526104559557, 26.25006235243795], [-111.4050919264709, 26.25021580982327], [-111.40567555707567, 26.251196312375296], [-111.40550917724745, 26.25213911024777], [-111.40517093327853, 26.252446025379474], [-111.40382322914962, 26.25520346636053], [-111.4038306351946, 26.257345169491455], [-111.40342343332269, 26.258328462486283], [-111.40359362375283, 26.258480964587726], [-111.40332640989826, 26.25872340854402], [-111.40332842848747, 26.259307802806934], [-111.40301962448126, 26.259308669674255], [-111.40265092598722, 26.259643185250493], [-111.40292131072785, 26.260318614956184], [-111.40214878485148, 26.26163333487398], [-111.40167179236752, 26.26206608934739], [-111.40133245805266, 26.262067038038158], [-111.40099417457894, 26.26237394337068], [-111.39929749822117, 26.262378670852833], [-111.39895920843867, 26.26268557145039]], [[-111.40111118576735, 26.249997509081073], [-111.40085592386794, 26.249768750898003], [-111.401109609884, 26.24953857212661], [-111.40058207183237, 26.249065804634398], [-111.39976093978619, 26.249068091904917], [-111.39922313776198, 26.249556049895634], [-111.39922566835622, 26.250296499242452], [-111.39976680337456, 26.250781456780143], [-111.4004182966838, 26.250779642314896], [-111.40111118576735, 26.249997509081073]]]}}]}
