{"type": "FeatureCollection", "features": [{"type": "Feature", "properties": {"uga": "22a", "politica": "preservacion", "procedencia": {"metodo": "digitalizacion-semiautomatica", "fuente": "Mapa de ubicación de la ficha UGA 22a, Boletín Oficial No. 12 (12-mar-2014), p. 220 del PDF", "datum": "UTM 12N con desplazamiento de +30 m E y +165 m N ajustado contra la costa (INC-011)", "correccion_borde_px": 1.4, "precision_aprox_m": 49.0, "escala_por_superficie": false, "revisada_en_qgis": false}, "control": {"residuo_georreferencia_m": 44.8, "area_digitalizada_ha": 2439.36, "escala_por_superficie": false, "superficie_ficha_ha": 2445.81, "diferencia_area_pct": -0.3}}, "geometry": {"type": "Polygon", "coordinates": [[[-111.71432942685344, 26.214027816079902], [-111.71394000946408, 26.21367821842811], [-111.71345055764925, 26.213680647755073], [-111.71197409123316, 26.21235511776954], [-111.70928213476861, 26.212368421030334], [-111.70859127365182, 26.212149685561954], [-111.70809535136928, 26.211081954825964], [-111.70661763638637, 26.2095342324399], [-111.70661495365097, 26.209089962369777], [-111.7046029599156, 26.207504308264344], [-111.70352003746461, 26.207194716914206], [-111.70244090058979, 26.207514884620686], [-111.70097261864082, 26.207522048626622], [-111.70048585047525, 26.207968704051243], [-111.69682306519194, 26.209319349488453], [-111.69536135899159, 26.210437134364437], [-111.69360795429618, 26.210445602136737], [-111.69090947318782, 26.209347881905792], [-111.68873882835366, 26.207177406314717], [-111.68823764427222, 26.20518052530208], [-111.6872086992931, 26.204256341937654], [-111.68573915202906, 26.20404121345069], [-111.68455530762918, 26.20319881715024], [-111.68406070383354, 26.20231260038489], [-111.68380561911442, 26.20053667308934], [-111.6822847645836, 26.199170505049896], [-111.68105998605809, 26.198954166353065], [-111.68061289479851, 26.198552531183033], [-111.68011446984985, 26.196999889357258], [-111.67859370439433, 26.195633679875485], [-111.67741189802686, 26.19586139241785], [-111.67668039391121, 26.196309120813925], [-111.67371629649851, 26.199251424765286], [-111.67298986499716, 26.200587682425645], [-111.6710855915746, 26.20211104518171], [-111.67006514317767, 26.201893659632844], [-111.66863292238581, 26.200385857901384], [-111.66838441708795, 26.199720583810787], [-111.66837408448701, 26.197910731441052], [-111.67007296673188, 26.1954592544666], [-111.6700666107895, 26.194348568517462], [-111.67075244092679, 26.193719477505628], [-111.67173118643154, 26.19371491107178], [-111.67274924177038, 26.192781047593556], [-111.67309385369828, 26.192018312971356], [-111.67284789466603, 26.19179732029725], [-111.67347307485961, 26.191000516300157], [-111.67347075312468, 26.190596775127283], [-111.6739154661167, 26.19059469287129], [-111.67663852084715, 26.188319947722988], [-111.67686650829626, 26.185431014306975], [-111.67710989306835, 26.185207726098525], [-111.67709833771661, 26.183208491316385], [-111.67807056572309, 26.182093197418794], [-111.67831031783193, 26.181244028740238], [-111.67875499487465, 26.18124193222014], [-111.67972847964903, 26.180348764656607], [-111.68046245365404, 26.180345296299695], [-111.6829038539684, 26.179445159828017], [-111.68509796445234, 26.17810187331092], [-111.69414452275578, 26.16957655722298], [-111.69657503076796, 26.166899099550953], [-111.69656843175791, 26.165788415348107], [-111.69798386210599, 26.164489235425403], [-111.69896103369669, 26.1642623518681], [-111.69997861716888, 26.163328301396433], [-111.70046255214469, 26.162437375112685], [-111.70045459075217, 26.161104554329942], [-111.70093851331447, 26.160213626432633], [-111.70093187492446, 26.15910294223462], [-111.70141844297777, 26.158656286437356], [-111.7014157859395, 26.158212012728562], [-111.70238491653697, 26.156652285824197], [-111.70237560518406, 26.155097327612406], [-111.70525578067354, 26.153346639849016], [-111.70745584364629, 26.153113706614995], [-111.70920168516672, 26.151287439938415], [-111.7091976567179, 26.150621029802288], [-111.70968415822007, 26.150174346918156], [-111.70968171605256, 26.14977060654905], [-111.71207761873987, 26.148870208870772], [-111.71285173296617, 26.1488663799494], [-111.71383550127183, 26.149750080980308], [-111.71428005552391, 26.149747877158028], [-111.71452845958731, 26.15037254045676], [-111.71405299183199, 26.152629086059537], [-111.71283809867131, 26.153967962911246], [-111.71213166932309, 26.155510081440283], [-111.71486395642565, 26.157964273960594], [-111.71531282995078, 26.157962045021915], [-111.71969126346951, 26.153941658486048], [-111.72046540986666, 26.153937787954572], [-111.72091246059989, 26.154339302484853], [-111.72091928677948, 26.15544998259037], [-111.72141259324722, 26.156113940799617], [-111.7214194246964, 26.157224620508856], [-111.72191274167372, 26.15788857662746], [-111.72192094578529, 26.15922139178215], [-111.72241427424775, 26.159885345765083], [-111.72242111631878, 26.160996024646884], [-111.72291445529332, 26.161659976538505], [-111.72292267215337, 26.162992790700006], [-111.7234146521245, 26.163434604823696], [-111.72342150474118, 26.16454528291225], [-111.72391623628954, 26.16543136617246], [-111.72392446590274, 26.166764179340287], [-111.72441783837039, 26.167428124866472], [-111.72442470169665, 26.168538802092144], [-111.72491808468135, 26.16920274552567], [-111.72492495328373, 26.170313422354354], [-111.72541834678667, 26.170977363694913], [-111.7254265954901, 26.172310175392063], [-111.7259186246884, 26.172751979373757], [-111.72592550384573, 26.17386265540817], [-111.72631267015066, 26.17421029352558], [-111.7260694035561, 26.174433662899354], [-111.72642167211491, 26.1749708628374], [-111.72642855671184, 26.1760815384053], [-111.72692198372766, 26.176745473375238], [-111.72692887360445, 26.17785614854573], [-111.7274223111435, 26.17852008142136], [-111.72742920630104, 26.179630756194353], [-111.72806381178638, 26.180421421843693], [-111.72782053601676, 26.180644794187053], [-111.7279323150922, 26.181849631052422], [-111.72842577563307, 26.18251355964861], [-111.72893582833034, 26.185843102924327], [-111.72942931187879, 26.186507027239628], [-111.72943899524962, 26.188061969452004], [-111.72993249128037, 26.18872589158135], [-111.72994515543301, 26.19075785690153], [-111.72945856838764, 26.191204607667796], [-111.7294627193316, 26.191871011075214], [-111.7284936744473, 26.193430911291372], [-111.72825728074153, 26.194764956744216], [-111.72317651048235, 26.204120526497174], [-111.7231792554918, 26.204564795264897], [-111.72269258600195, 26.205011524035573], [-111.72269532928219, 26.205455792795817], [-111.72220865428503, 26.205902519989728], [-111.7222113958359, 26.206346788742454], [-111.71858302858281, 26.213251342161247], [-111.71814071192622, 26.213657300308725], [-111.71471455166905, 26.213674370689812], [-111.71432942685344, 26.214027816079902]], [[-111.70422892367853, 26.186006670907073], [-111.70500331904852, 26.18529591773175], [-111.70499816872751, 26.184440129275977], [-111.7042152793972, 26.183737001040033], [-111.70156433072721, 26.183749949042134], [-111.70103326022027, 26.184237356326598], [-111.70103838153159, 26.185093145536346], [-111.70157526280899, 26.18557534819432], [-111.70206459839636, 26.185572961658533], [-111.70255659848067, 26.186014845370693], [-111.70422892367853, 26.186006670907073]]]}}]}
