{"type": "FeatureCollection", "features": [{"type": "Feature", "properties": {"uga": "22b", "politica": "conservacion", "procedencia": {"metodo": "digitalizacion-semiautomatica", "fuente": "Mapa de ubicación de la ficha UGA 22b, Boletín Oficial No. 12 (12-mar-2014), p. 223 del PDF", "datum": "UTM 12N con desplazamiento de +30 m E y +165 m N ajustado contra la costa (INC-011)", "correccion_borde_px": 1.4, "precision_aprox_m": 49.0, "escala_por_superficie": false, "revisada_en_qgis": false}, "control": {"residuo_georreferencia_m": 32.6, "area_digitalizada_ha": 1307.19, "escala_por_superficie": false, "superficie_ficha_ha": 1312.75, "diferencia_area_pct": -0.4}}, "geometry": {"type": "Polygon", "coordinates": [[[-111.74082656121828, 26.268835635844464], [-111.73882204867657, 26.26884596446006], [-111.73832775954745, 26.268406994162344], [-111.7378801040923, 26.268409295397603], [-111.73786337359925, 26.265762794392863], [-111.74002026369484, 26.26402502348275], [-111.7407574771793, 26.264021222445287], [-111.74124614935015, 26.263577187763733], [-111.74222769305032, 26.263351361323764], [-111.74373585233154, 26.26175888209579], [-111.74372764992007, 26.2604712750804], [-111.74220216602887, 26.259336003179808], [-111.74125777982854, 26.259340880601314], [-111.74087213612425, 26.259691310693036], [-111.74048207059325, 26.259344882220432], [-111.73777906186253, 26.259358793382866], [-111.7363212802651, 26.258942066396916], [-111.73560603323628, 26.25936994008816], [-111.73020000671761, 26.25939752803966], [-111.72981432886876, 26.259747929138157], [-111.72944366603627, 26.2594186767699], [-111.72872839004069, 26.259846516769777], [-111.72770694552172, 26.259851696126805], [-111.72696700730478, 26.25941392939376], [-111.72549263381119, 26.259421384885968], [-111.72514135412835, 26.259109328492794], [-111.72489699630182, 26.25933131921636], [-111.72450697828198, 26.25898484631293], [-111.72356790128319, 26.2589895805699], [-111.72355720194462, 26.257262957679302], [-111.722567473904, 26.256164153887696], [-111.72206920456954, 26.255062873014325], [-111.71959568188637, 26.25242619689453], [-111.71859924205262, 26.250223609478475], [-111.7176096211344, 26.24912476825248], [-111.71710736453622, 26.247361214637724], [-111.71611913547383, 26.246483112958995], [-111.71610966376356, 26.244937855468688], [-111.71561556151946, 26.24449880166356], [-111.71559100060006, 26.24048839145648], [-111.71656563751046, 26.239158986469928], [-111.71753483128343, 26.23694657005849], [-111.71802348315306, 26.23650261324448], [-111.71801670255255, 26.235398856856463], [-111.71899262832717, 26.234290187214814], [-111.71898176596952, 26.23252417674437], [-111.71946903553642, 26.231859463906048], [-111.71944322474926, 26.2276651873444], [-111.71993183130493, 26.22722122442625], [-111.7199293400451, 26.226816610274568], [-111.71943530212164, 26.226377567217135], [-111.71942692612929, 26.225016169295266], [-111.7208913416142, 26.223463524553775], [-111.72088589855943, 26.222580518412535], [-111.72137311713857, 26.221915799291516], [-111.72136358624186, 26.22037053830404], [-111.72233663137898, 26.218820343727174], [-111.722320501353, 26.21620821291206], [-111.72054881270793, 26.21485316964821], [-111.7200575415761, 26.214855630660903], [-111.71882393803531, 26.213978768251792], [-111.7183764890862, 26.213981004385868], [-111.7183724380045, 26.21332123971123], [-111.71934818143423, 26.212212568162858], [-111.71934410987339, 26.211550312305665], [-111.72129008818459, 26.208449942270946], [-111.72225758976587, 26.20601673977761], [-111.72420340161378, 26.20291633147737], [-111.72468642203505, 26.201589345419865], [-111.72517490187138, 26.201145365771602], [-111.72517079933105, 26.20048310974801], [-111.72614500399787, 26.199153641678958], [-111.72662798781218, 26.197826649198742], [-111.72760215434677, 26.19649717158417], [-111.72759803891749, 26.19583491548989], [-111.72857217827833, 26.194505431520522], [-111.72856805772399, 26.193843175385982], [-111.72954079467273, 26.192292933012027], [-111.72953144345003, 26.190791818881394], [-111.73096520319157, 26.192285703260467], [-111.73097622705185, 26.19405171891945], [-111.73147154667234, 26.194711478125694], [-111.73147844197368, 26.195815237466665], [-111.73197515218014, 26.196695746368803], [-111.73198343300943, 26.198020257042753], [-111.73247877558674, 26.19868001194508], [-111.73248568158853, 26.199783770428137], [-111.73287679574453, 26.2001313613128], [-111.73263257330062, 26.200353364095406], [-111.73298379913346, 26.20088502647854], [-111.73299071056718, 26.20198878449826], [-111.73338183372533, 26.202336373716307], [-111.73313760776954, 26.20255837736603], [-111.73348745941618, 26.202869286633867], [-111.73349299281332, 26.20375229271996], [-111.73388412345713, 26.204099880331196], [-111.73363989488337, 26.20432188483761], [-111.73399113760586, 26.2048535441209], [-111.73400082871483, 26.206398804098633], [-111.73449483370517, 26.206837798939134], [-111.73450591789044, 26.208603809627782], [-111.7349999342548, 26.209042802362216], [-111.73500825382091, 26.210367309863248], [-111.73550366725264, 26.211027051755465], [-111.73551338096922, 26.212572309881192], [-111.73600880686533, 26.21323204957383], [-111.73601852819591, 26.21477730704998], [-111.73651257677312, 26.21521629354005], [-111.7365195258592, 26.216320048484526], [-111.73701358293864, 26.21675903298124], [-111.73702192812884, 26.218083538460288], [-111.73751599467056, 26.2185225209253], [-111.73752434619709, 26.219847025929344], [-111.73801842220205, 26.220286006362365], [-111.73802678006601, 26.22161051089128], [-111.73852086553524, 26.22204948929199], [-111.73853062382801, 26.223594743997314], [-111.73902471972204, 26.22403372032727], [-111.73903309036115, 26.225358223864493], [-111.73952719572154, 26.225797198161512], [-111.73953417649759, 26.22690095073009], [-111.74002829036554, 26.227339923032027], [-111.74003807085076, 26.22888517607316], [-111.74053219514683, 26.229324146303384], [-111.74053918649341, 26.230427898079174], [-111.74103331929882, 26.230866866313747], [-111.74103915034468, 26.231786756026512], [-111.74055340409515, 26.23267228968476], [-111.73859918715563, 26.234448406112485], [-111.73860197697492, 26.234889906721673], [-111.7359176019024, 26.237773525583087], [-111.73568002451594, 26.239062397000932], [-111.73617417686167, 26.239501381033545], [-111.73617695813961, 26.239942881573825], [-111.73667111611736, 26.2403818637255], [-111.73667389938038, 26.24082336416224], [-111.73716806299048, 26.2412623444328], [-111.73717084823875, 26.241703844765972], [-111.73766501748148, 26.24214282315526], [-111.73766780471516, 26.242584323384822], [-111.73816197959083, 26.24302329989268], [-111.73816476881012, 26.243464800018607], [-111.73865894931903, 26.243903774644856], [-111.73866174052411, 26.244345274667097], [-111.73915592666656, 26.24478424741157], [-111.73915871985758, 26.2452257473301], [-111.73965291163385, 26.245664718192646], [-111.73965570681104, 26.24610621800743], [-111.74014990422143, 26.24654518698787], [-111.74114671339589, 26.248747618123282], [-111.74164092771049, 26.249186581456424], [-111.74164373083394, 26.249628080855857], [-111.74263357795549, 26.250726751563132], [-111.74263638502059, 26.25116825076839], [-111.74412471280293, 26.253368116384898], [-111.74412752583056, 26.25380961527807], [-111.74561591627047, 26.25600946331788], [-111.74561873526221, 26.25645096189864], [-111.74760429432509, 26.259531231392124], [-111.74760712127143, 26.25997272955585], [-111.748101407907, 26.260411668438557], [-111.74810423684245, 26.26085316649794], [-111.74859852911717, 26.26129210349574], [-111.74860700611394, 26.262614106151222], [-111.74815937391926, 26.2626164389569], [-111.74664985350228, 26.263988214404662], [-111.74518529316714, 26.265541116533782], [-111.74518786030798, 26.26594323508602], [-111.7447402149982, 26.26594555750673], [-111.74229824055939, 26.26838652226323], [-111.74082656121828, 26.268835635844464]], [[-111.73093610818894, 26.22610127902664], [-111.73171251652929, 26.225395673982643], [-111.7317072221232, 26.22454955888507], [-111.73116908222768, 26.224071399959044], [-111.72825974298692, 26.224086168321573], [-111.72772760408247, 26.22456976053038], [-111.7279785270334, 26.225414632505988], [-111.72851666051432, 26.225892803432853], [-111.72900935335481, 26.226111063595877], [-111.73093610818894, 26.22610127902664]]]}}]}
