{"type": "FeatureCollection", "features": [{"type": "Feature", "properties": {"uga": "23", "politica": "aprovechamiento-sustentable", "procedencia": {"metodo": "digitalizacion-semiautomatica", "fuente": "Mapa de ubicación de la ficha UGA 23, Boletín Oficial No. 12 (12-mar-2014), p. 226 del PDF", "datum": "UTM 12N con desplazamiento de +30 m E y +170 m N ajustado contra la costa (INC-011)", "correccion_borde_px": 1.4, "precision_aprox_m": 13.0, "escala_por_superficie": false, "revisada_en_qgis": false}, "control": {"residuo_georreferencia_m": 8.5, "area_digitalizada_ha": 65.49, "escala_por_superficie": false, "superficie_ficha_ha": 64.45, "diferencia_area_pct": 1.6}, "georreferencia": {"a_x": 6.622610370937011, "b_x": 458818.02191259526, "a_y": -6.616928473289387, "b_y": 2903354.0512789474, "factor_render": 1, "pagina_mapa": 226, "ficha_mapa": "23"}}, "geometry": {"type": "Polygon", "coordinates": [[[-111.39026333736103, 26.244370301935234], [-111.38986802465611, 26.244371375138723], [-111.38853961978906, 26.243717755694885], [-111.38817979526688, 26.243216780930535], [-111.38824590707145, 26.243156855220484], [-111.3880181003813, 26.24283368613143], [-111.38788389353921, 26.24235607174624], [-111.38775087734902, 26.242236936568915], [-111.38775028258138, 26.242057696882576], [-111.387483062739, 26.241460946722594], [-111.38748227029147, 26.241221960439745], [-111.38734925581251, 26.241102824852895], [-111.38734846365108, 26.24086383855434], [-111.38721544971949, 26.240744702831616], [-111.38708085287074, 26.24014759432885], [-111.38681383868594, 26.239610589268924], [-111.3868128499193, 26.239311856313506], [-111.38657431425634, 26.238979064476784], [-111.38664042452668, 26.238919139487706], [-111.3865460365322, 26.23883459725671], [-111.38647696266055, 26.23799832317474], [-111.38641045775027, 26.237938754879227], [-111.38640650719147, 26.236743822647778], [-111.38630138083512, 26.23664966001465], [-111.38640571710947, 26.236504836177577], [-111.38627231424965, 26.236266206202195], [-111.38626895770618, 26.23525051356516], [-111.38616383281884, 26.235156350795705], [-111.38622994116677, 26.235096425985382], [-111.38613535922258, 26.234952136769127], [-111.38613477068476, 26.23477397521001], [-111.38639863673292, 26.23477326601956], [-111.386664649464, 26.235011539216558], [-111.3867972608221, 26.235011182367526], [-111.38712958071496, 26.235249276209082], [-111.38726219233547, 26.235248918928058], [-111.38772752209904, 26.235606147189834], [-111.38786013411504, 26.235605789352558], [-111.38839177332125, 26.235962836442766], [-111.38852438573146, 26.235962477988053], [-111.38892301815552, 26.236200388306685], [-111.3893212541767, 26.23631880429565], [-111.38945426512882, 26.236437938174713], [-111.38998511554115, 26.236555992862368], [-111.39011812743473, 26.236675126112434], [-111.39064897956432, 26.236793178324252], [-111.39078199239933, 26.236912310945282], [-111.39104721929614, 26.236911589478186], [-111.3911802326684, 26.237030721722576], [-111.39157807339394, 26.237029638231387], [-111.39171108743652, 26.23714876997484], [-111.3920426216898, 26.237147865913574], [-111.39224194325142, 26.237266816252056], [-111.3934354676188, 26.2372635536298], [-111.39356848380024, 26.23738268362573], [-111.39667436165155, 26.237374144024795], [-111.39680656984486, 26.237254284834385], [-111.39740333166102, 26.237252635808105], [-111.39753553896159, 26.237132775955146], [-111.39793337972927, 26.23713167486629], [-111.39806558634433, 26.237011814531463], [-111.39833081323371, 26.23701107961949], [-111.39952188340102, 26.236290808180915], [-111.40032717640705, 26.235620621740946], [-111.40032676715346, 26.23550112868836], [-111.40072296361654, 26.235022047729146], [-111.40072255396913, 26.23490255467239], [-111.40098675120126, 26.234603082270972], [-111.40098637809066, 26.234494316525176], [-111.40203400130575, 26.234491389738587], [-111.40203461406881, 26.234669550963172], [-111.40150663383841, 26.2353879921113], [-111.40111023436927, 26.235807328665633], [-111.4010445433426, 26.2359867532688], [-111.40084623967589, 26.2361665477895], [-111.4003184500819, 26.236944731099847], [-111.39980170455046, 26.237473165983896], [-111.3979487708824, 26.23855375659347], [-111.3976843536945, 26.238793476919042], [-111.39728711656561, 26.23897381694547], [-111.39708880204194, 26.239153606331048], [-111.39000820487207, 26.243474788609664], [-111.38980333981982, 26.243660488651418], [-111.39006460760707, 26.24407318458864], [-111.39006500652013, 26.24419267764693], [-111.39026333736103, 26.244370301935234]], [[-111.39204521751405, 26.239113610631914], [-111.3919840796547, 26.239058854844874], [-111.39204441581927, 26.238874624401003], [-111.39177730331123, 26.238694961387264], [-111.39145122344321, 26.23875084441812], [-111.39124103073172, 26.238941385586948], [-111.39124159846952, 26.239110976298576], [-111.39145306407512, 26.239300369135094], [-111.39184036328894, 26.23929931356786], [-111.39204521751405, 26.239113610631914]]]}}]}
