{"type": "FeatureCollection", "features": [{"type": "Feature", "properties": {"uga": "24", "politica": "conservacion", "procedencia": {"metodo": "digitalizacion-semiautomatica", "fuente": "Mapa de ubicación de la ficha UGA 24, Boletín Oficial No. 12 (12-mar-2014), p. 229 del PDF", "datum": "UTM 12N con desplazamiento de +30 m E y +165 m N ajustado contra la costa (INC-011)", "correccion_borde_px": 1.4, "precision_aprox_m": 81.0, "escala_por_superficie": false, "revisada_en_qgis": false}, "control": {"residuo_georreferencia_m": 28.5, "area_digitalizada_ha": 5883.46, "escala_por_superficie": false, "superficie_ficha_ha": 5924.2, "diferencia_area_pct": -0.7}}, "geometry": {"type": "Polygon", "coordinates": [[[-111.43486688266462, 26.048495499334017], [-111.43564161745827, 26.047787891632357], [-111.4393548181664, 26.047776644705262], [-111.44016800617517, 26.048509478092623], [-111.44219412307667, 26.048503289396006], [-111.44300733357376, 26.049236106432424], [-111.45266653326814, 26.04920615707189], [-111.455092205092, 26.04772791806679], [-111.45630786476207, 26.047724082758286], [-111.45832824507487, 26.04624706962122], [-111.45954388892129, 26.046243207281343], [-111.46035144624767, 26.045505327690005], [-111.46197229399316, 26.045500153064644], [-111.46439777103214, 26.04402175961333], [-111.46601859744881, 26.04401653986139], [-111.46682609862003, 26.04327862459996], [-111.46885211809658, 26.043272063184947], [-111.46965959624366, 26.042534132319915], [-111.47209080318778, 26.04252620773592], [-111.47289825572636, 26.041788259040175], [-111.47418005824527, 26.04178405741698], [-111.48069021496086, 26.04838030448655], [-111.48589782096471, 26.05160495550045], [-111.48590236892483, 26.052707898984135], [-111.48671587655835, 26.05344046537075], [-111.48672066209394, 26.05459897752346], [-111.4826833056547, 26.058289056462186], [-111.48188031581574, 26.06013000191228], [-111.48189084435582, 26.06270353493662], [-111.48035062569355, 26.064480128593544], [-111.47832424490241, 26.064486856340245], [-111.47670909240033, 26.065962808701837], [-111.47583230878266, 26.065965701184616], [-111.4752553926402, 26.06544615881407], [-111.47468268502043, 26.065969485690584], [-111.47346684025099, 26.065973478232173], [-111.47144631905407, 26.067450701175186], [-111.46813780180938, 26.06746146783067], [-111.46756091165906, 26.06694189445324], [-111.46577520901594, 26.068204415427747], [-111.46415404976011, 26.068209636935862], [-111.46334636329796, 26.068947537254928], [-111.45970160074253, 26.069694495681144], [-111.45727554013521, 26.07117281288082], [-111.45315631024916, 26.07118580315581], [-111.44909208346039, 26.06825727892081], [-111.44429481323519, 26.068272123027217], [-111.44146604451954, 26.070486722219933], [-111.43862895100402, 26.070495370891102], [-111.43458681456043, 26.073448825217657], [-111.43053640682449, 26.074196270681558], [-111.42568861125314, 26.078622492655217], [-111.42116377509507, 26.07863576817888], [-111.42079035414972, 26.07829924007642], [-111.41920598146892, 26.07937677554349], [-111.41596333444589, 26.07938615815866], [-111.41515526613256, 26.08012379244407], [-111.41312859802282, 26.080129608387185], [-111.4123205066723, 26.080867226998915], [-111.41029382503541, 26.080873003285596], [-111.40948571064844, 26.081610606220774], [-111.4077981244067, 26.081615384972206], [-111.40617169248495, 26.08014935613244], [-111.40543467232072, 26.08015142857787], [-111.4054323694665, 26.079482928743104], [-111.40454530108212, 26.07868330818712], [-111.40092804979064, 26.077988130273106], [-111.39974757827099, 26.07869667692454], [-111.3965049421171, 26.078705622124325], [-111.39286679250775, 26.08165680638209], [-111.39165077253261, 26.081660111742973], [-111.38794140261142, 26.085413475968323], [-111.38754089316375, 26.086885168918535], [-111.38755663777553, 26.091664628912387], [-111.38675171270465, 26.09343825664555], [-111.38270651893495, 26.093816698498802], [-111.38229994163042, 26.093450122576304], [-111.37824612952807, 26.09346080826712], [-111.37709386522367, 26.09272851659087], [-111.3762854597108, 26.093465935645217], [-111.37506931530899, 26.09346910261299], [-111.37175978926416, 26.09575039579429], [-111.37095463308407, 26.097535168882725], [-111.3734010160631, 26.101940703258737], [-111.37342221241462, 26.108613982826185], [-111.3730179453274, 26.10898268253448], [-111.37302261242338, 26.110453283926926], [-111.36979412911039, 26.11524109227847], [-111.36939658799513, 26.1177601132508], [-111.37103006031388, 26.121432447799794], [-111.37207739822114, 26.12237666518255], [-111.37144036399543, 26.122957572113634], [-111.37065474663153, 26.130992380627713], [-111.37228844760791, 26.13466469178493], [-111.37229311085572, 26.136135288059663], [-111.37293389152964, 26.136712893993135], [-111.37252952734782, 26.137081591960012], [-111.37311001075703, 26.137971435067104], [-111.37312070490871, 26.141335843679084], [-111.36991616113583, 26.14425753618622], [-111.37070002177366, 26.145330691439412], [-111.37070948876476, 26.14832744907128], [-111.36949856437397, 26.15016881749865], [-111.36973481303546, 26.15105955489199], [-111.36909761328558, 26.151640450953014], [-111.36910206518982, 26.15305547511408], [-111.37154606962162, 26.156358051353415], [-111.37195633186077, 26.157827596307367], [-111.37158729307977, 26.159694588325653], [-111.37196816841372, 26.161559643842672], [-111.37156587031399, 26.162608065145974], [-111.37302271668203, 26.16465416173762], [-111.37261825763224, 26.16502285956286], [-111.37279675801099, 26.16701669056841], [-111.37483081279717, 26.16884966131314], [-111.37483433939141, 26.16995260299152], [-111.37605599390994, 26.17142001784715], [-111.37606206985237, 26.173313821948735], [-111.37565759095918, 26.173682528090254], [-111.37608312782137, 26.17987589550781], [-111.37812220534657, 26.18317939924325], [-111.37957704336525, 26.1844901271449], [-111.37917253755562, 26.18485884289375], [-111.37934779226863, 26.185805289093082], [-111.37781063682556, 26.187206400451956], [-111.37780613094968, 26.185809344792144], [-111.37699236383558, 26.18507618010669], [-111.37576701551154, 26.182505838184284], [-111.37454642240442, 26.181406070979808], [-111.3733188244069, 26.178100412273984], [-111.37243121754734, 26.177300610856406], [-111.37161987514347, 26.17730270786492], [-111.36820617952027, 26.174593121215718], [-111.36861068523552, 26.17422443577302], [-111.36721643365262, 26.172601357743964], [-111.36738217965464, 26.170551073087253], [-111.36680042456082, 26.16929356461359], [-111.3659129291346, 26.168493720841532], [-111.36395842773442, 26.168498675031852], [-111.36395635239003, 26.1678301801281], [-111.3631427972084, 26.167096933060158], [-111.36313938104121, 26.165993989488488], [-111.36232584379904, 26.16526073743014], [-111.36232247029814, 26.164169024968118], [-111.36306002150074, 26.16416716716763], [-111.36394248538633, 26.16336283654079], [-111.36434146256545, 26.16122272323081], [-111.36548461093739, 26.161219826370846], [-111.36676937358553, 26.159367073453257], [-111.36550843251808, 26.15823056108998], [-111.36393102000231, 26.159668395256432], [-111.36368915272179, 26.156957368211632], [-111.3622940415591, 26.154966587282253], [-111.36229063519723, 26.153863641748533], [-111.36083637267092, 26.152552727498584], [-111.36124082669598, 26.152184062189793], [-111.35984694217147, 26.150560904016423], [-111.35984451659117, 26.149770037101234], [-111.3622711646522, 26.147558044593886], [-111.36267349630086, 26.14650964673348], [-111.36137837639151, 26.14497549280549], [-111.36056725658958, 26.14497752518709], [-111.35982777614818, 26.14431087157372], [-111.3598255217361, 26.143575573281872], [-111.35918476690813, 26.142997909314065], [-111.35958919363313, 26.142629248443722], [-111.35737763820431, 26.138802188195125], [-111.35737428045994, 26.137699239589256], [-111.35673357000258, 26.13712156379218], [-111.35713798450249, 26.136752909632204], [-111.3565576274734, 26.135863000694222], [-111.35655092845577, 26.133657102215796], [-111.35509364716816, 26.13124317322979], [-111.3557308075913, 26.130662337895487], [-111.35572523924485, 26.128824087718115], [-111.35693728264381, 26.127350479762285], [-111.35652860401082, 26.12630410239895], [-111.35692516208994, 26.123361896909874], [-111.35529226075012, 26.122196169898668], [-111.35246271499248, 26.125144341505166], [-111.35045506506637, 26.125149236769808], [-111.35142312938265, 26.12426676356469], [-111.35124616537249, 26.122640540395984], [-111.34921219185624, 26.120439562001586], [-111.34920672800995, 26.118601307924582], [-111.34717394946765, 26.116767949475385], [-111.34757400835599, 26.11493994878856], [-111.34878295760085, 26.11493702931806], [-111.34959605852328, 26.115670367407994], [-111.35317894075467, 26.115661635250646], [-111.35406111275721, 26.114857362813222], [-111.35405684945248, 26.113442328796218], [-111.35113822987368, 26.11117674172109], [-111.350401010557, 26.11117853508664], [-111.35039901756043, 26.110510033873616], [-111.34951208202432, 26.109710076823788], [-111.347482714768, 26.108979673263526], [-111.34545553343429, 26.108984543852003], [-111.34464250482944, 26.108251181009305], [-111.34302076936842, 26.108255047718664], [-111.34220776088759, 26.10752167087282], [-111.34106513233846, 26.107524377798484], [-111.34145884980914, 26.10349047982201], [-111.3434478619536, 26.100939960730834], [-111.34259176522256, 26.10016767077868], [-111.34144920818794, 26.100170380040186], [-111.34104079699107, 26.099135184116747], [-111.3410385033814, 26.098344309963732], [-111.34242095822073, 26.096346718743664], [-111.34176813126454, 26.09575776788803], [-111.33819327104499, 26.095766193132903], [-111.33777946552198, 26.092837154255268], [-111.33858811088074, 26.09209994848092], [-111.338584089673, 26.090702868372873], [-111.34054153988656, 26.09216215262667], [-111.34384943121047, 26.089146264183046], [-111.34425065867042, 26.08773025699716], [-111.34214358059398, 26.08546253508827], [-111.34100116633212, 26.085465239388096], [-111.34099709815247, 26.084061429280837], [-111.34018320839621, 26.082960383771134], [-111.3401798594335, 26.08180185469516], [-111.3409149588845, 26.08113161079476], [-111.34179187025865, 26.08112953656152], [-111.34260469175298, 26.081862920270602], [-111.34334914683637, 26.081861150937257], [-111.3441576823196, 26.081123913924305], [-111.34665595438197, 26.081117934377303], [-111.34780138795921, 26.082151342640636], [-111.34780464776311, 26.083254300883066], [-111.34865816508695, 26.084024317313922], [-111.3495071071984, 26.08325018752497], [-111.34886580989622, 26.08236038612166], [-111.350237785192, 26.081109285907168], [-111.35192537547091, 26.081105180344153], [-111.35436184294502, 26.082569839106217], [-111.35550422747107, 26.082567029317495], [-111.35550624701249, 26.083235532751882], [-111.35639302094619, 26.08403545750896], [-111.35713748867437, 26.084033616903866], [-111.35794595156084, 26.0832963035884], [-111.36037061557748, 26.08329026881421], [-111.36037266282881, 26.08395877182531], [-111.36122626662032, 26.08472871293751], [-111.36207513013125, 26.083954510088045], [-111.36207307320885, 26.083286007202332], [-111.36524219818871, 26.083278020717692], [-111.36612404667781, 26.082473674310336], [-111.36612196689009, 26.081805171588936], [-111.36969639209784, 26.081796058760844], [-111.3715493867127, 26.08047447141473], [-111.372192345962, 26.0810543333002], [-111.37340836244807, 26.081051191970612], [-111.37422137812561, 26.081784395539128], [-111.374965830128, 26.081782463110695], [-111.37577416471811, 26.081045051045248], [-111.37705641069496, 26.081041706505697], [-111.3792602622471, 26.083395650016733], [-111.38031107406242, 26.082436982623623], [-111.38030891368918, 26.081768480981786], [-111.38509935407876, 26.08175577685036], [-111.38631296230007, 26.081017224233896], [-111.3869620436911, 26.080424986776308], [-111.38593575938394, 26.079499618254914], [-111.38516051621112, 26.080206962098615], [-111.38387828053797, 26.080210378542766], [-111.38306521644027, 26.079477229763825], [-111.38184921757268, 26.079480452283747], [-111.38103617106334, 26.078747291802664], [-111.37989382689358, 26.07875030330098], [-111.37989166924174, 26.078081801285162], [-111.37778644617333, 26.076549905925138], [-111.37704202750778, 26.07655185254242], [-111.37623373143796, 26.07728927174317], [-111.37501775421097, 26.077292436457093], [-111.37420944028376, 26.07802984443915], [-111.37211656980814, 26.078035255759247], [-111.37130359329407, 26.07730203953041], [-111.36974851723144, 26.07730603183844], [-111.36894016980949, 26.078043410664815], [-111.36448383040185, 26.07879004411811], [-111.36367543954124, 26.079527393764668], [-111.36158253995703, 26.079532652610418], [-111.36120928438066, 26.079195968510973], [-111.35915053494217, 26.079538725402852], [-111.35711717050066, 26.077337839186473], [-111.35558189267684, 26.077341629863476], [-111.35735794427386, 26.075721810561213], [-111.35670515911391, 26.07513292520041], [-111.35532252036222, 26.07608551088517], [-111.35491608934703, 26.07571885534651], [-111.35450200186264, 26.07609650896298], [-111.35467779104398, 26.077343854494707], [-111.35394078403478, 26.077345663782946], [-111.35305888930469, 26.078149936779283], [-111.35306089456374, 26.07881844080008], [-111.35070996847934, 26.078824172865282], [-111.35070143767442, 26.075960982790306], [-111.35265440291906, 26.07595622421587], [-111.35370784349193, 26.074995490603733], [-111.35232850685915, 26.073751086196726], [-111.35531591634332, 26.073897554527992], [-111.35669871168389, 26.073005041334252], [-111.35994120576132, 26.072996992130367], [-111.36243972297403, 26.070718004753534], [-111.37496081762296, 26.057082765018034], [-111.3866758392014, 26.045654535785584], [-111.38667364623946, 26.04498603123688], [-111.38741044807358, 26.0449840570728], [-111.39273448477624, 26.039755690553758], [-111.39515457009337, 26.036440183851198], [-111.39515087416007, 26.035337224392922], [-111.39668586045863, 26.033935923508242], [-111.39669055990477, 26.035333005471383], [-111.400831207049, 26.039800255714464], [-111.41574980338217, 26.039758094691575], [-111.41575864331219, 26.04226485701496], [-111.41705201558747, 26.04343089760953], [-111.42069887951567, 26.043420323065213], [-111.42151192266908, 26.044153263744892], [-111.42637443444913, 26.044138993409348], [-111.42718751743256, 26.044871901573433], [-111.43002399827557, 26.04486348544431], [-111.43083710870296, 26.04559637264589], [-111.43245796423653, 26.045591529174146], [-111.43486688266462, 26.048495499334017]], [[-111.36728658579176, 26.07514540357847], [-111.36643052421459, 26.074373251990966], [-111.36504797420879, 26.075325930018224], [-111.3642350601364, 26.074592673028107], [-111.36361891547256, 26.07515469002849], [-111.36444175793152, 26.07589690577359], [-111.36504802990565, 26.075343890699692], [-111.36586095423115, 26.076077142925865], [-111.36728658579176, 26.07514540357847]], [[-111.39745241992743, 26.06900816789423], [-111.3986744435327, 26.067892853487034], [-111.3980214982078, 26.067304156153135], [-111.39744615479839, 26.067151950205194], [-111.39663805183373, 26.067889482446002], [-111.39541970553631, 26.067157514893182], [-111.39477321366228, 26.067747532086354], [-111.39562796923957, 26.0688293520779], [-111.39687582971875, 26.068488308394908], [-111.39745241992743, 26.06900816789423]], [[-111.4283503038515, 26.048545008471194], [-111.42899899453032, 26.047952584050698], [-111.42756611830823, 26.046661059717984], [-111.42696028931127, 26.04721433431529], [-111.42591070481762, 26.046268258819154], [-111.42516648189923, 26.04627045128532], [-111.42431583328106, 26.04704727969679], [-111.42517206823702, 26.047819088880924], [-111.42719817730368, 26.04781311068377], [-111.4283503038515, 26.048545008471194]], [[-111.42903865968508, 26.06156466678222], [-111.43089805488573, 26.060235574487006], [-111.43089287888732, 26.058820542812782], [-111.43000579770411, 26.05802107663982], [-111.42682995997714, 26.058030498901452], [-111.4259487121926, 26.058835211874822], [-111.42635909338114, 26.060249048375486], [-111.42741624961923, 26.061201824253846], [-111.42846196885279, 26.061044934146672], [-111.42903865968508, 26.06156466678222]]]}}]}
