{"type": "FeatureCollection", "features": [{"type": "Feature", "properties": {"uga": "25", "politica": "conservacion", "procedencia": {"metodo": "digitalizacion-semiautomatica", "fuente": "Mapa de ubicación de la ficha UGA 25, Boletín Oficial No. 12 (12-mar-2014), p. 232 del PDF", "datum": "UTM 12N con desplazamiento de +30 m E y +165 m N ajustado contra la costa (INC-011)", "correccion_borde_px": 1.4, "precision_aprox_m": 127.0, "escala_por_superficie": false, "revisada_en_qgis": false}, "control": {"residuo_georreferencia_m": 41.2, "area_digitalizada_ha": 21830.18, "escala_por_superficie": false, "superficie_ficha_ha": 21896.69, "diferencia_area_pct": -0.3}}, "geometry": {"type": "Polygon", "coordinates": [[[-111.6151943519072, 26.265297994673766], [-111.61518283427378, 26.263112439691685], [-111.6138433974214, 26.26191033696643], [-111.61137045567942, 26.26244894434098], [-111.61008637555447, 26.259683224223952], [-111.6067815002371, 26.25671680777997], [-111.59978131151703, 26.253295245807756], [-111.59734626806451, 26.253305392709326], [-111.59596771183647, 26.254566058434335], [-111.5959877251613, 26.25848748431052], [-111.59292928585056, 26.2585001432599], [-111.58976409797712, 26.260238658643846], [-111.58839054855962, 26.26024429259147], [-111.58520506502784, 26.25795666259284], [-111.58139066634719, 26.25682183034029], [-111.57884302267846, 26.255106634176414], [-111.57324278285662, 26.254553931098663], [-111.57322644859312, 26.251225858740487], [-111.57702341183338, 26.251210657132923], [-111.58020855208129, 26.2534984764948], [-111.58327836137919, 26.253486043935677], [-111.5842936519281, 26.252557755792736], [-111.58210702014532, 26.250021602214677], [-111.58209269029668, 26.247145848291517], [-111.57954239758443, 26.244855507607046], [-111.57952242931901, 26.2408294470602], [-111.57813140450773, 26.23958010612801], [-111.56810927875146, 26.239044914675716], [-111.57113366342239, 26.236279944622083], [-111.57367231128502, 26.236269832976426], [-111.57557063183177, 26.235111914851796], [-111.57937856209189, 26.23509661363272], [-111.58064215741801, 26.23394118668801], [-111.58445004611153, 26.233925751732425], [-111.58546516043832, 26.232997455812434], [-111.58327887837913, 26.230461307470982], [-111.58325888497478, 26.226453461684876], [-111.58832135663472, 26.225857667451464], [-111.59140207140577, 26.22814568001989], [-111.59341206194324, 26.226307288167053], [-111.5955666976275, 26.22260301345531], [-111.59326736175547, 26.220538028091234], [-111.58702549359649, 26.21826299233257], [-111.58701447376272, 26.216066996997405], [-111.58446477691223, 26.21377672401764], [-111.58442752347868, 26.206317947044543], [-111.58811331995936, 26.20515259173856], [-111.58975684999551, 26.203071363565886], [-111.5880953641114, 26.201578832820648], [-111.58313212609856, 26.20102387326509], [-111.58312691726735, 26.199978180364624], [-111.58173634941771, 26.19872885975489], [-111.5766493574435, 26.196448674352176], [-111.57295808390624, 26.19646342294869], [-111.57293003227262, 26.19073008206928], [-111.5754563874381, 26.188419330272776], [-111.57545116050717, 26.1873554138437], [-111.57406082567913, 26.186106012996934], [-111.57290743665027, 26.186110609542638], [-111.57288834858113, 26.18220734829652], [-111.57858617696218, 26.182184554188034], [-111.57986060612834, 26.18332976047438], [-111.58292857474213, 26.183317366110717], [-111.58546032022443, 26.182156753992526], [-111.58683815500665, 26.18089618898204], [-111.58744420559054, 26.175246658648888], [-111.588597484705, 26.175241947403855], [-111.5906041664567, 26.172914836239933], [-111.58805535775146, 26.17062459846304], [-111.58804381694469, 26.168323972465306], [-111.58638717796019, 26.16683529125278], [-111.58422319076388, 26.16765973970605], [-111.58284547999374, 26.168920279837305], [-111.58285067919647, 26.169965977303704], [-111.5816974508054, 26.1699706416363], [-111.57600569164916, 26.17344454031496], [-111.57030828562606, 26.173467225257824], [-111.57030319751695, 26.172421525986355], [-111.56775478904994, 26.17013092181045], [-111.56774044315937, 26.167168732107708], [-111.56837194270166, 26.166591070794833], [-111.5677181636349, 26.162567460636573], [-111.57114657631325, 26.16000883683856], [-111.56948594490878, 26.15851606821551], [-111.56262465323726, 26.158543037984174], [-111.5626137047723, 26.156260618220383], [-111.5638766337265, 26.15510533720287], [-111.56386875482588, 26.153466253496756], [-111.5625948095327, 26.152320893003147], [-111.56258386464977, 26.150038471255634], [-111.56626813130602, 26.14887369199715], [-111.56980823282882, 26.14563487029468], [-111.56814782530604, 26.144142079641988], [-111.56382126586097, 26.14358390559369], [-111.56380804106408, 26.140830937705832], [-111.56496098663142, 26.14082642133497], [-111.56622372899396, 26.13967112036852], [-111.57192817819413, 26.139073417914236], [-111.57519959557474, 26.136079917821064], [-111.57519114193848, 26.134354436168405], [-111.57703475049878, 26.132089577397732], [-111.57442190690053, 26.130313079269243], [-111.56755356771808, 26.130915463986234], [-111.56112804328991, 26.137372145359034], [-111.55861069194543, 26.141408134025607], [-111.55861566893428, 26.14245383991235], [-111.55493152272219, 26.143618422446682], [-111.54797722192752, 26.148246422812075], [-111.54470476487788, 26.151239316338955], [-111.5434491934013, 26.154015301365767], [-111.54229611404092, 26.154019647627056], [-111.5404014041253, 26.15575228625608], [-111.53343534208696, 26.15807894672109], [-111.52774009776103, 26.160975793583006], [-111.52320334898218, 26.165123176932862], [-111.52194712254239, 26.16789897924999], [-111.52079390262865, 26.167903155420554], [-111.51953040656147, 26.169058065239227], [-111.51562069663927, 26.16907212090165], [-111.51192522480027, 26.167934963006726], [-111.5119152587772, 26.165652527198393], [-111.51317879499797, 26.164497683094933], [-111.51316620937592, 26.161621861759695], [-111.51442969036678, 26.160467006862905], [-111.51440950878796, 26.15586569050147], [-111.51819203547761, 26.150675566763827], [-111.52703471675656, 26.142591050496222], [-111.53081366122521, 26.136825435977574], [-111.53080065898968, 26.13394961169281], [-111.53206367067972, 26.132794604866568], [-111.53205893226738, 26.131748892945186], [-111.53321179479205, 26.131744632004228], [-111.53421073353813, 26.13083106831438], [-111.53484744835266, 26.131403881270508], [-111.54398349251102, 26.1299788524269], [-111.55220771799075, 26.12592135871073], [-111.55736506429385, 26.119469975333583], [-111.55734646208246, 26.11554844696942], [-111.55849916075832, 26.11554398630437], [-111.55976170097294, 26.114388741312673], [-111.56229771494084, 26.11437887320797], [-111.5661580560896, 26.11200164960555], [-111.56417980664322, 26.110222460195637], [-111.56227236120955, 26.10907956142081], [-111.55857234658379, 26.10909394122876], [-111.55289091797566, 26.114292411976304], [-111.54719291473178, 26.11603967490072], [-111.53897711203714, 26.121822375559958], [-111.53633708050802, 26.121832222396137], [-111.53442970806348, 26.120688955771918], [-111.53074079172161, 26.12070258454232], [-111.53071788146578, 26.115630706677923], [-111.52690090483232, 26.112768825001243], [-111.52689059050837, 26.110468156530246], [-111.52550169035393, 26.10921825117376], [-111.52433756747912, 26.10922248882952], [-111.5230747276283, 26.1103774290106], [-111.51990479731879, 26.1103888931906], [-111.51852704409579, 26.11164882853624], [-111.51792093531319, 26.117977951635407], [-111.51702365136606, 26.119375914082223], [-111.51794629286415, 26.123729623683747], [-111.51605422513373, 26.12603711435642], [-111.51543529955204, 26.129490384446807], [-111.51354057570438, 26.13122267568819], [-111.51355026001268, 26.13343694467371], [-111.51737013370348, 26.136874332495932], [-111.51674904390492, 26.139838835190343], [-111.51370327259475, 26.142045806645456], [-111.51106277563302, 26.14205519734364], [-111.50661125460708, 26.13919504234874], [-111.5048126878972, 26.139201355026664], [-111.50291518625596, 26.1403583419016], [-111.50039006981433, 26.140367133782036], [-111.50038070845204, 26.1381710830298], [-111.49910754119604, 26.13702514673581], [-111.49910020553942, 26.135299643731603], [-111.49718104004529, 26.13405130530199], [-111.49580276617326, 26.135311026962114], [-111.49455390402588, 26.13991672864303], [-111.49150529640724, 26.14154806906419], [-111.49012687405657, 26.142807737251502], [-111.49013124116823, 26.14385345442466], [-111.48772139527382, 26.14386163286003], [-111.4870804981467, 26.142242892530245], [-111.48770271012576, 26.139364905727284], [-111.48642488498189, 26.137068518718074], [-111.48640784644759, 26.132955938607758], [-111.4876712913011, 26.131801314487976], [-111.48765027309828, 26.126739825424856], [-111.48917780879323, 26.128115074817938], [-111.49234823249031, 26.128104279319768], [-111.4929799026793, 26.127526942983053], [-111.49393465318539, 26.12838643979598], [-111.49526113991205, 26.127174015975672], [-111.495256653507, 26.12611007652233], [-111.49195846862878, 26.123140864059643], [-111.49142825964464, 26.123142672636266], [-111.48499652899135, 26.12902085357566], [-111.48437619902126, 26.13235896838371], [-111.48221219967438, 26.13041062242977], [-111.48120141395815, 26.131334284921277], [-111.4812108425731, 26.133634962943034], [-111.47943280406774, 26.13583697821215], [-111.47753042114911, 26.135843295149858], [-111.47563269809292, 26.136999926294887], [-111.47299229946694, 26.13700861771813], [-111.47108527979726, 26.135864509813306], [-111.46866410853664, 26.135872404791513], [-111.46863238793843, 26.127924635443218], [-111.46597116588136, 26.125527928837197], [-111.46481835254875, 26.125531651063486], [-111.4648119382928, 26.123910755833034], [-111.46353926977893, 26.122764496101112], [-111.46352758154532, 26.119802238217048], [-111.46478884006582, 26.11807263942082], [-111.4736328394636, 26.109991346152462], [-111.47361464772847, 26.105476367792015], [-111.4722784704146, 26.104272871657763], [-111.4709519973979, 26.10548508755416], [-111.47095660589757, 26.106635432499765], [-111.4690661693902, 26.109517493460856], [-111.4652759113168, 26.112980852174484], [-111.46528046578028, 26.114131196859372], [-111.4633852347777, 26.115862839395216], [-111.46023765829196, 26.121624716788236], [-111.46124183486113, 26.123016255427586], [-111.46088265499897, 26.12441215222973], [-111.46215757927045, 26.126133606881826], [-111.4628101292114, 26.130819341674332], [-111.46091685382937, 26.13312612299319], [-111.46156227393392, 26.13599994829054], [-111.4571435205375, 26.14119063738325], [-111.45652909111244, 26.146264564832872], [-111.45095046247641, 26.14685731369956], [-111.45156956203697, 26.14293374955017], [-111.4492900671909, 26.139734196011684], [-111.45307721464415, 26.13512090963973], [-111.44962519867293, 26.13201143799199], [-111.449620793978, 26.13086109364026], [-111.44823245844111, 26.129610439257558], [-111.44505979423944, 26.12904509216562], [-111.44124658542002, 26.126756098088812], [-111.43945967402492, 26.126761557424025], [-111.43944898239194, 26.123903910947053], [-111.44134253816891, 26.121597405140594], [-111.4413338952877, 26.1192967103311], [-111.44322734083221, 26.116990179720954], [-111.44321866280504, 26.114689484027796], [-111.44510981976279, 26.11180775455221], [-111.44447179518343, 26.110745760791847], [-111.44445881447884, 26.10731293541866], [-111.4456114523557, 26.107309378324185], [-111.45004047912755, 26.10499490029678], [-111.45647715493998, 26.100268601672138], [-111.45674332741956, 26.099448187214726], [-111.45508499675422, 26.097954054408657], [-111.45392097312649, 26.09795772214002], [-111.45139410218486, 26.100266377843564], [-111.44885834917339, 26.100274291317884], [-111.44116638362075, 26.108455186850268], [-111.43930098356894, 26.118238958241058], [-111.4374052989388, 26.11997026410104], [-111.43741814862969, 26.123421307538994], [-111.43367184296943, 26.12626532892832], [-111.43589859372973, 26.128271742037963], [-111.43431868502279, 26.12971446157594], [-111.43655192824404, 26.13344638207991], [-111.43560395137654, 26.134312020001346], [-111.43873752524004, 26.137135209951794], [-111.43937812169983, 26.13885879508116], [-111.43939567022412, 26.143546571247466], [-111.43813591385668, 26.145851122067832], [-111.43814196585068, 26.147472018335236], [-111.43698893258777, 26.147475520709147], [-111.43319226012603, 26.14978770184953], [-111.43066691565485, 26.149795274328575], [-111.43002676777087, 26.148176271612403], [-111.43028658515034, 26.14554399163489], [-111.4293778370716, 26.144151955502544], [-111.42935048572329, 26.1366747061636], [-111.4270579698576, 26.134035691690624], [-111.42604671334645, 26.134958972885602], [-111.42605050819117, 26.136004700589897], [-111.42426345245919, 26.136009973260194], [-111.42229976391413, 26.137802702115433], [-111.42491260356738, 26.140157160061904], [-111.42606556677211, 26.140153755230855], [-111.42608606769545, 26.14580086639443], [-111.42736281857748, 26.148097799961434], [-111.42801831492832, 26.153934038478422], [-111.42181375120738, 26.160174684409434], [-111.41917281159634, 26.160182395979977], [-111.41674331797454, 26.157993354292866], [-111.41419005855207, 26.153399290097965], [-111.41417381445586, 26.14879790370026], [-111.41289731218666, 26.146500850422633], [-111.41028888411813, 26.144150066042737], [-111.40833113608119, 26.14651386565693], [-111.40961528007259, 26.151025256536336], [-111.40963365732445, 26.156288216143768], [-111.4084841749623, 26.15733721830884], [-111.40277789915504, 26.157928469641146], [-111.39581275423271, 26.161398856998996], [-111.39063468589637, 26.16141299689185], [-111.38872805273195, 26.16026779755182], [-111.3862948665908, 26.160274345196108], [-111.38428269276508, 26.162109888437197], [-111.38429365998223, 26.16545631499282], [-111.37870408633607, 26.16662148401078], [-111.3755381011347, 26.168355315014583], [-111.37364665102183, 26.168360236235998], [-111.37172581035504, 26.162718031345225], [-111.37234548246077, 26.158114988932827], [-111.36979576147553, 26.154095294359706], [-111.36978279844662, 26.14998266114639], [-111.37104576765105, 26.148253870007903], [-111.37103694744054, 26.145464386168694], [-111.3700351761954, 26.144560990562578], [-111.3735587799342, 26.14077001701872], [-111.37290661994352, 26.135106287090984], [-111.37099331816113, 26.13166013137537], [-111.37097669245107, 26.12639712949111], [-111.37160895812946, 26.125820317846028], [-111.37186849703149, 26.122699341727262], [-111.36968345135755, 26.11843428629005], [-111.37030453302792, 26.114320005706137], [-111.37345818463471, 26.10913521568944], [-111.37343287968179, 26.101169098361026], [-111.37152376254515, 26.098873288567695], [-111.37214650534023, 26.095334171408975], [-111.37582768959707, 26.093128508450565], [-111.38597206122184, 26.09367690938919], [-111.38824778655489, 26.090445864112134], [-111.38796218618845, 26.085514357170748], [-111.38859225090599, 26.08436229074583], [-111.3966980641359, 26.07869300186684], [-111.39923141823373, 26.07811083057708], [-111.40504161294558, 26.078669826583177], [-111.4088545560282, 26.0815350001109], [-111.4144492304101, 26.079793486814342], [-111.4169845535645, 26.079786183577063], [-111.41951577542456, 26.078628478513544], [-111.42395461530872, 26.079190691735665], [-111.43090775673976, 26.07399343989419], [-111.43344294955763, 26.073985849087258], [-111.43596962145243, 26.07167750209926], [-111.43850047835923, 26.0705194673041], [-111.44103559380432, 26.070511744093864], [-111.44419580732524, 26.0682013172616], [-111.4500034998656, 26.068183330316465], [-111.4544509557359, 26.07104531673371], [-111.45688227358767, 26.071037641842693], [-111.46067820221926, 26.069300027357905], [-111.46257951339398, 26.069293947279565], [-111.46384252238394, 26.068139527912958], [-111.46574381396778, 26.0681334064111], [-111.46700677921655, 26.06697895976293], [-111.47017786202647, 26.067543849948812], [-111.47207453075006, 26.06638729414818], [-111.47650847823567, 26.06579754443562], [-111.47903645982359, 26.06406362992392], [-111.480303940964, 26.064059418911473], [-111.4823129400481, 26.06222255179585], [-111.48229880976986, 26.058771500879462], [-111.48671578147649, 26.05415521544147], [-111.4860777057329, 26.053093398042847], [-111.48606311456017, 26.0495559455707], [-111.48973831127701, 26.0467722340696], [-111.4910056044062, 26.046767931755056], [-111.49543145781843, 26.044452085264112], [-111.49986445235584, 26.04386163003047], [-111.50250397118795, 26.04144711749637], [-111.50249171409473, 26.03857124232268], [-111.50628097281425, 26.035682095590204], [-111.5062666068359, 26.032335664435152], [-111.50741850062279, 26.032331624115088], [-111.50841681361355, 26.03141823613628], [-111.50905285837636, 26.031991180763992], [-111.51374915935205, 26.031158887942514], [-111.52006954365095, 26.02768517874963], [-111.52396512414565, 26.02296501784468], [-111.52395490789414, 26.020664319666334], [-111.52647865494373, 26.018354414116665], [-111.52647398990412, 26.017308684667636], [-111.52762573330705, 26.01730448551586], [-111.53014933668713, 26.014994517021258], [-111.5314136908499, 26.01441469101539], [-111.53963993646572, 26.014959402322685], [-111.53964471766741, 26.016005129866027], [-111.54155570353028, 26.01829871631481], [-111.54294368081608, 26.019548496970327], [-111.54409544297052, 26.01954416625826], [-111.54537524069234, 26.022310635246658], [-111.54994429105855, 26.02642421888765], [-111.5523631810065, 26.026414994202273], [-111.55236807741258, 26.027460717865463], [-111.55337021483625, 26.028362856514224], [-111.55174570609385, 26.02985022187491], [-111.55112021907723, 26.031578153214287], [-111.5517587551954, 26.03263967925611], [-111.5511466954377, 26.03724346452162], [-111.55305825415408, 26.039536883085347], [-111.55307484905221, 26.04307430278971], [-111.55244392412023, 26.04365189742629], [-111.5524627946617, 26.04767808705672], [-111.55057260664896, 26.049986024881118], [-111.55058026471953, 26.05162513582214], [-111.55439849978356, 26.05506160654211], [-111.555043023062, 26.057359847837024], [-111.55770446176781, 26.059754929729756], [-111.56330082923948, 26.061458741030666], [-111.56332825265243, 26.067192194352714], [-111.55701524699516, 26.07239329334757], [-111.55702563767119, 26.074589344013162], [-111.55016923026247, 26.074615641859406], [-111.54816337571684, 26.07694220726906], [-111.55019131176144, 26.079339822420877], [-111.55463344119993, 26.080473173722122], [-111.55642728154022, 26.0820871796489], [-111.55643816041703, 26.08438784591069], [-111.55899812274454, 26.089554540865834], [-111.55838336433251, 26.09358315537698], [-111.56104844750695, 26.096553314360143], [-111.56411415903798, 26.096541357862925], [-111.5647453039957, 26.095963712743256], [-111.57308986924589, 26.09593080229894], [-111.57499438888993, 26.096498398226], [-111.57753565938425, 26.097638595349025], [-111.58251961906521, 26.103265675291222], [-111.58317966788461, 26.1085259691617], [-111.58002968860187, 26.11256488798005], [-111.5794544451025, 26.114824694470247], [-111.58005481406755, 26.117654945936795], [-111.58388751210956, 26.123391198272714], [-111.58327916878869, 26.12857020942211], [-111.58901471383462, 26.13429859549049], [-111.58966947775934, 26.138408511635507], [-111.58778724863173, 26.14244239651699], [-111.58779545774317, 26.144081475824596], [-111.58918542863717, 26.145330757232685], [-111.59362459863834, 26.145312533121036], [-111.59541997296145, 26.146926013800826], [-111.59542872874317, 26.148651486191632], [-111.59734592373782, 26.151519394629045], [-111.60689759736555, 26.15895665147857], [-111.6069065266547, 26.160682117344276], [-111.60829689763314, 26.161931204487566], [-111.6107215462694, 26.162496108664484], [-111.61073298412558, 26.164692110811725], [-111.61200752752448, 26.16583703309753], [-111.61202845046425, 26.169844891588923], [-111.60833803867807, 26.169860533218056], [-111.60569790103074, 26.172276951778596], [-111.60570979036966, 26.174577569095664], [-111.60456191560586, 26.175628109846095], [-111.60075593690242, 26.175644044837597], [-111.59748116872669, 26.178062962024416], [-111.59685268427893, 26.179215903566835], [-111.59687568412184, 26.18373074458867], [-111.59815617950032, 26.186026093654363], [-111.59816499068027, 26.18775155581167], [-111.60200092779162, 26.19348721603472], [-111.60206052558198, 26.20507666474854], [-111.60079745161875, 26.206232275613747], [-111.60081177175847, 26.20902164061601], [-111.60284014448905, 26.210843262618706], [-111.60474370558076, 26.210835270207216], [-111.6059027463885, 26.211876101249167], [-111.60718075184663, 26.21359620164252], [-111.60719269198894, 26.215896805112713], [-111.609742872339, 26.218186665876345], [-111.60976131273232, 26.221723962216522], [-111.60597470036642, 26.225766112802006], [-111.60599511841647, 26.229705767247793], [-111.61107594691478, 26.23426733049314], [-111.60740360783834, 26.23428289829335], [-111.60539668609687, 26.23669663168508], [-111.60607862560953, 26.245809943417807], [-111.609383168833, 26.248776386228066], [-111.61065261990387, 26.24877099580339], [-111.61192809643336, 26.249915889344017], [-111.6149863002152, 26.249902829785913], [-111.6149978623251, 26.252098803486135], [-111.61894061595582, 26.25563744391244], [-111.62212361584912, 26.25734917011008], [-111.62772727234069, 26.258475105786943], [-111.62773289399628, 26.259520781537255], [-111.63026423189217, 26.261792108046446], [-111.62786062941201, 26.261802636699176], [-111.62722892514083, 26.262380555514554], [-111.62151268274667, 26.261830249590517], [-111.6196174546118, 26.26356391581195], [-111.61707823475916, 26.2635748495708], [-111.6151943519072, 26.265297994673766]], [[-111.474709287247, 26.091111479268726], [-111.47608728057166, 26.089851955653057], [-111.47607366524186, 26.086487313601705], [-111.47468558429738, 26.08523690295297], [-111.47098626853479, 26.08524902518354], [-111.46897670309612, 26.087085736655432], [-111.4689878227924, 26.089875207976913], [-111.47037589965666, 26.091125672721873], [-111.474709287247, 26.091111479268726]]]}}]}
