{"type": "FeatureCollection", "features": [{"type": "Feature", "properties": {"uga": "26", "politica": "conservacion", "procedencia": {"metodo": "digitalizacion-semiautomatica", "fuente": "Mapa de ubicación de la ficha UGA 26, Boletín Oficial No. 12 (12-mar-2014), p. 235 del PDF", "datum": "UTM 12N con desplazamiento de +30 m E y +170 m N ajustado contra la costa (INC-011)", "correccion_borde_px": 1.4, "precision_aprox_m": 82.0, "escala_por_superficie": false, "revisada_en_qgis": false}, "control": {"residuo_georreferencia_m": 89.8, "area_digitalizada_ha": 8657.73, "escala_por_superficie": false, "superficie_ficha_ha": 8491.19, "diferencia_area_pct": 2.0}}, "geometry": {"type": "Polygon", "coordinates": [[[-111.58700363394334, 26.225066846062834], [-111.58498868602483, 26.22578600349734], [-111.58287105005913, 26.22734261973593], [-111.58453413192869, 26.231721069095133], [-111.58543272005028, 26.23252478306975], [-111.5861793995404, 26.232521739643914], [-111.58618645219028, 26.23392817808558], [-111.58010569694373, 26.2339528513056], [-111.57887842538901, 26.23469844126692], [-111.57641653014146, 26.2347083366354], [-111.57577103290087, 26.235296103577795], [-111.57535889197501, 26.234927433395303], [-111.5747789078711, 26.235455537203556], [-111.57108603794065, 26.2354702594994], [-111.56978868910618, 26.237023423270347], [-111.56979562474297, 26.238446033408554], [-111.57110630804459, 26.239618522950924], [-111.57233912230926, 26.239983938628086], [-111.57882869977827, 26.23958762345736], [-111.5788375405207, 26.241372459554967], [-111.57966372983371, 26.242480089791204], [-111.57967475275893, 26.244701966489732], [-111.58057340974581, 26.245505708295337], [-111.58214272496252, 26.24586967820878], [-111.5825712134877, 26.249504409938638], [-111.58380971901931, 26.250980660873964], [-111.58381527181326, 26.252091597175262], [-111.58504296651154, 26.25318947648358], [-111.58177885409333, 26.253573053358927], [-111.57849029564414, 26.25247537575319], [-111.57643109383879, 26.25100237414963], [-111.57314447301745, 26.250274884560895], [-111.57239437612279, 26.249603965153067], [-111.56744117162783, 26.243698487138182], [-111.56743397827019, 26.242217232695864], [-111.56660970095437, 26.241479843907108], [-111.56660251883736, 26.239998588793696], [-111.56577826260364, 26.239261194667712], [-111.56577109172474, 26.237779938883584], [-111.56494685657032, 26.23704253942146], [-111.56328771023249, 26.23334583969606], [-111.5616357866164, 26.231130375740523], [-111.56163222863077, 26.2303897465197], [-111.55998215246444, 26.228544576285945], [-111.55997860535768, 26.227803946588516], [-111.5591544776725, 26.227066511157705], [-111.55915093603856, 26.226325881203017], [-111.55832682408182, 26.225588440623948], [-111.55832328791989, 26.22484781041217], [-111.55666981786807, 26.222261967990484], [-111.55083081076029, 26.217773857979125], [-111.55001029394344, 26.21777699909317], [-111.54795206282824, 26.216303566687216], [-111.54713155592718, 26.21630669121129], [-111.54548363494281, 26.21483166059213], [-111.53931283495952, 26.211151704391675], [-111.53856628586601, 26.21115450222918], [-111.53856147976379, 26.210110280604145], [-111.53608481728116, 26.206786621234173], [-111.53607972859699, 26.205675668845558], [-111.53360154393954, 26.20198164433606], [-111.53359647989761, 26.200870690753767], [-111.53277270857191, 26.20013309578689], [-111.53194221731236, 26.197914223454447], [-111.52781861395329, 26.193115192014044], [-111.52781167343292, 26.19157527175212], [-111.52839207350931, 26.191046977471533], [-111.52732088872291, 26.190087687229763], [-111.52534564443384, 26.190465237593738], [-111.52451732226682, 26.188683365289805], [-111.52039599624764, 26.18425442492267], [-111.51998092228357, 26.18314494871126], [-111.51792204107184, 26.181300744636207], [-111.51627008792947, 26.17871439903657], [-111.51454889229144, 26.177172527253145], [-111.50961458459379, 26.174227471508118], [-111.50261573967143, 26.167956523740685], [-111.50145283694093, 26.16833090576596], [-111.4961216843696, 26.168349375480613], [-111.49407436115736, 26.169097070346687], [-111.49202390277479, 26.169104092551493], [-111.48793839854343, 26.172821270069157], [-111.48180508855366, 26.17728585600909], [-111.48098484648752, 26.177288599293536], [-111.47525816835898, 26.181010894832554], [-111.47443789943225, 26.181013601165887], [-111.46993830125668, 26.18399098207172], [-111.46911801083542, 26.183993658367775], [-111.46461816148094, 26.186970875083837], [-111.46052242461977, 26.188465350305776], [-111.4584774156278, 26.189953189988913], [-111.45480299121584, 26.18996485102894], [-111.45635531413367, 26.188553442528253], [-111.45840322491074, 26.18780627829703], [-111.45946627615757, 26.18683966136545], [-111.45880728902908, 26.18624886475588], [-111.45764261302706, 26.186252573394942], [-111.45682519374711, 26.186995825676576], [-111.45552893845722, 26.186999934933677], [-111.45436138160599, 26.18626297102366], [-111.45354394113319, 26.187006204939586], [-111.45101721468282, 26.187014146493247], [-111.44937090450308, 26.185537985940726], [-111.44855060087946, 26.185540545145596], [-111.44690434233914, 26.184064355401215], [-111.44615795554253, 26.18406667130489], [-111.44615538907017, 26.18339275486353], [-111.44550547225151, 26.182809952641936], [-111.44673166337888, 26.18169516747016], [-111.44607276889239, 26.18110431091013], [-111.44408786887584, 26.181110449198574], [-111.44303324907547, 26.182069218787124], [-111.44163402696677, 26.180814403215876], [-111.43998096934735, 26.177486510374855], [-111.43915794548579, 26.17674836670983], [-111.43952992704865, 26.17523659336783], [-111.43808110873756, 26.173937150171614], [-111.43742714121164, 26.174531664888985], [-111.4374296564948, 26.175205582955215], [-111.43382958534653, 26.17521647801637], [-111.43583061691974, 26.1730258686483], [-111.43544874535158, 26.171886713989718], [-111.43667216178623, 26.17003136347133], [-111.43666802343989, 26.168920388972367], [-111.43830286241968, 26.16743410500926], [-111.43764334465222, 26.166531902769115], [-111.4370630630301, 26.167059460264284], [-111.43461960969364, 26.16706685697558], [-111.43560010438883, 26.166175479059945], [-111.43518864502352, 26.16580639406404], [-111.43559735270503, 26.165434828910428], [-111.43501274859159, 26.164910426030946], [-111.43500566167903, 26.16300015344525], [-111.43578931861641, 26.161916119289284], [-111.4351721523895, 26.161362491548527], [-111.435817551213, 26.16077572183556], [-111.43580406546474, 26.157146532755693], [-111.43679150293899, 26.15803233238728], [-111.43744538300773, 26.157437820322123], [-111.43783909860777, 26.15305939926472], [-111.43981262831649, 26.15231272687674], [-111.44110941053201, 26.150390380312167], [-111.44109409686007, 26.146316797623868], [-111.44150271863154, 26.145945215809054], [-111.44189321114028, 26.14075939581676], [-111.4422694573651, 26.140417234748643], [-111.44064815262668, 26.136748221352715], [-111.44063703341988, 26.133785610195826], [-111.43998742234444, 26.133202775197134], [-111.44039600266896, 26.132831196384643], [-111.43939603287951, 26.130826752821406], [-111.43897225932001, 26.12713281868835], [-111.44101388129823, 26.127126586204692], [-111.44347636586197, 26.1278596923825], [-111.44594169301664, 26.129333408921692], [-111.44799147010399, 26.129327051988046], [-111.44915145771232, 26.130367701523323], [-111.44980251624466, 26.13132082120066], [-111.4491896978445, 26.131878228432498], [-111.44956992346937, 26.132588380128052], [-111.45087821997649, 26.133762016143248], [-111.45162428622501, 26.13375967992302], [-111.45228083327672, 26.136127359464872], [-111.44942374028157, 26.139469270973255], [-111.450012538666, 26.14110459496014], [-111.4508353762037, 26.141842682579046], [-111.45084413677675, 26.144123282112687], [-111.4500324188684, 26.14628915179208], [-111.45092943323193, 26.147093738141116], [-111.45414380681518, 26.147083640409374], [-111.45496096920394, 26.14634040268689], [-111.45625677514307, 26.14633630444819], [-111.45824282602894, 26.148855574947856], [-111.4621830249318, 26.15202010827993], [-111.46177444875481, 26.152391747865575], [-111.46236056703682, 26.153286366629626], [-111.46236932492256, 26.155508312428775], [-111.4630191708014, 26.156091041613895], [-111.46237393543382, 26.156677931500177], [-111.46238100369553, 26.158470905756896], [-111.46303086628846, 26.159053634429707], [-111.46180506576346, 26.16016855676162], [-111.46221658761922, 26.160537565150136], [-111.461571324078, 26.161124451459962], [-111.46158129693315, 26.163658072580297], [-111.46412616256502, 26.166308922535855], [-111.46494632980485, 26.16630627634863], [-111.46610683655592, 26.16734677715951], [-111.46610978121315, 26.168087423995285], [-111.46947800979967, 26.171476163330524], [-111.4700608968593, 26.17162972639709], [-111.47104966197666, 26.17073037361496], [-111.47193563581834, 26.170727471957004], [-111.4733432066885, 26.171989299192184], [-111.47399697539478, 26.17139462371073], [-111.473581126908, 26.169973328161177], [-111.46864516997296, 26.16628619979876], [-111.46864220953361, 26.165545553046197], [-111.46781909290391, 26.164807573298596], [-111.46780139670678, 26.16037177466616], [-111.468547630378, 26.16036934854745], [-111.46940606314367, 26.159588487796146], [-111.46796568182093, 26.158297025707316], [-111.46861089756618, 26.157710111156256], [-111.46860373431241, 26.155917138300946], [-111.46695027867175, 26.15258954912426], [-111.46693406634918, 26.14851598230196], [-111.46603693284152, 26.14771149738238], [-111.46398537555169, 26.14734779069915], [-111.461999228723, 26.14482860015132], [-111.46198296295377, 26.14069637951103], [-111.46361123875988, 26.13772851154237], [-111.46680424369835, 26.134451966582876], [-111.4680260409385, 26.134448003541532], [-111.46802872741765, 26.135121922502528], [-111.46909850798447, 26.136081301248286], [-111.4713856393066, 26.135918371587124], [-111.47344149775604, 26.137392949719217], [-111.47419570400861, 26.1373904696513], [-111.47705955773425, 26.135899698790748], [-111.4786994639409, 26.135894260261587], [-111.48081384929228, 26.133598512486603], [-111.48080202151417, 26.130709981715164], [-111.48261253448331, 26.132333379892568], [-111.48408290798749, 26.130995262312467], [-111.48407985478251, 26.130254613597398], [-111.4873410648329, 26.12579966856788], [-111.48930946290997, 26.12400808363899], [-111.49053617286887, 26.123263254978106], [-111.492651580573, 26.123256040624863], [-111.49504794521658, 26.1257734047101], [-111.49505727679686, 26.127987263884165], [-111.49260570756164, 26.127995663806082], [-111.48973298188244, 26.12726479480072], [-111.48857043716572, 26.12763906974889], [-111.4872716113509, 26.12882118703342], [-111.48728390463499, 26.1317837806191], [-111.48565171633184, 26.133640936855905], [-111.48607370706732, 26.13654350038513], [-111.48672356223108, 26.137126123989333], [-111.48607854989146, 26.137713118513314], [-111.48608290731745, 26.13876544370412], [-111.48691056003405, 26.140614293828396], [-111.48691977777752, 26.142836235615096], [-111.48857280085339, 26.144008357109612], [-111.49028023177426, 26.142454510309744], [-111.49027741666491, 26.141780594233015], [-111.4926604057686, 26.14103180805112], [-111.49518146645578, 26.13799380448259], [-111.4955789429727, 26.13502980760472], [-111.49632216356024, 26.134353323693148], [-111.49836389427853, 26.13434627706584], [-111.49837304295129, 26.136501486207013], [-111.49960770305009, 26.13760819654019], [-111.50002557133209, 26.139458389732493], [-111.50092287009588, 26.140262661508785], [-111.50331705275596, 26.14025431776725], [-111.5041338521169, 26.139510805466262], [-111.50706952287366, 26.13950050389916], [-111.50994908665763, 26.141712309601925], [-111.5115922942442, 26.142447140018437], [-111.51275652589449, 26.14244300117159], [-111.51773047480425, 26.137914547325394], [-111.51690424837912, 26.136494848702622], [-111.51436048748913, 26.13421525059292], [-111.51361442525614, 26.134217911646232], [-111.51360985732063, 26.13317367466605], [-111.51278669304398, 26.13243594937804], [-111.51278320249152, 26.13163665786077], [-111.51581173859664, 26.12850738198001], [-111.51540016498781, 26.128138525862262], [-111.51604497664661, 26.127551402231198], [-111.51603684114312, 26.1256997884699], [-111.51766680261343, 26.123471971925934], [-111.51765400604228, 26.120568034999188], [-111.5168309065861, 26.119830330582534], [-111.51682576144164, 26.118660715070416], [-111.51845561257993, 26.116432889129573], [-111.51842976732935, 26.110574447307027], [-111.52204323237432, 26.11019108121973], [-111.5232695871153, 26.109445977813476], [-111.52538308003278, 26.1090679637739], [-111.52654519800087, 26.110478309450627], [-111.52696504532845, 26.112698749406032], [-111.52827387763995, 26.11387167820521], [-111.53025116907946, 26.11423474868046], [-111.53109744399887, 26.12009015836025], [-111.5319948015614, 26.12089423784952], [-111.53527416656001, 26.120882098241072], [-111.53726479527103, 26.122356005133717], [-111.5413538095209, 26.120118739241175], [-111.54707195844689, 26.11565321800639], [-111.54871156398174, 26.115646987195547], [-111.54952790290385, 26.11490322217079], [-111.551985554771, 26.114523506129927], [-111.55450974709191, 26.11259544962388], [-111.55614054595728, 26.110737529490955], [-111.556137357163, 26.110063617553482], [-111.5581093876009, 26.109315342598364], [-111.56309366922834, 26.109295965282495], [-111.5647367402036, 26.1100301950042], [-111.56589755084967, 26.111069895135284], [-111.56590318261637, 26.112239502372194], [-111.56311460240804, 26.113664998443532], [-111.56188492205567, 26.113669795805777], [-111.56083187649072, 26.11462941332304], [-111.56021438292763, 26.114076322628794], [-111.55693725595403, 26.116318693734417], [-111.55731631922662, 26.116658232985113], [-111.55732889354093, 26.119309123663157], [-111.55610616452542, 26.12079515525909], [-111.55610967054113, 26.121535796457405], [-111.55251308949583, 26.125556496177353], [-111.54597133013968, 26.12928469835171], [-111.54187696392317, 26.1304111331018], [-111.5373674755632, 26.13042801805682], [-111.53695921522801, 26.130799867356025], [-111.53368125725983, 26.131182371053892], [-111.53156460937478, 26.132738236323785], [-111.52994147551591, 26.136447490990598], [-111.52994816238602, 26.13792877653273], [-111.52832157462107, 26.140897369668334], [-111.5242431685717, 26.14572652378259], [-111.51893107706533, 26.14981935841017], [-111.5168956476097, 26.153159622416318], [-111.51444680882341, 26.1557606805195], [-111.5136348296546, 26.15761521431912], [-111.51284387878204, 26.164283918097272], [-111.51104622446044, 26.167779090323144], [-111.51170536530321, 26.168369647004557], [-111.51498606784513, 26.168357949278327], [-111.51580950193772, 26.169095654369666], [-111.51902444758194, 26.16908409996386], [-111.52718960787224, 26.160907255144306], [-111.52800972948039, 26.160904250306082], [-111.53291699430969, 26.15792356268742], [-111.5341471442333, 26.157919005232763], [-111.53496386587871, 26.157175321020464], [-111.53619400754293, 26.157170746203054], [-111.5370107108684, 26.15642705058742], [-111.53824084427168, 26.156422458408407], [-111.5402842430196, 26.154933502197334], [-111.54110432110355, 26.154930423434603], [-111.54485276835712, 26.151516624736427], [-111.54484932876548, 26.15077598521573], [-111.54640722840693, 26.148985183713854], [-111.55049698112741, 26.146747654709106], [-111.55539956957645, 26.143025574427828], [-111.5574460334841, 26.142277018122353], [-111.55874428706852, 26.141094279103708], [-111.55874076140404, 26.140353640248374], [-111.55955720435284, 26.139609819211195], [-111.55955367379008, 26.13886918030626], [-111.56118651858007, 26.13738152468105], [-111.56118297808518, 26.13664088575395], [-111.56641406826029, 26.131502580925687], [-111.57132992709553, 26.130742523536558], [-111.57173807645732, 26.13037057862902], [-111.57549338749645, 26.130355631739935], [-111.57665449610555, 26.131395237418342], [-111.57666205879195, 26.132935157842976], [-111.57503128809766, 26.134793304190048], [-111.57503854336962, 26.13627457878189], [-111.57225492860162, 26.138811210533287], [-111.56856689625369, 26.139196136910186], [-111.56611057486198, 26.139946460938393], [-111.56358599806282, 26.141874719794405], [-111.56359282952553, 26.14329735027668], [-111.56449058614851, 26.14410121843976], [-111.56933849454745, 26.144452466849952], [-111.56934923529258, 26.146666293503948], [-111.56778992886719, 26.148087019078368], [-111.56328689234569, 26.149586000793455], [-111.56198859311691, 26.15076878014675], [-111.56363907797572, 26.152925637464936], [-111.56364825639062, 26.154835875183252], [-111.56283173581284, 26.155579719144924], [-111.56202202164287, 26.157746186582447], [-111.56291988025555, 26.158550061304144], [-111.56456186318766, 26.15891395864835], [-111.56531441187063, 26.15854068131272], [-111.57104879018019, 26.15888838130831], [-111.57105416027306, 26.159991250003422], [-111.5673762090754, 26.16259806240517], [-111.56738130084926, 26.163650370172807], [-111.56820681973268, 26.164758088973077], [-111.56821787214085, 26.16703863952069], [-111.56740639081559, 26.16883481606249], [-111.56946581412248, 26.17067830658902], [-111.57029500682948, 26.17252664536627], [-111.5724269572334, 26.17406621070932], [-111.5748218017922, 26.17405666740132], [-111.57931829587892, 26.1710760508779], [-111.58013848137465, 26.17107274797235], [-111.58463103051729, 26.16735133561707], [-111.58749346396228, 26.167339683750676], [-111.58750426446363, 26.169494851109054], [-111.59079988798037, 26.1724439519423], [-111.59080578349271, 26.17361354406089], [-111.58671960454515, 26.17659284399113], [-111.5867418554409, 26.181036631820696], [-111.58477403120835, 26.1828295257998], [-111.58395376410351, 26.182832856499115], [-111.58290029296558, 26.183792633517804], [-111.58248831469628, 26.183423978481954], [-111.58061058261896, 26.18358702961712], [-111.57814245339146, 26.182115672723192], [-111.57445126844237, 26.18213045359831], [-111.57362737858469, 26.181393092658126], [-111.57287290132659, 26.181396097833122], [-111.57198268037865, 26.18220701672261], [-111.57198962594826, 26.18362963716054], [-111.57281714318036, 26.185107639682872], [-111.57371528788649, 26.185911439362318], [-111.57528378023643, 26.186275500792664], [-111.57529647204458, 26.18885962817887], [-111.57284640692062, 26.191091342233555], [-111.57226982987541, 26.19236044447427], [-111.57268180859002, 26.192729128324405], [-111.57206926851433, 26.193287049780363], [-111.57327803730627, 26.19547485305509], [-111.57476122420285, 26.196802097296725], [-111.57869191969253, 26.197001199071504], [-111.5811603732084, 26.198472538139775], [-111.58272721289288, 26.198466199671888], [-111.583558332349, 26.200618033686364], [-111.58445667057138, 26.201421761357878], [-111.58814845701446, 26.201406713608655], [-111.58897258000935, 26.20214398544154], [-111.59094071231878, 26.2021359131618], [-111.58931628112495, 26.20361578078627], [-111.58931967411256, 26.204289680050618], [-111.58857317523089, 26.204292736743003], [-111.58611934184958, 26.205784044766478], [-111.58441229724257, 26.2073390092661], [-111.58442709227518, 26.21030152335594], [-111.58361032656875, 26.21104548374903], [-111.58361926948366, 26.212838409676106], [-111.5860899764995, 26.214679968143145], [-111.58609554208994, 26.215790909602852], [-111.58691975559442, 26.216528190235955], [-111.58692347150698, 26.217268817594285], [-111.58823408160329, 26.218441155485177], [-111.59069749924397, 26.218801376820444], [-111.59234228603395, 26.219535251699178], [-111.59440300303625, 26.22137835066361], [-111.59514961014408, 26.221375261851676], [-111.59516276050967, 26.223959367434], [-111.59353480961256, 26.22655834207235], [-111.5915644668558, 26.227981016173082], [-111.58985749412255, 26.227988031111096], [-111.58700363394334, 26.225066846062834]], [[-111.43763925529183, 26.165436346314884], [-111.43805646185918, 26.165057039108042], [-111.43763643326882, 26.164680277848998], [-111.43721922664542, 26.16505958385876], [-111.43763925529183, 26.165436346314884]], [[-111.47375773773646, 26.17308350010083], [-111.47310395852176, 26.173678174502278], [-111.47310966864673, 26.175092734669487], [-111.4723633417444, 26.175095185704773], [-111.47106383274624, 26.17627715860353], [-111.47028041127665, 26.177361379574503], [-111.4708978263341, 26.177914852273474], [-111.46844744582843, 26.180515140736787], [-111.46951806721474, 26.18147487859607], [-111.47109134109853, 26.181099410129747], [-111.47395030210917, 26.178127405132873], [-111.47558779367411, 26.177381349110338], [-111.47926677223772, 26.174406527541116], [-111.48097476403562, 26.172852789692275], [-111.480971998654, 26.17217887552868], [-111.48212840916412, 26.1721750072184], [-111.48465346333137, 26.16987783245779], [-111.48587760841168, 26.168392396392857], [-111.48587300408772, 26.167281429355857], [-111.48995838481774, 26.163564309404734], [-111.48995064829121, 26.161712697466953], [-111.49076637638912, 26.160657583529552], [-111.49010780046655, 26.160067302075273], [-111.48904565881928, 26.161033765350112], [-111.4882332403955, 26.16288816088419], [-111.47965357374535, 26.17069387970889], [-111.47884094152802, 26.172548222774257], [-111.47687157932118, 26.174339666202464], [-111.47441903472378, 26.174347770079372], [-111.47441630685408, 26.173673855410044], [-111.47375773773646, 26.17308350010083]], [[-111.45092630343781, 26.163388237378467], [-111.45181723454421, 26.162578055041752], [-111.4522215934238, 26.16109546998888], [-111.45132326225352, 26.15997921667721], [-111.44728699668813, 26.159621480957796], [-111.44557733473751, 26.1608045005459], [-111.4454081770064, 26.161701523179353], [-111.44730140719521, 26.1633995435602], [-111.45092630343781, 26.163388237378467]], [[-111.45308952254513, 26.181860456082404], [-111.45222481251874, 26.18108511185201], [-111.4494196421088, 26.181093898735295], [-111.44856091908245, 26.181874641817686], [-111.44942561112454, 26.18265000821741], [-111.45058882840813, 26.182276043080023], [-111.45223081878859, 26.182641220733927], [-111.45308952254513, 26.181860456082404]], [[-111.47678164152859, 26.160312622971244], [-111.4774029782052, 26.15974736283685], [-111.47677706232696, 26.159186234829885], [-111.47615572551483, 26.159751492308057], [-111.47678164152859, 26.160312622971244]], [[-111.47535267824736, 26.159754145363287], [-111.47431521615773, 26.15882403607543], [-111.4735308577514, 26.1595375752782], [-111.4714790715618, 26.15917397906335], [-111.47082494295685, 26.159769019995764], [-111.47148383867274, 26.16035976494692], [-111.47223819277728, 26.160357293115727], [-111.47288381201324, 26.159769983085727], [-111.47411848408925, 26.160876908275686], [-111.47535267824736, 26.159754145363287]], [[-111.4919445925646, 26.158039654777262], [-111.49353772204968, 26.156589925387138], [-111.49355012378048, 26.15953708643659], [-111.49232772223935, 26.16139290919646], [-111.49233549619044, 26.163244520555086], [-111.49134964870895, 26.16488503840883], [-111.49176984802193, 26.16526164059994], [-111.49324052163543, 26.163923431273545], [-111.49323460232604, 26.16251620700933], [-111.49422251288436, 26.16340160562558], [-111.49487612690557, 26.162806836789446], [-111.49486987571203, 26.16132554821912], [-111.49527837605099, 26.16095381622839], [-111.4948638724696, 26.159902905467305], [-111.49484824778486, 26.15619968196711], [-111.49319716250949, 26.153613050087724], [-111.49319224531918, 26.152443435788552], [-111.49891066400048, 26.14723914950207], [-111.49890304110963, 26.145446182080747], [-111.49800571570218, 26.144641898673584], [-111.49677569797235, 26.144646145418132], [-111.49513098675754, 26.14354082225318], [-111.4938962580723, 26.144352449102914], [-111.49023251174329, 26.150660546008012], [-111.490243098964, 26.153194160236442], [-111.49106937225007, 26.154672657671497], [-111.4910802249623, 26.157264916349714], [-111.4919445925646, 26.158039654777262]], [[-111.54324372665808, 26.174179303085143], [-111.54413409009973, 26.17336855884182], [-111.54412748574971, 26.17194592960944], [-111.54281783885399, 26.170773166802856], [-111.538372575457, 26.17078985939645], [-111.53748219072496, 26.171600568608653], [-111.53748871432077, 26.173023199473576], [-111.53879833439717, 26.17419601083996], [-111.54324372665808, 26.174179303085143]]]}}]}
