{"type": "FeatureCollection", "features": [{"type": "Feature", "properties": {"uga": "27", "politica": "conservacion", "procedencia": {"metodo": "digitalizacion-semiautomatica", "fuente": "Mapa de ubicación de la ficha UGA 27, Boletín Oficial No. 12 (12-mar-2014), p. 238 del PDF", "datum": "UTM 12N con desplazamiento de +30 m E y +165 m N ajustado contra la costa (INC-011)", "correccion_borde_px": 1.4, "precision_aprox_m": 102.0, "escala_por_superficie": false, "revisada_en_qgis": false}, "control": {"residuo_georreferencia_m": 29.8, "area_digitalizada_ha": 12982.69, "escala_por_superficie": false, "superficie_ficha_ha": 13049.58, "diferencia_area_pct": -0.5}}, "geometry": {"type": "Polygon", "coordinates": [[[-111.52304596103636, 26.015488652352463], [-111.52403270720777, 26.016375438340273], [-111.52405975836345, 26.022466998686458], [-111.52202730440953, 26.02525283818734], [-111.5220314025182, 26.026178984702206], [-111.51447771716428, 26.03121615599045], [-111.50987668693675, 26.031232463692675], [-111.50732454104262, 26.032167608124112], [-111.50570464850485, 26.03364633369013], [-111.5057165634263, 26.036424776779892], [-111.50214965412346, 26.039215702104233], [-111.50165577014552, 26.04330133853508], [-111.50072573958437, 26.043304565241176], [-111.4997071077541, 26.044234253488444], [-111.49561684242714, 26.044248344947448], [-111.49204752297189, 26.046575950719905], [-111.48897975976614, 26.04658636837944], [-111.48634065916997, 26.048994486958268], [-111.4863444811412, 26.049920635528093], [-111.48541786585105, 26.050766109564737], [-111.48431243708313, 26.050769820624694], [-111.47918424690015, 26.04708227748373], [-111.47825418337494, 26.047085359934233], [-111.47825076548297, 26.046243013448326], [-111.47383577140914, 26.041811980404432], [-111.4733263561754, 26.04227673210342], [-111.47281322243786, 26.041815330702885], [-111.47209034086588, 26.042474820876656], [-111.46902267539218, 26.042484813232804], [-111.4680037966616, 26.04341428142723], [-111.46595866902865, 26.04342089260525], [-111.46493975781058, 26.044350339506565], [-111.46085308848426, 26.045289599176982], [-111.4598341205027, 26.046219010584466], [-111.45625864249708, 26.047156512818965], [-111.45268666362497, 26.049020080341858], [-111.44186639902773, 26.049053587554702], [-111.43981425381412, 26.04720752026807], [-111.4357238502837, 26.04721991718526], [-111.43469783325442, 26.04629684266175], [-111.43316394304713, 26.046301450597564], [-111.43213795389102, 26.04537835741906], [-111.43009278210933, 26.04538446127073], [-111.42906682476149, 26.044461345759228], [-111.42548780011437, 26.04447193206142], [-111.42241674429137, 26.043554777963394], [-111.41730388625176, 26.04356963825748], [-111.41585795137516, 26.04226836140101], [-111.41585141762779, 26.040416044159716], [-111.41421989909594, 26.038947673467096], [-111.4132817862263, 26.039413444281152], [-111.41166356780069, 26.038954979981302], [-111.40356609757103, 26.038977825637737], [-111.40203545451702, 26.039908262341747], [-111.40041884386858, 26.03991275197567], [-111.3989731383493, 26.038611302724075], [-111.39640591214312, 26.0353767744315], [-111.39639477597143, 26.032063602158267], [-111.39741256982764, 26.030671550696177], [-111.39740788920999, 26.029282307391806], [-111.39842721154245, 26.028353329839756], [-111.39943711037185, 26.02464585772929], [-111.40147090071866, 26.021398622867547], [-111.40146617424233, 26.020009378469616], [-111.4052376051529, 26.013319911501764], [-111.40472486170763, 26.012858261562567], [-111.40756361195211, 26.009341336926912], [-111.4085730688193, 26.00563379657343], [-111.41031536263004, 26.003580777250846], [-111.41009517798574, 26.002387881783378], [-111.41162043219137, 26.000068114988462], [-111.41212345127815, 25.997751248235897], [-111.41365022829883, 25.99589454213528], [-111.41465938476779, 25.99218695610425], [-111.41567825359438, 25.99125785761687], [-111.41567366118674, 25.98995241481816], [-111.4166957688933, 25.989949474397747], [-111.41668894161417, 25.988013339014046], [-111.4187232785781, 25.985228941138658], [-111.41871835687786, 25.983839692799183], [-111.42075092698852, 25.98059218335795], [-111.42074763060307, 25.979666017475658], [-111.42176634446383, 25.978736876419934], [-111.42176138842055, 25.97734762737752], [-111.42278007450452, 25.976418479233487], [-111.42267939696397, 25.948241963891746], [-111.42165105304674, 25.94639260220667], [-111.42164115821981, 25.943614091399127], [-111.42061616149749, 25.942690891214458], [-111.42060793729493, 25.940375464123658], [-111.41928711760522, 25.939185763527345], [-111.4205994598038, 25.93798842971478], [-111.42058959332988, 25.93520991530701], [-111.4216062828927, 25.933817688544035], [-111.4215782699123, 25.92594522476794], [-111.42332083721675, 25.924355129860118], [-111.4215173992153, 25.923192152711277], [-111.42104950353381, 25.92361910673997], [-111.4179021842793, 25.923628216126684], [-111.41543458206608, 25.921866750618634], [-111.41440496659565, 25.919554239431513], [-111.41439363464075, 25.916312628373607], [-111.41336893297255, 25.915389369875495], [-111.41335924582235, 25.912610844239573], [-111.41233297420276, 25.911224489644663], [-111.41232170307083, 25.90798287401231], [-111.41129548432485, 25.906596510558437], [-111.4112585585931, 25.895945474116335], [-111.41023245836584, 25.894559099435035], [-111.41022420677709, 25.89217204678993], [-111.41115014323833, 25.89132704475319], [-111.41523193168193, 25.89038923076933], [-111.4249188690249, 25.88619333825093], [-111.42755566166609, 25.88378631688], [-111.4295879889501, 25.8810017519451], [-111.42958494135212, 25.880159380439586], [-111.43263870229534, 25.88015030745782], [-111.4428727350636, 25.8861396424688], [-111.44440628147524, 25.886598045791974], [-111.44994025757346, 25.886580988290717], [-111.45960949013035, 25.878215013971523], [-111.46419489475636, 25.87820041807413], [-111.4652447358155, 25.885522725210297], [-111.46627139262603, 25.88690870508293], [-111.4662768497638, 25.88829796306636], [-111.46833757021777, 25.8929222406062], [-111.47859689364118, 25.90446601844064], [-111.48065838293148, 25.909090100009347], [-111.48017393641281, 25.915574960954086], [-111.48171929341581, 25.918811459076792], [-111.48274454953179, 25.919734226420488], [-111.48274832159642, 25.920660392031184], [-111.48377360184067, 25.92158315152073], [-111.4837871264272, 25.92489633539747], [-111.48073754583609, 25.92861119349064], [-111.48177953789508, 25.933630098710847], [-111.48280681218327, 25.935015943794607], [-111.4828351299923, 25.941962168262933], [-111.48694852670505, 25.94843162162941], [-111.49442575867238, 25.95561993394454], [-111.4932060920166, 25.956733806970508], [-111.48809895128466, 25.957214199178786], [-111.48351024460841, 25.959545027848506], [-111.47883485376775, 25.963349064324785], [-111.47883860252317, 25.96427522489138], [-111.47782046636905, 25.965204761844664], [-111.4778260781199, 25.966594002500013], [-111.47690004440467, 25.967439423335463], [-111.4717960605008, 25.968845407960256], [-111.47026686655082, 25.96977655707076], [-111.46618281263822, 25.970715941281114], [-111.4626060407492, 25.970727416988733], [-111.46209688258129, 25.97119213010275], [-111.45596524408892, 25.971211575880083], [-111.45443589244071, 25.972142559527747], [-111.45239199502683, 25.972148962352154], [-111.44882220328981, 25.974012424499776], [-111.44728925486827, 25.97401717018679], [-111.44444370618521, 25.97568423849691], [-111.44393097724686, 25.97522272501153], [-111.44320833357469, 25.975882073569974], [-111.44116436838091, 25.975888318681942], [-111.43912384226691, 25.976820699055], [-111.4355468723787, 25.976831508470468], [-111.43452828450414, 25.97776074521247], [-111.43197328434238, 25.977768394369235], [-111.431168077482, 25.978502923910565], [-111.43065538723542, 25.97804136306348], [-111.42942164718667, 25.978702163499456], [-111.42686662496153, 25.978709722752566], [-111.4252480982051, 25.98065064416887], [-111.42322560114062, 25.986676710022376], [-111.42169744054587, 25.988070433885884], [-111.42170044653429, 25.988912793709567], [-111.42077083395272, 25.988915500419296], [-111.41945607314256, 25.990114533338343], [-111.41821722700301, 25.989385992148485], [-111.41740029907534, 25.99013098465208], [-111.41975894699037, 25.991792967278332], [-111.42129213157014, 25.99178851035305], [-111.4238158891725, 25.99452216221695], [-111.42734880299989, 25.99362309164316], [-111.42990414749106, 25.993615519847467], [-111.43041352922432, 25.993150918561803], [-111.43654461624921, 25.99266945963473], [-111.43909649502163, 25.99173556355726], [-111.44165179469734, 25.991727784763576], [-111.4574802860076, 25.987973908579512], [-111.4758777867883, 25.98791456386395], [-111.48605479649542, 25.97722977621555], [-111.49013302316484, 25.977216021428383], [-111.49016531786626, 25.98500455006673], [-111.49119507070108, 25.986853396049565], [-111.49120276993828, 25.988705707649775], [-111.49222871404764, 25.98962838924849], [-111.49223835964843, 25.99194377742604], [-111.49326820704815, 25.993792605548517], [-111.49643911238495, 25.996644065453363], [-111.50359813523592, 25.997545483561037], [-111.50411119190723, 25.998006779527223], [-111.5055596902928, 25.99753864051404], [-111.5116926496293, 25.99751707356427], [-111.51220172130144, 25.997052188782497], [-111.51790633767831, 25.997031874862788], [-111.51893256038719, 25.997954361830367], [-111.51986223095663, 25.997951023307923], [-111.51986593829747, 25.998793370070096], [-111.52089219161316, 25.99971584244441], [-111.52090240343992, 26.002031217106275], [-111.5229591007475, 26.004802286689554], [-111.52348663507235, 26.008505032387376], [-111.5239998165404, 26.008966255205287], [-111.52402480123453, 26.014594748020052], [-111.52304596103636, 26.015488652352463]], [[-111.46177450152537, 26.019450022185524], [-111.46578114525852, 26.01943716732906], [-111.46689201436534, 26.018423611546112], [-111.46688313795315, 26.01617982858909], [-111.4657643183142, 26.015173465005482], [-111.46278013910029, 26.015183048499342], [-111.46166926419667, 26.016196573201665], [-111.46069535432453, 26.01847929609504], [-111.46177450152537, 26.019450022185524]]]}}]}
