{"type": "FeatureCollection", "features": [{"type": "Feature", "properties": {"uga": "28", "politica": "preservacion", "procedencia": {"metodo": "digitalizacion-semiautomatica", "fuente": "Mapa de ubicación de la ficha UGA 28, Boletín Oficial No. 12 (12-mar-2014), p. 241 del PDF", "datum": "UTM 12N con desplazamiento de +30 m E y +165 m N ajustado contra la costa (INC-011)", "correccion_borde_px": 1.4, "precision_aprox_m": 37.0, "escala_por_superficie": false, "revisada_en_qgis": false}, "control": {"residuo_georreferencia_m": 9.2, "area_digitalizada_ha": 280.03, "escala_por_superficie": false, "superficie_ficha_ha": 281.32, "diferencia_area_pct": -0.5}}, "geometry": {"type": "Polygon", "coordinates": [[[-111.39708496690314, 26.237386865362335], [-111.39680717318863, 26.237137871300458], [-111.39663781473251, 26.237291542638314], [-111.39586922570085, 26.23712715432055], [-111.39349853719004, 26.237133665259453], [-111.39291570282312, 26.237301767623098], [-111.39273051286496, 26.237135766200154], [-111.39125291366031, 26.23697328898657], [-111.38792515215667, 26.235650248696505], [-111.38629296175236, 26.234519045403808], [-111.38628966032412, 26.233520007530878], [-111.38599710340237, 26.23325772803709], [-111.38628792175274, 26.23299388116698], [-111.38628580887683, 26.23235446316976], [-111.38525202179957, 26.231261633046568], [-111.3854360939407, 26.231094631678676], [-111.38517313468348, 26.230858878600788], [-111.38517148899786, 26.230359359361298], [-111.38369388199398, 26.229034594992644], [-111.3843954288865, 26.22903272058597], [-111.3847819750982, 26.22868201969181], [-111.38405447295797, 26.227531713455868], [-111.38331382865397, 26.226867658450683], [-111.38331264979284, 26.226508037961963], [-111.38404782316852, 26.22550702769106], [-111.38367540859751, 26.22453558161372], [-111.38367267723685, 26.22370304864945], [-111.38141917050147, 26.22218051767888], [-111.38108316739527, 26.222181408725017], [-111.38071134119147, 26.22137980780091], [-111.3791974100665, 26.22018829693176], [-111.37886141259655, 26.220189182723075], [-111.37848906928323, 26.219221068790276], [-111.37811878832048, 26.218889026602643], [-111.37811556979054, 26.217893332558443], [-111.37845156069494, 26.217892448581793], [-111.37922091436546, 26.217194433802373], [-111.37921767584572, 26.216195392694033], [-111.37955267858834, 26.215891446890588], [-111.38029106637482, 26.215889495917008], [-111.38058185509769, 26.21562566028865], [-111.38087435537933, 26.21588795206583], [-111.38272032436366, 26.21588305055586], [-111.38623206194093, 26.21720572614719], [-111.38897548737444, 26.21949948965703], [-111.38971833534144, 26.220829542565138], [-111.38990960094048, 26.22282712031702], [-111.39031323837936, 26.22318899562847], [-111.39086706307461, 26.223187490923547], [-111.39290055021729, 26.224014487531672], [-111.39345437864989, 26.22401297281543], [-111.39493294116777, 26.224508442240698], [-111.3975237099626, 26.226332887808823], [-111.39863365865544, 26.226995845314352], [-111.39896967489084, 26.226994913092103], [-111.39897070893748, 26.22729797122773], [-111.40082256185781, 26.228957896905907], [-111.40137927122224, 26.229788881986675], [-111.401753085384, 26.23111989910254], [-111.4017606157046, 26.23331108499683], [-111.40139536998774, 26.234477658800273], [-111.40084434745444, 26.235311734679833], [-111.39940499371951, 26.236617848211633], [-111.39829892041801, 26.237120440744388], [-111.39737577005651, 26.237122996372975], [-111.39708496690314, 26.237386865362335]], [[-111.39355402435824, 26.23057645664205], [-111.39403257684542, 26.230142225292852], [-111.39402929958918, 26.22916979509933], [-111.39362562989257, 26.228807930886358], [-111.3925474290188, 26.228810879452958], [-111.391962140373, 26.22934195476118], [-111.39196428401239, 26.229981372594327], [-111.39255313128872, 26.230509243600718], [-111.39355402435824, 26.23057645664205]]]}}]}
