{"type": "FeatureCollection", "features": [{"type": "Feature", "properties": {"uga": "29", "politica": "conservacion", "procedencia": {"metodo": "digitalizacion-semiautomatica", "fuente": "Mapa de ubicación de la ficha UGA 29, Boletín Oficial No. 12 (12-mar-2014), p. 244 del PDF", "datum": "UTM 12N con desplazamiento de +30 m E y +170 m N ajustado contra la costa (INC-011)", "correccion_borde_px": 1.4, "precision_aprox_m": 93.0, "escala_por_superficie": false, "revisada_en_qgis": false}, "control": {"residuo_georreferencia_m": 83.4, "area_digitalizada_ha": 5034.16, "escala_por_superficie": false, "superficie_ficha_ha": 5278.51, "diferencia_area_pct": -4.6}, "georreferencia": {"a_x": 46.62566425592161, "b_x": 446333.1860679034, "a_y": -46.759198900614344, "b_y": 2914372.6241661133, "factor_render": 1, "pagina_mapa": 244, "ficha_mapa": "29"}}, "geometry": {"type": "MultiPolygon", "coordinates": [[[[-111.3469235144455, 26.10921128173663], [-111.34925510526709, 26.10920565353011], [-111.35337872495006, 26.112919113974407], [-111.35338272947406, 26.114250840461253], [-111.35253679827147, 26.115020894388753], [-111.34508416553716, 26.11503892433502], [-111.34460938150093, 26.112160987784257], [-111.33844905539871, 26.10745472812563], [-111.33760086799732, 26.10745671626468], [-111.33759866243622, 26.106688736793192], [-111.33470894409567, 26.104085709949533], [-111.3319111526447, 26.10409217586959], [-111.33050988271783, 26.10325095659008], [-111.32919542951204, 26.103253962817263], [-111.3291932792622, 26.102485982239724], [-111.32798857393674, 26.10140063773634], [-111.32872208328266, 26.100733097503355], [-111.32964300100097, 26.096573890082556], [-111.32870810293025, 26.095731585173294], [-111.32823241121756, 26.092354914046172], [-111.32749524302305, 26.09169071809449], [-111.33008302133383, 26.087218973716592], [-111.33007591465808, 26.084685671720393], [-111.33050510842038, 26.08429501166942], [-111.32980400298953, 26.083663286036135], [-111.33193008324196, 26.080881439871547], [-111.32959095533701, 26.077996344676265], [-111.3295838939719, 26.075474407186267], [-111.33983114129485, 26.075450644059075], [-111.34216697392733, 26.077134005296344], [-111.34449793017347, 26.07712846031954], [-111.34516117862015, 26.07772597516278], [-111.34768318345404, 26.076276382685702], [-111.3486911482448, 26.07627395104738], [-111.34962603150484, 26.077116128862148], [-111.35047399908777, 26.077114072213398], [-111.35047628577647, 26.077882053792713], [-111.35149583815844, 26.078800465620848], [-111.35374615824331, 26.07710608925884], [-111.35708508198574, 26.077097866949693], [-111.35942376956093, 26.07962537787134], [-111.36054942950891, 26.078955010956133], [-111.36128857061848, 26.07962072152787], [-111.36261157953166, 26.079617403408655], [-111.36354137145877, 26.07877062586263], [-111.36726962685385, 26.078338967200693], [-111.36913043360481, 26.077067562540407], [-111.37200316105229, 26.07706018669572], [-111.37293821546669, 26.077902211582085], [-111.37425851837486, 26.07705435590645], [-111.37852981121786, 26.077043216730026], [-111.38273374924033, 26.07956544176003], [-111.38451412884837, 26.079560709169606], [-111.3845207392207, 26.081583964093163], [-111.38087413486676, 26.081171416044054], [-111.37920949187924, 26.08268779492683], [-111.37640547070976, 26.08058404285847], [-111.37574587460368, 26.0811848596962], [-111.37333925351786, 26.081191105786626], [-111.37240416982661, 26.080349084195845], [-111.37108115414225, 26.080352492174377], [-111.3689501862028, 26.081869952203704], [-111.36821098797462, 26.081204281691456], [-111.36735416823734, 26.081206465326048], [-111.36549458847799, 26.082900062857327], [-111.36335828678459, 26.082728578520687], [-111.36176747971075, 26.083753892710874], [-111.36029323565621, 26.08375758114611], [-111.3588907225596, 26.0824944188813], [-111.35710531272393, 26.08376550556384], [-111.35609728468604, 26.083767996626065], [-111.35422733310956, 26.08208372213118], [-111.3532949124051, 26.082086007894343], [-111.3509600827665, 26.08082504691423], [-111.34843947506502, 26.08276537259775], [-111.3458684765974, 26.08044935015664], [-111.3440438239246, 26.08126392069841], [-111.34124657793265, 26.081270562327102], [-111.34023240750903, 26.082193848469313], [-111.3400381904946, 26.083217313203054], [-111.3417253014419, 26.085579445043585], [-111.34303955544817, 26.085576326580377], [-111.34351785112321, 26.089709561206796], [-111.34266979214851, 26.089711577888213], [-111.34165556106157, 26.09063487356681], [-111.3416577915456, 26.09140285442402], [-111.33867329535353, 26.091233011874035], [-111.33700036891128, 26.093179137430702], [-111.33867479063615, 26.095464878684307], [-111.3375605243693, 26.096479127723494], [-111.33336410952357, 26.096488886596948], [-111.33188466617882, 26.097835407049946], [-111.33188805725673, 26.099036971913065], [-111.33290765146857, 26.099955512029837], [-111.33430649795643, 26.099952276663586], [-111.3352414696101, 26.100794544083353], [-111.3379635762551, 26.10078819149742], [-111.33897792323518, 26.099864921922787], [-111.33917095747385, 26.098419244747674], [-111.33870346559829, 26.097998124466606], [-111.33940104902013, 26.097363156624713], [-111.33869981760569, 26.096731476589788], [-111.33981407630561, 26.095717218858784], [-111.34167031090661, 26.09571283428429], [-111.34167395770082, 26.096968114126433], [-111.34074386442857, 26.0978147516797], [-111.34074612260491, 26.09859409966605], [-111.34261614871656, 26.100278544349113], [-111.34261879883272, 26.101188059146263], [-111.34168867942849, 26.102034702561404], [-111.34169358754355, 26.103723564580328], [-111.34076344156766, 26.104570201996506], [-111.34076937218624, 26.106616195342376], [-111.34178910147264, 26.107534670382297], [-111.34318803685352, 26.107531347989774], [-111.34412313237313, 26.108373555722583], [-111.3459883923462, 26.108369092528648], [-111.3469235144455, 26.10921128173663]]], [[[-111.44331703602097, 26.209811907619358], [-111.44421757246171, 26.210621005414175], [-111.4442223378369, 26.21187624975148], [-111.43964122130019, 26.212312537209602], [-111.43638045700308, 26.214011305458882], [-111.43537131911134, 26.21401436436511], [-111.43400596172273, 26.213208302895385], [-111.43264661472938, 26.21402258813387], [-111.43031296218791, 26.214029590574572], [-111.42603891455362, 26.2170742324169], [-111.42604482833255, 26.2186979688088], [-111.42838939949024, 26.221646464694693], [-111.42839863705552, 26.22416832210868], [-111.42327298719826, 26.224183505249236], [-111.42139981546985, 26.222500172454637], [-111.41816438595309, 26.220855012385705], [-111.41699058615532, 26.221923624348076], [-111.41719611930246, 26.224201269300956], [-111.41533786618545, 26.22420665010661], [-111.41280038562827, 26.22192603728104], [-111.41205594454954, 26.222603707840296], [-111.41253737466295, 26.22675933637105], [-111.41300564835406, 26.22718020075613], [-111.41255399130941, 26.231468669449693], [-111.40938098834837, 26.23435675350269], [-111.40145399882347, 26.2343791148945], [-111.40191504488642, 26.232700357900654], [-111.40143831313439, 26.229811308781738], [-111.39854268270888, 26.226787450528924], [-111.39479986198737, 26.224264520644876], [-111.39386631487211, 26.224267081410584], [-111.39292993048753, 26.22342522415529], [-111.3910628491114, 26.223430315187947], [-111.38974168363598, 26.221821513322777], [-111.38926929882467, 26.220133952599472], [-111.38543934067, 26.216690137560732], [-111.38170125642084, 26.21543347745395], [-111.37936756097677, 26.21543965342773], [-111.37824598236608, 26.214430990203397], [-111.37944389537854, 26.212917554699168], [-111.37944115699652, 26.21207314006101], [-111.38083721155262, 26.21080281680701], [-111.38082759345086, 26.207847364748137], [-111.38218771856722, 26.20660966478775], [-111.38175571442355, 26.206221142360473], [-111.3817458628162, 26.20320060632543], [-111.38267096192058, 26.200664879432715], [-111.38266406169454, 26.198553839848316], [-111.38443956630614, 26.196514498414192], [-111.38677148839805, 26.196086036402118], [-111.38825151908092, 26.194738964134526], [-111.38824312034299, 26.192205716138915], [-111.39289683182899, 26.188393177083945], [-111.39288855325924, 26.185925010740874], [-111.3921504287894, 26.185261164356206], [-111.39284823221921, 26.184625942938396], [-111.39214618887836, 26.1839945393912], [-111.39287983925881, 26.183326678541746], [-111.39287439430693, 26.18170292741838], [-111.39053011652777, 26.178331607771725], [-111.39096713004399, 26.16946395182215], [-111.3883573156362, 26.167116301024283], [-111.38882246152602, 26.166692832303234], [-111.38770127494888, 26.165684231681396], [-111.39187874604553, 26.165672922465028], [-111.39319788053426, 26.166859514770003], [-111.39601283756251, 26.17149614225279], [-111.39601711692336, 26.172762768827006], [-111.39789198928547, 26.175290874583993], [-111.39883376671628, 26.177821542873957], [-111.39884238909227, 26.18035479270352], [-111.40165066202037, 26.182880255445564], [-111.40165500447972, 26.18414687914482], [-111.4023931750111, 26.184810676341446], [-111.40165957037777, 26.18547858503588], [-111.40166536117871, 26.18716741597349], [-111.39934519020525, 26.19097377871017], [-111.39981737405994, 26.19259623048605], [-111.40080036711196, 26.193480139506754], [-111.40262635069261, 26.192664848031157], [-111.4072781372999, 26.188429641909146], [-111.40914170716896, 26.187579932350353], [-111.41054158629501, 26.187575945307415], [-111.41434985772085, 26.18495531103786], [-111.41386534454371, 26.17989016595026], [-111.41545734235252, 26.178440379746913], [-111.4145104447346, 26.17758900645287], [-111.41339421212528, 26.178605525165764], [-111.4133825952051, 26.17531230536684], [-111.41151035593236, 26.17362882128094], [-111.41149108796456, 26.168140115676444], [-111.41055503303926, 26.167298362826614], [-111.410535815161, 26.161809651736107], [-111.40979774584616, 26.161145893016513], [-111.41053115322559, 26.16047794293456], [-111.4105195582111, 26.157165354457952], [-111.4095777019791, 26.154634756375323], [-111.40956590967139, 26.151257082154164], [-111.40862853441931, 26.14999310357211], [-111.40861654521895, 26.146550344062174], [-111.40927819248837, 26.145947686657323], [-111.40953650561734, 26.142832248886776], [-111.41225050739384, 26.145273349140965], [-111.41365881079996, 26.14780259448498], [-111.41412974906413, 26.149067882123212], [-111.4141446525928, 26.15328997350667], [-111.41508510163236, 26.15539833231735], [-111.41958100086597, 26.16028297371353], [-111.42164035234195, 26.159677869335017], [-111.42451446623066, 26.157059698569412], [-111.42451015878208, 26.155869523877236], [-111.42535868733951, 26.155867020285267], [-111.42823108381418, 26.152826567841387], [-111.4282220748685, 26.150358400258146], [-111.42728604530996, 26.149516753822365], [-111.42727989535092, 26.147827919538916], [-111.42634389292026, 26.146986266352588], [-111.42632242030395, 26.141075341818446], [-111.4248337786292, 26.13973664679703], [-111.42258454091525, 26.139321047367396], [-111.42257573788423, 26.136875608645685], [-111.42528676547579, 26.136023204868774], [-111.42630071804801, 26.135099329750716], [-111.4262963966599, 26.13390915170673], [-111.42768680397799, 26.133905031869094], [-111.42853797639879, 26.13467047991038], [-111.42952179006315, 26.148600595218948], [-111.43097265463362, 26.149905121966462], [-111.43326577934893, 26.14951025956675], [-111.43725826611906, 26.146719582452498], [-111.43772630317429, 26.147140373917363], [-111.43847012097716, 26.146462571246236], [-111.43846223346509, 26.144351530561607], [-111.43938881587594, 26.1426598554595], [-111.43937167465697, 26.138080645783177], [-111.4364758088538, 26.13463528770917], [-111.43470716435702, 26.13464063393782], [-111.43605335981825, 26.133413835025138], [-111.43562145276746, 26.133025469200856], [-111.4356136211388, 26.130914423774794], [-111.43467769650519, 26.13007282181675], [-111.43467276732602, 26.128741111304695], [-111.43560085095298, 26.127471667145993], [-111.43485528577693, 26.12476206799859], [-111.43744752429882, 26.122399504183026], [-111.43743651946122, 26.119444036775995], [-111.43929561976086, 26.11774952575115], [-111.43928614903045, 26.11521626704191], [-111.440215659389, 26.114369002665434], [-111.44020300747023, 26.110991323022176], [-111.4411324781873, 26.110144052751522], [-111.44112455548266, 26.108033002184484], [-111.44484064124411, 26.10422165181696], [-111.44483584880909, 26.10295502114745], [-111.44753979245255, 26.100489816395555], [-111.44847234826028, 26.100486919804865], [-111.44940167668446, 26.099639596853216], [-111.4512667741946, 26.099633773742998], [-111.45228021012893, 26.098709717896455], [-111.45227725651638, 26.09794174813545], [-111.4563804094049, 26.097928824439457], [-111.45592689757027, 26.10122015937904], [-111.45507876723927, 26.101222837874843], [-111.45368481333675, 26.102493874117773], [-111.45228758086378, 26.102920477449615], [-111.45042890170713, 26.104615153997262], [-111.44716965991307, 26.105891941422307], [-111.44383257697287, 26.108934206267456], [-111.44431325331887, 26.112732658745742], [-111.44338537865244, 26.114002158894824], [-111.44339175090653, 26.11569099748319], [-111.44107273712494, 26.11907582643707], [-111.44108383325896, 26.122031292550748], [-111.43922469231816, 26.123725826168787], [-111.4392373232124, 26.1271035002895], [-111.4388083410625, 26.127494479255695], [-111.44160869393416, 26.13758651054597], [-111.4411917141082, 26.15074147148687], [-111.44026192701406, 26.15158874147976], [-111.4402648089719, 26.152356706784246], [-111.43821161680835, 26.152186091438008], [-111.43746776171973, 26.152863892716127], [-111.43747248516027, 26.154130515873227], [-111.43608085817921, 26.156245798371344], [-111.43564415620214, 26.164269151251425], [-111.43358762472971, 26.166142770977356], [-111.43453456528985, 26.16699401956674], [-111.43620463084177, 26.16681209318407], [-111.43705610014351, 26.167577483708076], [-111.43706263893341, 26.169331393442203], [-111.4356723975961, 26.17186887665267], [-111.4356771055923, 26.173135496770048], [-111.43056192511668, 26.177795213050377], [-111.43056782021871, 26.179399598260044], [-111.4294442843795, 26.17838964784124], [-111.42870021397039, 26.179067404076857], [-111.42870484809353, 26.18033402409512], [-111.42638262100252, 26.18329640105573], [-111.42641158544502, 26.191253239618558], [-111.4273541096442, 26.19378370671473], [-111.4268982342628, 26.196740533080817], [-111.42763662639014, 26.197404196927288], [-111.42690308980468, 26.19807223237979], [-111.4269089400323, 26.199676613837834], [-111.42504497636575, 26.198001283922796], [-111.42372064250115, 26.198005190725247], [-111.4227061325923, 26.198929046546553], [-111.4245878925506, 26.20308052372898], [-111.42459397741534, 26.204757978098453], [-111.4237450946502, 26.204760481508313], [-111.4227305271887, 26.205684337349325], [-111.41816890147489, 26.21153216096149], [-111.41630201573798, 26.21153757750503], [-111.40996694223324, 26.215610680537274], [-111.41071796680849, 26.216285760944825], [-111.41624317452349, 26.21626987247791], [-111.41912180563683, 26.21449622208915], [-111.41911754213716, 26.213306056069044], [-111.42210371805336, 26.213051987383285], [-111.42303411937446, 26.21220483423214], [-111.4237744609168, 26.21287019808918], [-111.42696586779508, 26.212860757735477], [-111.42929639988515, 26.21200940046305], [-111.4312025579342, 26.21239167732372], [-111.43217940341908, 26.2115021053857], [-111.43217472532453, 26.210235491435046], [-111.43283660456729, 26.209632728133364], [-111.43216872869323, 26.20861175443875], [-111.43216409328599, 26.207356507503132], [-111.43398567682439, 26.207739002458062], [-111.43487824001943, 26.20692611680546], [-111.43719035019934, 26.20691910710341], [-111.43468048780304, 26.209204957409295], [-111.43543161134951, 26.20987990809705], [-111.43936150345193, 26.21004483076197], [-111.44095649876309, 26.2098630738123], [-111.44193510783806, 26.208971742755], [-111.43964233026388, 26.206911632742585], [-111.44419087339287, 26.20689765673783], [-111.44284393212412, 26.208124528921495], [-111.44401470244573, 26.209176441782425], [-111.44331703602097, 26.209811907619358]], [[-111.41683571702002, 26.178436394533204], [-111.41898631554595, 26.179107376965348], [-111.42012323722234, 26.17842683623317], [-111.41894225857634, 26.177365069585115], [-111.41777955862335, 26.178423978384515], [-111.41731146558912, 26.178003124562053], [-111.41683571702002, 26.178436394533204]], [[-111.3989919138466, 26.207408450527485], [-111.39735342539403, 26.205935249170214], [-111.3978186905632, 26.205511752264012], [-111.397105761595, 26.20487072652732], [-111.39640786243393, 26.205505967924974], [-111.39593973554824, 26.205085046519475], [-111.39267285613623, 26.205094002524604], [-111.39173162078575, 26.20595067068436], [-111.39248247871204, 26.20662584915661], [-111.39380691528392, 26.206622228820358], [-111.39473747363567, 26.205775256187387], [-111.3961287391226, 26.205771431124777], [-111.3961358459318, 26.207871097627123], [-111.39520648742882, 26.2090752036236], [-111.39669568758505, 26.210414185794495], [-111.39810154312859, 26.20948942939552], [-111.39809723428284, 26.20822280960803], [-111.3989919138466, 26.207408450527485]], [[-111.3971416483922, 26.215445249850635], [-111.39783960204177, 26.214810005134133], [-111.3983077750743, 26.215230919262847], [-111.40456735451542, 26.21419214815884], [-111.40577744839003, 26.21266709422511], [-111.40483033979545, 26.211815663697266], [-111.40417016239239, 26.21241660651672], [-111.3995029036152, 26.21242964852142], [-111.39810416189627, 26.212855737958932], [-111.39642580060242, 26.213959809577215], [-111.39689396516786, 26.21438072845606], [-111.39642866179621, 26.214804222291537], [-111.3971416483922, 26.215445249850635]], [[-111.41759675922928, 26.181979078045828], [-111.416582337305, 26.182902891644368], [-111.41658660977117, 26.184104430666615], [-111.41854385536674, 26.185864047523854], [-111.42266776586176, 26.185851994135323], [-111.42368216434684, 26.18492813829092], [-111.42367476527377, 26.18288218702603], [-111.42265374005353, 26.181964315901], [-111.41759675922928, 26.181979078045828]]], [[[-111.39641347430606, 26.289713658266066], [-111.39549225392412, 26.293504684790154], [-111.39325041187192, 26.293510846239503], [-111.39324497365651, 26.291898487536194], [-111.39277650734708, 26.29147756467409], [-111.3932307356741, 26.28767646666341], [-111.3922924207044, 26.286412416054976], [-111.39228674029741, 26.28472360652034], [-111.39134987625319, 26.283881751381468], [-111.39134257532936, 26.281705656793157], [-111.39320489589171, 26.280011741188595], [-111.39320088449108, 26.27882158219012], [-111.39636385385029, 26.278812883468497], [-111.39478280175243, 26.28025105456278], [-111.39547224486164, 26.287605225248207], [-111.39641347430606, 26.289713658266066]]], [[[-111.4031314112364, 26.317126893523035], [-111.39987009591722, 26.31966924928961], [-111.39801031800853, 26.319674423494725], [-111.39800769340451, 26.31890647191094], [-111.3951918871605, 26.315114420827044], [-111.39516753984705, 26.307937008775692], [-111.39423046635315, 26.307095177506643], [-111.39421047077626, 26.301184360809913], [-111.39327203451563, 26.299920320329637], [-111.39325928009993, 26.296139864780596], [-111.39465588357942, 26.297394655246713], [-111.39597250882, 26.297391027624595], [-111.39646372898743, 26.30449071054092], [-111.3974051169061, 26.306599130347283], [-111.39788952159897, 26.311664244019685], [-111.40031723616644, 26.31384495992162], [-111.40214923046351, 26.31422780984329], [-111.40257715119085, 26.313838633937202], [-111.40677249106625, 26.313826795866568], [-111.4067768745862, 26.31508202828086], [-111.40499998939127, 26.31712162839666], [-111.4031314112364, 26.317126893523035]]], [[[-111.47512582356606, 26.224900123345137], [-111.4741491991916, 26.22578998258343], [-111.47415231312661, 26.226557936327325], [-111.46669269937753, 26.226582348392274], [-111.46388532906161, 26.224902606050257], [-111.46256953272702, 26.22490684602614], [-111.4620963896546, 26.223295987661373], [-111.45928584768691, 26.220771747895625], [-111.45833910125278, 26.217397105752124], [-111.44870644196494, 26.210006297602522], [-111.44986916756457, 26.208947143073946], [-111.44888380504749, 26.208061895297718], [-111.44655188751577, 26.208491363703075], [-111.44477604601681, 26.206895848273195], [-111.44654577861961, 26.206890364460453], [-111.44895539914096, 26.204695367343458], [-111.44894892157791, 26.20300655091314], [-111.44987580198222, 26.201314818030756], [-111.44985982842624, 26.197157856659633], [-111.4491213136903, 26.196494308441256], [-111.4498188699318, 26.195858814709222], [-111.44891841051285, 26.195049749361985], [-111.44890197643521, 26.190762619889753], [-111.45393441615954, 26.18660118310316], [-111.46046542968074, 26.186158223179604], [-111.46194447739184, 26.18481040320319], [-111.46194144919673, 26.184042443658726], [-111.46279017738968, 26.18403971681979], [-111.4647341003712, 26.18226816283719], [-111.46473100914184, 26.181488835809095], [-111.46379446916453, 26.18064743700252], [-111.46378619015574, 26.178555772720976], [-111.46518211626137, 26.179809906394034], [-111.46650623693684, 26.179805620669942], [-111.46751880836896, 26.178524337654203], [-111.46612661749224, 26.17727359051215], [-111.4697622236581, 26.17726177105407], [-111.47213497275476, 26.175099048963332], [-111.47123452342068, 26.174290120857215], [-111.47122773351461, 26.172601302586333], [-111.4692699329393, 26.170842406330433], [-111.46842130110437, 26.170845170093436], [-111.46841823234041, 26.170077209766717], [-111.4665452987719, 26.168394449359], [-111.46654193839922, 26.167550039013644], [-111.46458429269174, 26.16579107571497], [-111.46280095767322, 26.165374608043493], [-111.4627979264595, 26.164606646518322], [-111.4618615370312, 26.163765231176853], [-111.4618516043652, 26.161243364081113], [-111.46343846537944, 26.161415141819628], [-111.46414138132435, 26.159503248079382], [-111.4629709364601, 26.15845148756429], [-111.46370260822826, 26.157426146704253], [-111.46276627058656, 26.156584735728586], [-111.46275461126235, 26.15362929264949], [-111.46181831107528, 26.15278787457142], [-111.46181498703521, 26.15194346182895], [-111.45806994803023, 26.148577725041754], [-111.45806665158096, 26.147733311360266], [-111.45592245853692, 26.145385404729733], [-111.45712031086428, 26.144293536467575], [-111.45710551154012, 26.140493671353095], [-111.45896135089002, 26.137954496172515], [-111.46174994178423, 26.13541231113473], [-111.46081073744779, 26.133791549743947], [-111.46080716801816, 26.132882052272304], [-111.4626628089055, 26.130342829417515], [-111.46265142204167, 26.1274524579442], [-111.4617153344541, 26.126611033342986], [-111.46170703606535, 26.124499993599514], [-111.46077097902074, 26.123658562115867], [-111.46075747567376, 26.120215813897385], [-111.46168686793969, 26.119368413186063], [-111.46168023168438, 26.11767957973715], [-111.46446661992414, 26.114715133801912], [-111.46538925424487, 26.112178875630324], [-111.47003559905987, 26.10794166553818], [-111.4700322225589, 26.10709724852985], [-111.47096144477977, 26.1062497888091], [-111.47095498538638, 26.104637404693072], [-111.47365948330788, 26.10462854764073], [-111.47413227880388, 26.106239398816367], [-111.47368155440941, 26.1101058878107], [-111.46531630895261, 26.117310759527783], [-111.46485497664752, 26.118578888544906], [-111.46346092723162, 26.119850017585577], [-111.46441173740583, 26.12442622141875], [-111.46683673715819, 26.12660590427785], [-111.46815142951529, 26.12660164010108], [-111.46816122285198, 26.12905843471573], [-111.46862929761332, 26.129479126291777], [-111.46817132226101, 26.131591678405176], [-111.46864303726512, 26.132921866231968], [-111.46818306127635, 26.134535760661457], [-111.46733469189874, 26.134538514476326], [-111.46446209064293, 26.13715752815245], [-111.4621449380859, 26.140964890697255], [-111.46262942587269, 26.14554258695392], [-111.46458669976052, 26.147301586694077], [-111.46683622912857, 26.147716525965887], [-111.46732761421407, 26.15397165575158], [-111.46873382944224, 26.155655931334522], [-111.46828613621113, 26.160366793106327], [-111.46715988126803, 26.161393437263104], [-111.46829767848756, 26.163257149052978], [-111.4683044233987, 26.164945970227237], [-111.47392329225039, 26.169994109951627], [-111.47440351452184, 26.173370209163235], [-111.4754248631963, 26.174287709925775], [-111.47674891952408, 26.174283330827105], [-111.47869246893798, 26.17251159101611], [-111.47961695515369, 26.170397464247777], [-111.48836388882648, 26.162422520602263], [-111.49077534735889, 26.161071241217886], [-111.49169453815615, 26.157766874683123], [-111.49532969000124, 26.15690999720113], [-111.49533855740232, 26.159009649554935], [-111.49441266266132, 26.160701671470758], [-111.49442156305477, 26.162812690506442], [-111.49163482005619, 26.16577770140727], [-111.49164544301502, 26.16831092345092], [-111.49071588872003, 26.169158514077996], [-111.4897951417119, 26.172117116572075], [-111.48886554412407, 26.172964695422134], [-111.48886874724938, 26.17373265314122], [-111.48802009692437, 26.173735532727445], [-111.48607667070135, 26.17550739649351], [-111.48608332520425, 26.177111769723627], [-111.48495934030159, 26.176102258466393], [-111.4842980336269, 26.176281360338443], [-111.48328419383664, 26.177205637174097], [-111.4832908106056, 26.17881001069002], [-111.48216683284512, 26.177800477754335], [-111.48011268066949, 26.179673057569985], [-111.47731829715828, 26.180948980395865], [-111.47591850988822, 26.18095361596], [-111.47125934263332, 26.182657785824208], [-111.46699256103999, 26.186970240831695], [-111.4665340442446, 26.18900632504086], [-111.4610273024203, 26.191135121557746], [-111.4590831775857, 26.192906625995047], [-111.45908618821883, 26.193674584902627], [-111.45823738976534, 26.193677290818663], [-111.45629318053082, 26.19544875804863], [-111.45631760985707, 26.201716736022284], [-111.45725426788795, 26.202558179517574], [-111.45725947002428, 26.20388987227166], [-111.45632938511051, 26.204737243802377], [-111.45633237924349, 26.205505201742973], [-111.45455010458225, 26.205510845414047], [-111.45124301111858, 26.207676212529478], [-111.45363341993144, 26.209823645100915], [-111.45589130660493, 26.209816505211695], [-111.45682143450863, 26.20896913653703], [-111.45868992403983, 26.209385397745258], [-111.46194856196936, 26.20726392531541], [-111.46288196508434, 26.207260924240742], [-111.46660379350601, 26.20429343871393], [-111.47080229874496, 26.203857548864466], [-111.4747957055115, 26.20106583890783], [-111.47778687903228, 26.202145684609775], [-111.47780751458255, 26.207200745144732], [-111.47603177806579, 26.20881901524173], [-111.47035561930049, 26.20883769139974], [-111.46969099076216, 26.208240780628795], [-111.46802039375227, 26.208423101712615], [-111.46758997452919, 26.208036522815856], [-111.46436744578142, 26.209701567912628], [-111.4624247370189, 26.211895319228443], [-111.46243616071403, 26.21478565688742], [-111.46345778372061, 26.21570323373307], [-111.46439125395811, 26.21570022196613], [-111.47000903578672, 26.219904044510198], [-111.47234620272022, 26.220740799770333], [-111.4760819573434, 26.22115068482949], [-111.47795415727033, 26.22241109409396], [-111.4797384152906, 26.222827358030155], [-111.47974156552094, 26.223595311464244], [-111.48048042490214, 26.224258695279907], [-111.47974702854114, 26.22492699602944], [-111.479750179119, 26.225694949238225], [-111.47890115089675, 26.225697780259456], [-111.47816587716414, 26.22636776728223], [-111.47769737565162, 26.22594711814112], [-111.47649331615553, 26.226127988596446], [-111.47512582356606, 26.224900123345137]]], [[[-111.4990221191613, 26.147597255987026], [-111.49278286650285, 26.152863826547716], [-111.49344916410655, 26.153462319636276], [-111.49345799650135, 26.155561973592594], [-111.49206734544373, 26.155566731657657], [-111.49074735402623, 26.154381054674406], [-111.49072588914358, 26.14924951725562], [-111.49258290126006, 26.147132125017244], [-111.49350516795498, 26.144595703148752], [-111.49481503856609, 26.143401027866112], [-111.4958235599986, 26.143397560474863], [-111.49742263034483, 26.144413345860315], [-111.4978872880856, 26.143989529941873], [-111.49901106991463, 26.144998947580728], [-111.4990221191613, 26.147597255987026]]]]}}]}
