{"type": "FeatureCollection", "features": [{"type": "Feature", "properties": {"uga": "30", "politica": "conservacion", "procedencia": {"metodo": "digitalizacion-semiautomatica", "fuente": "Mapa de ubicación de la ficha UGA 30, Boletín Oficial No. 12 (12-mar-2014), p. 247 del PDF", "datum": "UTM 12N con desplazamiento de +30 m E y +165 m N ajustado contra la costa (INC-011)", "correccion_borde_px": 1.4, "precision_aprox_m": 38.0, "escala_por_superficie": false, "revisada_en_qgis": false}, "control": {"residuo_georreferencia_m": 25.3, "area_digitalizada_ha": 658.87, "escala_por_superficie": false, "superficie_ficha_ha": 663.55, "diferencia_area_pct": -0.7}}, "geometry": {"type": "Polygon", "coordinates": [[[-111.44327187066227, 26.207763827698397], [-111.44326939906686, 26.207111282277435], [-111.44286612405094, 26.206751903175107], [-111.44230808747002, 26.207083725334467], [-111.44077700021961, 26.207088425844624], [-111.44058626075987, 26.20726073481022], [-111.43998171261833, 26.20709086098309], [-111.43771482458753, 26.20709777796992], [-111.43752408054097, 26.20727008293134], [-111.43541883077033, 26.20727647194702], [-111.43522808300904, 26.20744877390524], [-111.43213615172209, 26.207458097380297], [-111.43159536880073, 26.207287996589372], [-111.4315935815083, 26.206803344554938], [-111.43120954469772, 26.206461047132933], [-111.43082171750075, 26.20508841178846], [-111.4308159212171, 26.20351363896726], [-111.43233808435679, 26.2011049251346], [-111.4341351292, 26.199826210734052], [-111.43394311845206, 26.199655065287573], [-111.43424547788982, 26.199381931874385], [-111.43443366529557, 26.19852273962302], [-111.4360367196461, 26.196557687945145], [-111.4357309490323, 26.196285144298727], [-111.43384955104356, 26.196977729794256], [-111.43324345385855, 26.197525247560304], [-111.4332446118077, 26.197838177176973], [-111.43251376999248, 26.198012101187214], [-111.43155944533342, 26.198701866690197], [-111.43060258299145, 26.19870473405496], [-111.42942297126662, 26.199425676278256], [-111.4301915135167, 26.200252736636525], [-111.43019477628813, 26.201140618615813], [-111.42962316774972, 26.201829226237123], [-111.42924607984035, 26.203375875166728], [-111.42764563874752, 26.20533830482097], [-111.42699280514566, 26.20475638018403], [-111.42698215611551, 26.201837090028434], [-111.42679015233657, 26.201665934992675], [-111.42658990764721, 26.199233113017034], [-111.42735289407109, 26.198543948754505], [-111.4273466261691, 26.196826717992767], [-111.42752111422683, 26.196669108419194], [-111.42734547947575, 26.196512539097224], [-111.42733858555073, 26.1946235847014], [-111.42703423643137, 26.194352267041392], [-111.42732034463486, 26.194093830012477], [-111.4269520970831, 26.193594381994828], [-111.42694583642354, 26.19187714996158], [-111.42656061171806, 26.191191392159872], [-111.42615279342967, 26.18429432532051], [-111.42642262656506, 26.184050571960146], [-111.42652986469909, 26.182747680661542], [-111.42691005480995, 26.18205965215224], [-111.42938936306274, 26.17981984739265], [-111.43034228726367, 26.178786649321225], [-111.43072117996263, 26.177755163856762], [-111.43183152303318, 26.17675200146024], [-111.43224393236122, 26.17675076360702], [-111.43251697057184, 26.176994187306388], [-111.43328323290261, 26.176474168001313], [-111.43270732242992, 26.17596072430384], [-111.43392986681572, 26.175028437315753], [-111.43529893844077, 26.175024303707858], [-111.43568288254816, 26.17536659284837], [-111.43778755872323, 26.17536020717784], [-111.43817151111183, 26.17570248955861], [-111.43855418052921, 26.175701324186807], [-111.44259425997026, 26.181527614601084], [-111.44393627125618, 26.182210381644598], [-111.44470425920564, 26.182894910849114], [-111.44508695177403, 26.182893727809684], [-111.44623764563293, 26.18357706453679], [-111.44700565592068, 26.184261581041596], [-111.45179996225285, 26.186994207487302], [-111.45234188757881, 26.187477162887884], [-111.45234332690944, 26.187849875607213], [-111.4517712513158, 26.18836684726604], [-111.45177245829734, 26.188679776496134], [-111.45142375228981, 26.18868087088148], [-111.44948289844052, 26.190434711443878], [-111.44891211404337, 26.191295117346172], [-111.44892714269098, 26.19521547187575], [-111.44950981178489, 26.197446073087235], [-111.4495257487166, 26.20159668081483], [-111.4493350311416, 26.201769001232822], [-111.4493422821914, 26.203657948179693], [-111.44896413273314, 26.204861200362846], [-111.44651857545135, 26.207070714893344], [-111.44383982558833, 26.20725073099843], [-111.44327187066227, 26.207763827698397]], [[-111.4369740827328, 26.19209253552386], [-111.43724534308738, 26.19184746815937], [-111.4385848706961, 26.191843391197654], [-111.4391909135596, 26.191295851183785], [-111.43918909140962, 26.19080994957124], [-111.438386962795, 26.190094979262337], [-111.43765126941585, 26.190097218832058], [-111.4363939602829, 26.191233132759663], [-111.4369740827328, 26.19209253552386]]]}}]}
