{"type": "FeatureCollection", "features": [{"type": "Feature", "properties": {"uga": "31", "politica": "aprovechamiento-sustentable", "procedencia": {"metodo": "digitalizacion-semiautomatica", "fuente": "Mapa de ubicación de la ficha UGA 31, Boletín Oficial No. 12 (12-mar-2014), p. 249 del PDF", "datum": "UTM 12N con desplazamiento de +30 m E y +170 m N ajustado contra la costa (INC-011)", "correccion_borde_px": 1.4, "precision_aprox_m": 59.0, "escala_por_superficie": false, "revisada_en_qgis": false}, "control": {"residuo_georreferencia_m": 73.9, "area_digitalizada_ha": 4641.17, "escala_por_superficie": false, "superficie_ficha_ha": 1311.55, "diferencia_area_pct": 253.9}}, "geometry": {"type": "MultiPolygon", "coordinates": [[[[-111.35781465281063, 25.911746511264756], [-111.35781626010119, 25.912279142624566], [-111.35669232715375, 25.91329945319252], [-111.35517075696934, 25.9133031889191], [-111.3545792300245, 25.91277200154428], [-111.35404216254098, 25.912773314117103], [-111.35404071468055, 25.912288411925427], [-111.35357296096618, 25.91186836173557], [-111.35781115189407, 25.908555006595826], [-111.35898484350093, 25.908552105381155], [-111.35898886136663, 25.909879384685745], [-111.35781465281063, 25.911746511264756]]], [[[-111.37861976538142, 26.05310677503827], [-111.3786213234404, 26.05359166645641], [-111.37749912040576, 26.05359460415859], [-111.37660651397292, 26.051514165987008], [-111.37447948603189, 26.049341469752047], [-111.37300211274753, 26.04907898023613], [-111.3680233507209, 26.045411105371375], [-111.36742943740535, 26.0443473668149], [-111.36742196709038, 26.04195057168752], [-111.36623585221314, 26.040355706846878], [-111.36622344484452, 26.036361045115825], [-111.36444686351471, 26.034767659125098], [-111.36444357160407, 26.033702415176354], [-111.3639752952975, 26.033282411095506], [-111.36620442528378, 26.030235892827555], [-111.3652622868464, 26.02912529547764], [-111.36289860200873, 26.028598623792913], [-111.36112707483298, 26.028603061437007], [-111.36029193250022, 26.027853934761833], [-111.36028448001251, 26.025413703054475], [-111.36146138684775, 26.02407919713294], [-111.36145828661182, 26.023067213552974], [-111.36293243398515, 26.024389553156876], [-111.36347614290756, 26.02438818684917], [-111.36411775359817, 26.023806216075673], [-111.36411625719333, 26.023321321859207], [-111.36558632843825, 26.02331761101419], [-111.36585894071038, 26.023562137072393], [-111.36672051457424, 26.023314737813394], [-111.36878220823506, 26.02171161171141], [-111.37295566275849, 26.017658473003213], [-111.37323320501204, 26.01206517086359], [-111.37382194393008, 26.011531022430646], [-111.37381941407007, 26.010732087761074], [-111.3764175992767, 26.008908879830397], [-111.3775975666099, 26.00863948949217], [-111.37877923718867, 26.0089027125669], [-111.37966313846026, 26.008367766960873], [-111.38030458234547, 26.00778572487963], [-111.38088998548226, 26.006234030507176], [-111.38206464322113, 26.0062309316777], [-111.38378796328375, 26.00777652138322], [-111.38497484843631, 26.009637561618977], [-111.38591614205556, 26.0104817219427], [-111.38882145204495, 26.010473938261953], [-111.38941011172395, 26.00993972711488], [-111.39059093928526, 26.009936542086542], [-111.39117958821107, 26.009402323817508], [-111.3983103912063, 26.009116542976248], [-111.39860649486336, 26.009382040321697], [-111.40037772579531, 26.009377146605615], [-111.4040511659773, 26.011343179371988], [-111.40652414261677, 26.009365530198647], [-111.40652869385836, 26.010687249935355], [-111.40535334764186, 26.012288428464327], [-111.40418344121798, 26.01548746024085], [-111.40330233032745, 26.01682148584904], [-111.40301165362708, 26.01815386115714], [-111.39949327213111, 26.025354074120756], [-111.39920253266935, 26.026686440948453], [-111.3983212832125, 26.028020435767168], [-111.39744450057258, 26.030685975789492], [-111.39685577554702, 26.031220218898643], [-111.39656499270075, 26.03255257985436], [-111.39538929652663, 26.034153676646028], [-111.3936319157694, 26.03841947368384], [-111.37861976538142, 26.05310677503827]], [[-111.38125130682339, 26.028603401006258], [-111.38356655701777, 26.02859727457865], [-111.3845024742962, 26.027748119942064], [-111.38450001183733, 26.026992617129785], [-111.3835585948942, 26.026148450872906], [-111.38006240161529, 26.02615768712541], [-111.37942085789012, 26.0267397277762], [-111.37942243125494, 26.027228920276766], [-111.38125130682339, 26.028603401006258]]], [[[-111.40987439122136, 25.945414017634963], [-111.41132539097187, 25.94516468671569], [-111.41279689906786, 25.944095238902804], [-111.41427024396044, 25.943558401814165], [-111.41721313991324, 25.94141943223109], [-111.41927084085191, 25.93928296781997], [-111.42014979878411, 25.939280421312958], [-111.42075104235964, 25.942426731510714], [-111.42134490734082, 25.943490266469272], [-111.4219482740719, 25.947216922682337], [-111.42254217441253, 25.948280451600326], [-111.42322768749726, 25.974953335711582], [-111.42146836927274, 25.978154238418984], [-111.42029922551217, 25.981353406218574], [-111.41971084790131, 25.981887741818422], [-111.41942043692946, 25.98322015325214], [-111.41678202826212, 25.988287739475247], [-111.41444042876319, 25.9938870532386], [-111.41326628624334, 25.995754607350566], [-111.41268245747716, 25.997620468711613], [-111.4120939650496, 25.9981547735362], [-111.41209582325729, 25.998687395134528], [-111.41121492506431, 26.00002146948739], [-111.4112177066796, 26.000820401752367], [-111.41033863354605, 26.002687092095876], [-111.40963239921061, 26.003328246224545], [-111.40918823059448, 26.002930033674478], [-111.40862300826224, 26.003443160948105], [-111.40803262827409, 26.00344482791225], [-111.40479284044703, 26.005584439677417], [-111.4039081649055, 26.005853226757196], [-111.40297580489843, 26.00585582798662], [-111.40120100805902, 26.004795509287764], [-111.39901006232284, 26.004689512020338], [-111.39711506698444, 26.004806787449652], [-111.39505138284572, 26.005611380455676], [-111.39411902374033, 26.005613924559153], [-111.39027443431036, 26.0034938423928], [-111.38909367113227, 26.003497024106068], [-111.38702471679848, 26.002703634578705], [-111.38559748442027, 26.001423606844572], [-111.38558777911376, 25.998450749962156], [-111.38615239716076, 25.997938330484384], [-111.38493756353766, 25.996317670291436], [-111.38321856245167, 25.996055920718725], [-111.38321166550374, 25.993929725204403], [-111.38380026944763, 25.993395536315592], [-111.38379522001733, 25.991841094018145], [-111.38285409175194, 25.99099691588198], [-111.38201537794116, 25.990999133102697], [-111.38155061342057, 25.991420928796327], [-111.3812545932062, 25.991155394927937], [-111.37788995296988, 25.993140483148522], [-111.37577787588589, 25.99341229952986], [-111.37464772932552, 25.992664016899486], [-111.37434834623703, 25.991333219814667], [-111.37375633955754, 25.990802121603778], [-111.37374961446683, 25.98867592221537], [-111.37458217954709, 25.988673768975193], [-111.37517079711995, 25.988139614669205], [-111.37841747860337, 25.98813115900713], [-111.37900607595965, 25.987596989277954], [-111.37959637881957, 25.987595441685347], [-111.38253754836467, 25.984391921033584], [-111.38371812153363, 25.984388794980298], [-111.38418285091075, 25.983966992311082], [-111.38462686413571, 25.984365284476997], [-111.38671706533455, 25.982735194601315], [-111.38730472559563, 25.981934679225077], [-111.38730036286815, 25.98060311803474], [-111.38788713494554, 25.97953628794069], [-111.38786704089563, 25.973411102823363], [-111.38928550213033, 25.972123449539396], [-111.39017083944255, 25.97212106565322], [-111.39193621812399, 25.970518406892776], [-111.39429530884837, 25.969979370118523], [-111.39552401316656, 25.968596714444246], [-111.39552059622024, 25.96757489397135], [-111.39428359436128, 25.9664652795272], [-111.39138549989914, 25.966473144014067], [-111.39137860887121, 25.964390371279755], [-111.39078578350231, 25.96359302733393], [-111.39078226478588, 25.962527776142995], [-111.39019033120651, 25.961996742258407], [-111.3901840401834, 25.960089122580396], [-111.39248578886063, 25.958266423604844], [-111.39543656599625, 25.958258394984544], [-111.3974967418047, 25.95665486244239], [-111.39838196248434, 25.95665242967484], [-111.39884653131249, 25.956230580167055], [-111.39956135736948, 25.95638286481118], [-111.40221339180574, 25.95531026170517], [-111.40373691930058, 25.953926716548025], [-111.40373328552775, 25.952861465611733], [-111.4043215938282, 25.952327193685445], [-111.40490640139072, 25.95077109772256], [-111.4039654553178, 25.9499270500329], [-111.40194680829853, 25.949932666598972], [-111.40135850088498, 25.950466929040154], [-111.40017826873141, 25.95047019506826], [-111.39958995059551, 25.95100445041058], [-111.39764831279314, 25.950897734730415], [-111.39693620145172, 25.951544379228547], [-111.39546089700433, 25.951548415367967], [-111.39398736513601, 25.952085062696717], [-111.39335049028779, 25.952086793960177], [-111.39251569342709, 25.9513378416575], [-111.39251290011794, 25.950495472599854], [-111.39452026165567, 25.948939853985983], [-111.3962888051366, 25.9484023944636], [-111.40041774505526, 25.94785840699247], [-111.4013521530818, 25.946786259075886], [-111.3998202712013, 25.945677504111064], [-111.3992769265493, 25.945679002923292], [-111.39868862779406, 25.946213254725752], [-111.39628149946, 25.94621986057387], [-111.3942126190044, 25.945160243245105], [-111.39302890267177, 25.944098196816157], [-111.39249169554014, 25.94409965345744], [-111.39248390920487, 25.941750561041477], [-111.39189207329615, 25.941219531487707], [-111.39188942939174, 25.940420590746555], [-111.3906527485011, 25.939310937476588], [-111.38917584510564, 25.938782280407448], [-111.38769721119145, 25.937720980457186], [-111.38656997909781, 25.937723992642475], [-111.38656839646633, 25.93723909390741], [-111.38597660957304, 25.936708039297194], [-111.38596619632928, 25.933512271562535], [-111.38537443095241, 25.93298121397865], [-111.38537269828394, 25.932448585809205], [-111.38241310491628, 25.92952694548749], [-111.38239921339864, 25.92522248582305], [-111.38281557303597, 25.924577309834344], [-111.38251971924463, 25.924311774266037], [-111.38298490168717, 25.92388935556482], [-111.3829824602012, 25.923133841774913], [-111.38179906610416, 25.922071696737063], [-111.3812022379609, 25.919942732517505], [-111.3794280792069, 25.918615802678378], [-111.37823966401713, 25.915955737741754], [-111.37670839764992, 25.91484672675422], [-111.37464360613295, 25.91485207763545], [-111.37318883585942, 25.91381165870822], [-111.3725711610316, 25.914372513807837], [-111.37257534554563, 25.915704089455815], [-111.37199110039084, 25.91752208090624], [-111.3705752106988, 25.917525707525236], [-111.3705720299606, 25.916508176287422], [-111.36951093434728, 25.915024424689694], [-111.36997363460381, 25.913803101372913], [-111.36996878421519, 25.912248639510803], [-111.36878313055274, 25.91038743796125], [-111.36830987214125, 25.909962532920726], [-111.36730453155573, 25.911142414366598], [-111.36641964767657, 25.911144653502518], [-111.36566099543575, 25.911833460678082], [-111.36371499380854, 25.910086193527707], [-111.36312507625189, 25.910087672223575], [-111.36164540923143, 25.908493464457507], [-111.3608134066409, 25.908495537305516], [-111.36081032400992, 25.907482303126578], [-111.3634104013275, 25.906943174211722], [-111.36429361814919, 25.90640832240568], [-111.37756633835735, 25.906374368723323], [-111.37962757195056, 25.905303716844564], [-111.38080735721095, 25.905300623292703], [-111.38139553708568, 25.904766442465064], [-111.38404831652328, 25.90422680591887], [-111.38463647636264, 25.903692612090296], [-111.38581537869895, 25.903423162823863], [-111.39464501201077, 25.897806736878984], [-111.40170522933666, 25.89246100487845], [-111.40347471092518, 25.892456093770992], [-111.40435763678742, 25.891921000197613], [-111.40701184604949, 25.89191357705261], [-111.40789475164861, 25.891378462147795], [-111.41054281962606, 25.891370991771534], [-111.41147633410593, 25.905435424425455], [-111.41177220419277, 25.90570090137682], [-111.41177775184705, 25.90729878652012], [-111.4123722821514, 25.90862868061929], [-111.41237598640627, 25.909693936909957], [-111.4129696083164, 25.910757513901746], [-111.41297424581248, 25.91208908374911], [-111.41356788536234, 25.91315265773005], [-111.41416990877349, 25.916613053038425], [-111.41476451402171, 25.91794293472923], [-111.4147682413047, 25.919008189328657], [-111.41536286564417, 25.920338067898438], [-111.41536751693023, 25.92166533618043], [-111.41419370332673, 25.921668695378152], [-111.41360187302044, 25.921137752995147], [-111.4095188264523, 25.921149346894104], [-111.40745759538684, 25.922220421516226], [-111.39713302729936, 25.922249079203027], [-111.3964921250372, 25.922831196468113], [-111.39652049611786, 25.931309812857585], [-111.39740820747767, 25.932106329469754], [-111.3971283727878, 25.936634470338554], [-111.39832011092336, 25.94009330579891], [-111.4000984022458, 25.94248524736088], [-111.40222213599012, 25.944124989269746], [-111.40488115771906, 25.945182843455992], [-111.40635638113577, 25.94517871229249], [-111.40724334705541, 25.945708852204053], [-111.4089659549748, 25.94543768319319], [-111.40943044215618, 25.945015800051806], [-111.40987439122136, 25.945414017634963]], [[-111.40470999496266, 25.9814021461038], [-111.4061888935048, 25.980551330599532], [-111.40618629758909, 25.97979582483788], [-111.4049490674604, 25.97868630609911], [-111.4020445447429, 25.978694404662455], [-111.40140336522998, 25.97927654243592], [-111.40140683479477, 25.980298360523737], [-111.40234800760398, 25.981142418675827], [-111.40377782798484, 25.98140475023227], [-111.40424247328215, 25.98098288392774], [-111.40470999496266, 25.9814021461038]]]]}}]}
