{"type": "FeatureCollection", "features": [{"type": "Feature", "properties": {"uga": "32", "politica": "aprovechamiento-sustentable", "procedencia": {"metodo": "digitalizacion-semiautomatica", "fuente": "Mapa de ubicación de la ficha UGA 32, Boletín Oficial No. 12 (12-mar-2014), p. 252 del PDF", "datum": "UTM 12N con desplazamiento de +30 m E y +170 m N ajustado contra la costa (INC-011)", "correccion_borde_px": 1.4, "precision_aprox_m": 38.0, "escala_por_superficie": false, "revisada_en_qgis": false}, "control": {"residuo_georreferencia_m": 22.1, "area_digitalizada_ha": 328.83, "escala_por_superficie": false, "superficie_ficha_ha": 334.09, "diferencia_area_pct": -1.6}, "georreferencia": {"a_x": 18.97519537907161, "b_x": 458880.481477568, "a_y": -18.99898562850822, "b_y": 2889809.8597158184, "factor_render": 1, "pagina_mapa": 252, "ficha_mapa": "32"}}, "geometry": {"type": "Polygon", "coordinates": [[[-111.36417947179818, 26.04946134020923], [-111.3643534116847, 26.04930314186787], [-111.36568117218775, 26.04929978636494], [-111.36605946658722, 26.048955718379794], [-111.36684868985037, 26.048953716030475], [-111.36722911789033, 26.049295859002445], [-111.36779815791618, 26.049294411095275], [-111.36874870496177, 26.04997820673592], [-111.36969711030927, 26.04997578227519], [-111.37007754985842, 26.050317917571892], [-111.37175417839708, 26.050313611821757], [-111.37213245807148, 26.049969528134362], [-111.3725118200515, 26.04996855021016], [-111.37326837052615, 26.04928037792281], [-111.37424727515739, 26.04927784480646], [-111.37611468136674, 26.050786035939904], [-111.37649623815643, 26.051471260580605], [-111.37649788247418, 26.05198592032743], [-111.37764203503069, 26.05387003413172], [-111.37764322118998, 26.054240129141554], [-111.37613064787374, 26.055788067975456], [-111.37613164441655, 26.0561002238963], [-111.37578648550532, 26.05610112249214], [-111.37537407304016, 26.056476254911708], [-111.3748077276688, 26.057335498839297], [-111.3714035328437, 26.06060383122914], [-111.37083713885983, 26.061463059622795], [-111.36932330782496, 26.062667821342053], [-111.36932438367948, 26.06301092759277], [-111.36289459900755, 26.069546302395526], [-111.362895561067, 26.069858458188587], [-111.35986386488855, 26.06986604772802], [-111.35853378223466, 26.069183139478746], [-111.35758522106072, 26.06918549224323], [-111.35723907604573, 26.068874190891833], [-111.3572349244984, 26.067505726789832], [-111.35855917534504, 26.067502443822622], [-111.35893964019233, 26.067844607379232], [-111.36080623029784, 26.067839954301064], [-111.36178627604158, 26.066948778514764], [-111.36178477784183, 26.066461107649303], [-111.35718498339071, 26.0623243001113], [-111.35452400265707, 26.06061531134645], [-111.35227629353915, 26.058764660791784], [-111.3522710830211, 26.0570221364041], [-111.35605405031245, 26.05341020691047], [-111.35605257673187, 26.05292253482356], [-111.355371385861, 26.052138721040127], [-111.35567001626336, 26.051867159075254], [-111.3558572038504, 26.051039874045536], [-111.36189283818092, 26.051024876826023], [-111.3623052752187, 26.050649782367486], [-111.36230431553884, 26.05033762572347], [-111.3626494580939, 26.05033675952908], [-111.36389415671748, 26.04920472699297], [-111.36417947179818, 26.04946134020923]], [[-111.36362221959976, 26.058225833264718], [-111.36422383945028, 26.057678702350806], [-111.36422127105445, 26.056847924267437], [-111.36380650858736, 26.05647490968526], [-111.36250917424776, 26.056478172227088], [-111.36209671770473, 26.056853267174155], [-111.36209874383736, 26.057512492064447], [-111.36289394943276, 26.058227665313932], [-111.36362221959976, 26.058225833264718]]]}}]}
