{"type": "FeatureCollection", "features": [{"type": "Feature", "properties": {"uga": "33a", "politica": "aprovechamiento-sustentable", "procedencia": {"metodo": "digitalizacion-semiautomatica", "fuente": "Mapa de ubicación de la ficha UGA 33a, Boletín Oficial No. 12 (12-mar-2014), p. 255 del PDF", "datum": "UTM 12N con desplazamiento de +30 m E y +165 m N ajustado contra la costa (INC-011)", "correccion_borde_px": 1.4, "precision_aprox_m": 141.0, "escala_por_superficie": false, "revisada_en_qgis": false}, "control": {"residuo_georreferencia_m": 77.4, "area_digitalizada_ha": 5664.69, "escala_por_superficie": false, "superficie_ficha_ha": 5295.83, "diferencia_area_pct": 7.0}}, "geometry": {"type": "Polygon", "coordinates": [[[-111.3981183942149, 26.009330888954675], [-111.3974702689504, 26.009918859391643], [-111.39252909779164, 26.009932357978375], [-111.38900388214252, 26.01121485133621], [-111.38606876224607, 26.011222718440504], [-111.38222891445857, 26.00714607314218], [-111.3811028156872, 26.008167419343817], [-111.38110655687042, 26.00932643286097], [-111.37770352728727, 26.009335362274246], [-111.37476006443363, 26.011366416354893], [-111.37337042661261, 26.01837132926922], [-111.36927478446611, 26.022723287723384], [-111.36716086456653, 26.024001638876378], [-111.3632214280364, 26.023743646395996], [-111.36139098289601, 26.025403090808233], [-111.36139651228548, 26.02720811354998], [-111.36293914107495, 26.028591156963667], [-111.36705070769277, 26.029217255199136], [-111.36705661988972, 26.03111715584377], [-111.36494811175154, 26.03420049521758], [-111.3670721427463, 26.036104560770735], [-111.36780200862177, 26.04374048241075], [-111.3734668289405, 26.048817793551084], [-111.37347284969658, 26.050717687659713], [-111.36925089720602, 26.0507285432145], [-111.36647838162777, 26.04951293879098], [-111.36300930140244, 26.051380846325408], [-111.35806637338526, 26.051393185438837], [-111.3565318912573, 26.05278388673794], [-111.35653925005, 26.055215848160255], [-111.3552533549117, 26.055219017163928], [-111.3530145326331, 26.057247892643836], [-111.35301803417427, 26.0584164332795], [-111.36222179441091, 26.066031396566014], [-111.36222798882375, 26.068045230736534], [-111.36087719247843, 26.069269366439965], [-111.36223549954723, 26.070486716804805], [-111.3622397371324, 26.071864075756206], [-111.36025289972103, 26.073664541792365], [-111.34895451940666, 26.074328777926272], [-111.34782960921095, 26.075347949268888], [-111.34812967712752, 26.076990629501633], [-111.3468469582936, 26.078152732914678], [-111.34320386293382, 26.078161442239157], [-111.33825248432075, 26.07562721385028], [-111.33554080136051, 26.076270023009982], [-111.33200758718885, 26.075641713969723], [-111.33047248149605, 26.077032139833012], [-111.33189373768796, 26.080106864747517], [-111.331899416991, 26.082120701475873], [-111.33049214130558, 26.084033368997584], [-111.33050286789286, 26.087852218399927], [-111.3283944669922, 26.0916759049737], [-111.32839950626386, 26.0934809174319], [-111.32981942018264, 26.096023591171413], [-111.32913080448864, 26.10238041142782], [-111.32432524947392, 26.1017548198112], [-111.32431649848476, 26.098581980925076], [-111.32502115775586, 26.097943916731353], [-111.32427467572401, 26.083410995483806], [-111.31860682479132, 26.077058821240634], [-111.31859620666184, 26.073135550342247], [-111.31930074647592, 26.072497512970152], [-111.31999317054122, 26.06740413314627], [-111.32844487089814, 26.059110898250015], [-111.32843777314505, 26.056564988207015], [-111.32914216100517, 26.05592690278891], [-111.32841825923101, 26.049563730950926], [-111.32912082840315, 26.048289167129475], [-111.34250004441827, 26.035528414065777], [-111.34249634740708, 26.034255456836686], [-111.34530742799373, 26.029793384473958], [-111.34528913209584, 26.023542536007103], [-111.34657468319263, 26.023539459198233], [-111.35121057793174, 26.020613796380424], [-111.35227235156202, 26.021565938382324], [-111.35444423963034, 26.02097444072338], [-111.35756990282364, 26.022507655799885], [-111.35934067471455, 26.020264130052627], [-111.35785625910242, 26.01893310754123], [-111.35432465491715, 26.018305323205997], [-111.35262372172599, 26.016780009807505], [-111.3645969320955, 26.007839532007278], [-111.36358736349672, 26.005030099637203], [-111.36204503869898, 26.003647055464416], [-111.35650981588627, 26.003660807009503], [-111.35227852854445, 26.004944146759208], [-111.34383363940147, 26.004964472417985], [-111.34834309174327, 26.001514747574912], [-111.34521836925849, 25.999346745794206], [-111.34450326538374, 25.99616602002988], [-111.34301719713245, 25.99483293029178], [-111.33956048313279, 25.995427276989865], [-111.33955352066731, 25.99300482248614], [-111.34366187861279, 25.992995120602657], [-111.3497063066002, 25.989429662952407], [-111.35076778471466, 25.990381823096932], [-111.352949772933, 25.98840340777446], [-111.35715546024431, 25.97884578328342], [-111.36208365620404, 25.975014612923683], [-111.35924966796578, 25.97130716217091], [-111.35923001947253, 25.964837916301267], [-111.36063542893697, 25.962924956699258], [-111.36058338515026, 25.945844288832312], [-111.35987594857518, 25.945209558157707], [-111.35986437111315, 25.94140017672826], [-111.36478593702896, 25.940751376629056], [-111.36685039119507, 25.941968847632815], [-111.36832773816458, 25.940628469546645], [-111.36831819517522, 25.937559987409035], [-111.37030826013826, 25.937554914383657], [-111.37178340137498, 25.936216417392533], [-111.37035581605859, 25.93493565043329], [-111.369004496737, 25.936161783461255], [-111.36536578849653, 25.936171005367175], [-111.36407762725091, 25.935015211733173], [-111.36335071642773, 25.928015633658475], [-111.3591067690241, 25.924207261671178], [-111.35978895735978, 25.916567662128696], [-111.35654644443298, 25.913022755741395], [-111.35906211064847, 25.909463627681372], [-111.3590586014238, 25.9083045952842], [-111.36257019728784, 25.908295856605953], [-111.36605052414201, 25.911419280336457], [-111.36851411658951, 25.90982180727607], [-111.37021157384476, 25.91134506533298], [-111.3702215105512, 25.914527502418032], [-111.37135320377104, 25.915542995452366], [-111.37305592150697, 25.91399768922628], [-111.37740128276998, 25.91462293400055], [-111.38081144574497, 25.917682529320246], [-111.3822344253761, 25.921497732190435], [-111.38364925617786, 25.92276697623429], [-111.38296240533323, 25.92849720996869], [-111.38650184644483, 25.932306754260217], [-111.38651430696021, 25.936125660345834], [-111.39287806069386, 25.940563967926174], [-111.39288650755228, 25.9431099007033], [-111.3951360046579, 25.945127192500145], [-111.39720084183534, 25.946344225824806], [-111.39784862452858, 25.94575625548051], [-111.40206681250238, 25.945744607702043], [-111.40207326482052, 25.947644522441838], [-111.40079247102548, 25.9488071036951], [-111.39726488880818, 25.948816822672885], [-111.39402713149202, 25.95047862607356], [-111.39515724960219, 25.951492017017276], [-111.39716234394369, 25.951486532023228], [-111.40068569670792, 25.95020385101551], [-111.4056095658066, 25.95019014451769], [-111.40561607625989, 25.95209005725951], [-111.40293285291376, 25.95580252753281], [-111.40082049079093, 25.95708136456925], [-111.39870379371726, 25.957087208401123], [-111.39659349552186, 25.959002465745552], [-111.3930656076209, 25.959012085951283], [-111.39082924427792, 25.961041546589556], [-111.39154712755547, 25.964754116819446], [-111.3937970187776, 25.966771418926644], [-111.39649319273835, 25.966764059291044], [-111.3964995615412, 25.968663969808773], [-111.39579993514367, 25.970461399238776], [-111.39240014237213, 25.97110714231261], [-111.38875640200733, 25.97441335108441], [-111.38877314470636, 25.979505194443504], [-111.38737805674411, 25.98448687683312], [-111.3839757451499, 25.984495945819663], [-111.38244243110806, 25.985886922205477], [-111.38244618174177, 25.987045939111905], [-111.38116103300497, 25.98704933055502], [-111.37975363132317, 25.98832600255898], [-111.37763636961232, 25.98833154460671], [-111.37469342412588, 25.99036259747089], [-111.37469712971985, 25.99153114610135], [-111.37653741400818, 25.99318122945822], [-111.37965475930356, 25.992268649445542], [-111.38106220844662, 25.990991978563297], [-111.3845762492277, 25.990982679520794], [-111.3838845857796, 25.995325966469025], [-111.38600821055894, 25.997229768362395], [-111.386020690997, 26.001048640417803], [-111.3882711887332, 26.003066011564922], [-111.39180250528922, 26.00369297107629], [-111.39463226418015, 26.005594726781425], [-111.39663613853979, 26.00495276113841], [-111.40440268287945, 26.00556773326158], [-111.40862900010728, 26.003009921552152], [-111.41213281658733, 26.002999978744104], [-111.41003246695666, 26.00490586564602], [-111.4086339822775, 26.00872871905663], [-111.4052415136983, 26.011806734675428], [-111.40371816922868, 26.011810996339467], [-111.3981183942149, 26.009330888954675]], [[-111.37838583107593, 25.997354322328093], [-111.37619154300732, 25.995386942819735], [-111.37513588025797, 25.996344411999385], [-111.37342397106131, 25.995343818498462], [-111.37231267141867, 25.996351706490596], [-111.37119503676466, 25.995349555569266], [-111.3698949890452, 25.99535288591316], [-111.36836136805961, 25.99674371432734], [-111.36836699695577, 25.998548742820194], [-111.3699093275403, 25.99993172046437], [-111.37338653683591, 26.001145459034568], [-111.3740347359457, 26.00055759502721], [-111.37620985990661, 26.00113814233219], [-111.37839161330906, 25.999159348601438], [-111.37838583107593, 25.997354322328093]]]}}]}
