{"type": "FeatureCollection", "features": [{"type": "Feature", "properties": {"uga": "33b", "politica": "aprovechamiento-sustentable", "procedencia": {"metodo": "digitalizacion-semiautomatica", "fuente": "Mapa de ubicación de la ficha UGA 33b, Boletín Oficial No. 12 (12-mar-2014), p. 258 del PDF", "datum": "UTM 12N con desplazamiento de +30 m E y +165 m N ajustado contra la costa (INC-011)", "correccion_borde_px": 1.4, "precision_aprox_m": 133.0, "escala_por_superficie": false, "revisada_en_qgis": false}, "control": {"residuo_georreferencia_m": 66.8, "area_digitalizada_ha": 313.08, "escala_por_superficie": false, "superficie_ficha_ha": 295.17, "diferencia_area_pct": 6.1}}, "geometry": {"type": "Polygon", "coordinates": [[[-111.2559383352729, 25.741403354443804], [-111.25620912314548, 25.73816668057202], [-111.25526124268077, 25.736113946445492], [-111.25525225488026, 25.731905530706182], [-111.25313077035841, 25.72939699230905], [-111.25179932218813, 25.729399299270526], [-111.25058452692575, 25.728306403699147], [-111.25119118848593, 25.726451926918], [-111.24991001217197, 25.72409912503625], [-111.24990377312676, 25.721113715325366], [-111.25655922814933, 25.72710138332101], [-111.25845161158115, 25.727098039193894], [-111.25950049279187, 25.72614706779787], [-111.26111445510969, 25.727093291926426], [-111.26322632586496, 25.725178457302782], [-111.2625503014638, 25.720477455578898], [-111.26442838367853, 25.720474060223054], [-111.27506118524158, 25.712638711659807], [-111.27716281059776, 25.71263473100899], [-111.28049518612612, 25.714431973327557], [-111.28515322670471, 25.713821730479705], [-111.28703527079067, 25.7155142317076], [-111.28704246582564, 25.71851245523194], [-111.28583007967268, 25.7185148378452], [-111.2845016164838, 25.719719846630518], [-111.28173419934254, 25.719725222404694], [-111.27773599835969, 25.717929281029743], [-111.27517810397615, 25.717934132658833], [-111.27251820714028, 25.71914154064504], [-111.26509317257907, 25.72647711643394], [-111.26443921359109, 25.73178951286668], [-111.26711156533878, 25.73599306718342], [-111.26711961102737, 25.739592488587927], [-111.26513646830644, 25.73959611170547], [-111.26246806500892, 25.73719612847186], [-111.26057552230348, 25.737199525995266], [-111.2559383352729, 25.741403354443804]]]}}]}
