{"type": "FeatureCollection", "features": [{"type": "Feature", "properties": {"uga": "34a", "politica": "preservacion", "procedencia": {"metodo": "digitalizacion-semiautomatica", "fuente": "Mapa de ubicación de la ficha UGA 34a, Boletín Oficial No. 12 (12-mar-2014), p. 261 del PDF", "datum": "UTM 12N con desplazamiento de +30 m E y +170 m N ajustado contra la costa (INC-011)", "correccion_borde_px": 1.4, "precision_aprox_m": 84.0, "escala_por_superficie": false, "revisada_en_qgis": false}, "control": {"residuo_georreferencia_m": 41.7, "area_digitalizada_ha": 10277.18, "escala_por_superficie": false, "superficie_ficha_ha": 10297.88, "diferencia_area_pct": -0.2}, "georreferencia": {"a_x": 41.841004283013774, "b_x": 428284.5188258607, "a_y": -41.88578937037778, "b_y": 2884827.3832807248, "factor_render": 1, "pagina_mapa": 261, "ficha_mapa": "34a"}}, "geometry": {"type": "Polygon", "coordinates": [[[-111.68575061341687, 25.955165713800362], [-111.6842534839678, 25.955014076365593], [-111.6810918367292, 25.95752515839981], [-111.67487502549015, 25.966631273329284], [-111.6748793412711, 25.967387669774922], [-111.67321834094827, 25.969286445772564], [-111.67323732962039, 25.97262202569547], [-111.67056148790026, 25.972475728185557], [-111.66826780600898, 25.97495269309559], [-111.66907704101418, 25.976053760288828], [-111.66909625606958, 25.97944897479704], [-111.66540977675389, 25.979465973553058], [-111.66457806025932, 25.98022621193323], [-111.66332409869034, 25.980231965590995], [-111.65916109598594, 25.98327665530532], [-111.65790710068329, 25.983282362643806], [-111.65700030637657, 25.984111104747598], [-111.65682724817152, 25.98464938460212], [-111.65788640887075, 25.985598095439617], [-111.65868479416109, 25.984868431011876], [-111.6616779843392, 25.98485477336639], [-111.66251823189022, 25.985607344134618], [-111.6666982930779, 25.985588142615782], [-111.6675385772305, 25.986340683427024], [-111.66913522821487, 25.98633330775495], [-111.6691733933629, 25.99307265916187], [-111.66959356899675, 25.993448921963747], [-111.66918872709975, 25.99577967453432], [-111.66801602083245, 25.996851511657976], [-111.6659257920901, 25.99686115041504], [-111.66509395920014, 25.997621392263568], [-111.6634217643979, 25.99762907211499], [-111.66258990975753, 25.998389299898633], [-111.66008159972142, 25.998400769316603], [-111.65924971780937, 25.999160978327446], [-111.65757749923469, 25.999168591030973], [-111.65625672839154, 26.00075562506336], [-111.65585509168771, 26.00371490095014], [-111.6550943436467, 26.00371834918958], [-111.65426239230037, 26.00447853028982], [-111.65008165220216, 26.004497385217473], [-111.64924966253973, 26.00525753811428], [-111.64465081328775, 26.00527811304997], [-111.64381878255409, 26.006038235380483], [-111.64172838108696, 26.00604752750585], [-111.6396420761946, 26.006813187099713], [-111.63714173934393, 26.008337057744384], [-111.63457037161544, 26.01068581853226], [-111.63416409812493, 26.01288864320157], [-111.63340328771865, 26.012891978426314], [-111.62999955663109, 26.016000719176205], [-111.63001135164373, 26.018210278104405], [-111.63085366566594, 26.019341227578362], [-111.6308580281829, 26.020157260149013], [-111.62944324087344, 26.02144933384718], [-111.62881301374777, 26.020884765514623], [-111.62752303323992, 26.02206281540462], [-111.62711257290394, 26.023509222266156], [-111.62544822050484, 26.023516434113162], [-111.6246416823015, 26.02279389095497], [-111.62384283122586, 26.02352337230629], [-111.62258839980468, 26.023528781314432], [-111.61967331034505, 26.025810556055564], [-111.617168353616, 26.026577690570313], [-111.61258435709918, 26.029622857455937], [-111.61174802450637, 26.02962640029959], [-111.6091756866987, 26.031974719988185], [-111.60793285907681, 26.03424920170106], [-111.60794260776024, 26.036140199827795], [-111.60755918341331, 26.03649020222974], [-111.60837610039903, 26.039104400262822], [-111.6083920212436, 26.042189629801054], [-111.6063145815892, 26.044845816238226], [-111.60507510098726, 26.04780846747818], [-111.60347759821751, 26.047815150832633], [-111.60264500289722, 26.048575041864563], [-111.59971736220602, 26.04858722753179], [-111.59888473682665, 26.049347097325704], [-111.59763002481795, 26.04935229449859], [-111.59679738042206, 26.050112152507317], [-111.59554265978976, 26.050117331688494], [-111.59262258469427, 26.05164217353128], [-111.59011310860555, 26.0516524490196], [-111.58928039888113, 26.05241226456608], [-111.58593816786167, 26.053182278919095], [-111.58461395327897, 26.054390474219915], [-111.58421257518623, 26.057795968315045], [-111.58220380183255, 26.05924870717728], [-111.58094898060406, 26.059253761223513], [-111.57962464694685, 26.060461911783324], [-111.57962989452218, 26.061528308682608], [-111.57761391623897, 26.061536387689173], [-111.57594448596188, 26.062299472191352], [-111.57217991962072, 26.06231444006184], [-111.57134701814394, 26.063074154290934], [-111.5684190007439, 26.063085711536473], [-111.56758606921257, 26.06384540448007], [-111.56549461333167, 26.063853611460498], [-111.56466165726427, 26.064613287851927], [-111.56341499965077, 26.06461815829573], [-111.56340447073367, 26.0624171552651], [-111.5608081905361, 26.06008980718054], [-111.55829852046185, 26.060099532805353], [-111.55501557122007, 26.057532932955965], [-111.55435060078666, 26.056560146698178], [-111.55476708605077, 26.056180338334457], [-111.55416657926263, 26.054888730846535], [-111.55164816366539, 26.053007327163375], [-111.55038280341445, 26.05074289896673], [-111.55037899223281, 26.04992685798333], [-111.55246134173007, 26.048027860777935], [-111.55244184276317, 26.043867630114125], [-111.55365301600845, 26.0416235533534], [-111.5532590408444, 26.039763832040006], [-111.55115563183078, 26.037124401800057], [-111.55155083357323, 26.03220616123058], [-111.55088780488589, 26.031611556515013], [-111.55154524885687, 26.031011914696375], [-111.5527841035503, 26.02766292402051], [-111.5506104942066, 26.02609017360854], [-111.54935601900915, 26.02609494747575], [-111.5456525741507, 26.022773284451613], [-111.54438940858815, 26.02088699192018], [-111.53892767392603, 26.015234285785514], [-111.53849892845125, 26.01290697584148], [-111.54015926403603, 26.010253299304697], [-111.54015580318666, 26.009496888399223], [-111.54389257164217, 26.00380970125215], [-111.54589914895936, 26.001979286107726], [-111.55090191267125, 25.99893461956325], [-111.55173803688977, 25.99893143233563], [-111.55389277836862, 25.996585718443843], [-111.55468896234056, 25.995099637539795], [-111.5542984097966, 25.993936679674704], [-111.55471467820328, 25.993556871759164], [-111.5546951468182, 25.9893966113319], [-111.55969356917832, 25.985595236679544], [-111.56008290934687, 25.979542329246815], [-111.5613261133516, 25.97726823585011], [-111.56382139650276, 25.97461104641658], [-111.56506447801405, 25.972336921400935], [-111.56505905655291, 25.971202303843484], [-111.56630570139964, 25.969684579918443], [-111.56630026866826, 25.968549962188963], [-111.56713254878913, 25.967790277684976], [-111.56712710858224, 25.966655659821225], [-111.56878616567617, 25.9640016588893], [-111.56876826977951, 25.9602792339137], [-111.56834852884282, 25.95990266884504], [-111.56791426903348, 25.95650045142562], [-111.5632866459793, 25.95008889066279], [-111.5632683665704, 25.94624718232894], [-111.56534148829637, 25.942835176497415], [-111.56533607126231, 25.941700554371224], [-111.56616455600785, 25.94018446081556], [-111.5661178413073, 25.930410697350695], [-111.56443575450692, 25.928147968593468], [-111.56443034967134, 25.92701334398947], [-111.56376785771162, 25.92641878109686], [-111.56442466110435, 25.92581908272001], [-111.56441954097113, 25.924744094245323], [-111.56358034539994, 25.92399092931029], [-111.56356387586374, 25.920527415967978], [-111.56439404174597, 25.919389538855917], [-111.56521517530996, 25.916360613644866], [-111.56604710256475, 25.915600935902244], [-111.5660113192202, 25.90810496287754], [-111.56677146554323, 25.9081019934182], [-111.56767833313621, 25.907273806733222], [-111.56725155122331, 25.905384396038073], [-111.56907795264985, 25.902956655585985], [-111.57267964142298, 25.906565913954328], [-111.57348323231884, 25.906910568761194], [-111.57435663070025, 25.90611285825501], [-111.57434564211167, 25.903843605892085], [-111.57600368515422, 25.90118951689565], [-111.5759871591113, 25.897785636758872], [-111.5763996817038, 25.896717555611062], [-111.57715975368004, 25.89671453292251], [-111.57823280334294, 25.895734333079254], [-111.57931536440135, 25.896705938724818], [-111.5859985476241, 25.896679089915573], [-111.58683768602332, 25.89743212876678], [-111.58850849069597, 25.897425358602177], [-111.58931394182224, 25.898148134480113], [-111.59011218050023, 25.89741884228558], [-111.5942891881189, 25.897401786491844], [-111.60267975568539, 25.889734648121788], [-111.60016063244653, 25.887157219739883], [-111.6001548959755, 25.886022595942993], [-111.59885423500684, 25.884855501236046], [-111.59680505906373, 25.88596820831488], [-111.59596973869985, 25.885971642181403], [-111.59139431714695, 25.889772527184256], [-111.5905589691906, 25.88977593036173], [-111.58972737951942, 25.89053574565843], [-111.58506582253578, 25.89055462201955], [-111.58422674471704, 25.88980157117603], [-111.58346671796822, 25.889804630141438], [-111.58345374628077, 25.88716573604626], [-111.58428163064463, 25.88564953797903], [-111.58552901408032, 25.88450985933326], [-111.58594106997012, 25.883373546008457], [-111.5888515014754, 25.880714247002768], [-111.59009503038743, 25.878818111930364], [-111.59008939220999, 25.877683484749763], [-111.59174861070214, 25.875407427728582], [-111.5917448419177, 25.874651009498635], [-111.59423542813215, 25.871615098262296], [-111.59423198533864, 25.870926885350027], [-111.59499188979326, 25.87092377209105], [-111.59711261374505, 25.868985590637255], [-111.5962987973638, 25.86668981555238], [-111.5996261744961, 25.86402858964588], [-111.6017025974624, 25.86175069577398], [-111.60169911293522, 25.861062482866675], [-111.6033611910176, 25.861055584668428], [-111.60412452962217, 25.86174063733237], [-111.60454787617866, 25.862873525711255], [-111.60458636619809, 25.870437698989278], [-111.60592062613372, 25.87163499074833], [-111.60961200644388, 25.871619532612367], [-111.61044333654006, 25.870859605982343], [-111.6116961542397, 25.870854331238554], [-111.61419005609355, 25.86857450235763], [-111.61550994646588, 25.868568911187293], [-111.61669296611404, 25.869630331068997], [-111.6167089838747, 25.8727156280107], [-111.61421700208885, 25.875373707122048], [-111.61339347954043, 25.877646485069665], [-111.61090326710764, 25.880682716151334], [-111.61091658235867, 25.883270531737665], [-111.61350792178453, 25.88521888069445], [-111.61594675133296, 25.885208546946878], [-111.62218780204019, 25.880643335040006], [-111.62385835946657, 25.88063616196407], [-111.6255959025221, 25.879047614135427], [-111.6260055609134, 25.877532986839608], [-111.62763331071709, 25.87566469863095], [-111.62531747530741, 25.872081649947493], [-111.62597366672335, 25.871481679168674], [-111.6259580376716, 25.868515659717374], [-111.62511488453357, 25.8670064306062], [-111.62510860113944, 25.865812172644386], [-111.62569723668084, 25.864893915829484], [-111.62527766261944, 25.864517507886795], [-111.63042817406755, 25.859427705699247], [-111.63460381404649, 25.859409513629274], [-111.63543489740232, 25.85864944711266], [-111.63675467217253, 25.858643664818104], [-111.63885060817047, 25.860147319379973], [-111.63968574017666, 25.860143642031197], [-111.64178173917894, 25.86164725276786], [-111.64254157745046, 25.861643891677435], [-111.64254529858894, 25.862332099179095], [-111.6433845407359, 25.863084812421622], [-111.64338863629287, 25.863841224475966], [-111.64422789455001, 25.864593932383652], [-111.64423199575013, 25.865350344155082], [-111.64591672366902, 25.867990361063473], [-111.64592732967002, 25.869941024874596], [-111.64534088295711, 25.871237566118758], [-111.64576054348116, 25.871613914074803], [-111.64510445335215, 25.872213972447145], [-111.64511266985662, 25.873726794060726], [-111.64428564978485, 25.875243325977017], [-111.64347873352729, 25.88047370091625], [-111.64230113773205, 25.88047891853011], [-111.63897225067493, 25.882762902477896], [-111.63813695951673, 25.882766578702036], [-111.6343902730715, 25.885052295969967], [-111.63271965688955, 25.88505959145262], [-111.63188837483865, 25.88581964344158], [-111.63063540405714, 25.885825095400225], [-111.62980410314005, 25.886585135713425], [-111.62896878360363, 25.8865887596539], [-111.62231001635033, 25.891156053010715], [-111.61559145957648, 25.8988172220778], [-111.61104152270383, 25.90753539769842], [-111.60522411423275, 25.913611227721493], [-111.60280217792234, 25.91544418399828], [-111.59863218050322, 25.916974322103968], [-111.59655094725592, 25.918495759834105], [-111.59446586674197, 25.919260755093248], [-111.58156299877618, 25.929146681569076], [-111.57864569285164, 25.93067121854118], [-111.57690860901931, 25.93263742385456], [-111.576501826692, 25.934908329376803], [-111.57507863163141, 25.936207916974976], [-111.5760947395701, 25.937119597040134], [-111.5761076177489, 25.939767045090193], [-111.57821718766574, 25.943918993296037], [-111.58661197521839, 25.95144950415864], [-111.5891362677751, 25.95484317290611], [-111.594593714303, 25.959737628026144], [-111.5979485901387, 25.963875575330604], [-111.59552581935577, 25.963885562030658], [-111.5946937519644, 25.964645406604966], [-111.59343993873729, 25.964650551821606], [-111.59235760165015, 25.965638902287015], [-111.59386965453564, 25.96699483646687], [-111.59880963304589, 25.966974485642055], [-111.59881533385847, 25.968100528417825], [-111.59798517114228, 25.969238595389168], [-111.59758602692727, 25.97296272269143], [-111.59842770256004, 25.974093879334077], [-111.59970271580204, 25.97824892534677], [-111.60061825439243, 25.979069756200257], [-111.60137885171854, 25.97906659730914], [-111.60180226856554, 25.980131264265648], [-111.60181189586581, 25.982022278691787], [-111.60247489252549, 25.982616654327156], [-111.60205881830557, 25.982996596961886], [-111.6022494691577, 25.985862202238398], [-111.59983179022687, 25.988829725422907], [-111.59899574457344, 25.98883318942732], [-111.59691327181834, 25.990354639421014], [-111.59524115788899, 25.990361529242552], [-111.5945747342449, 25.990969973081892], [-111.59499466949885, 25.991346457156645], [-111.59433956953782, 25.99232449520375], [-111.59316620421339, 25.993395737689937], [-111.59149404610771, 25.993402584944363], [-111.59066174854772, 25.994162407303754], [-111.5894076213187, 25.994167522983727], [-111.58399176283731, 25.997971598534036], [-111.5827375936673, 25.997976657073067], [-111.58190520711292, 25.998736430081106], [-111.57897879182916, 25.9987481745277], [-111.57723888855355, 26.00033617872274], [-111.57641350036803, 26.002540530486936], [-111.57565274850728, 26.00254356069797], [-111.57482028394925, 26.003303293762713], [-111.5714756756896, 26.00331654948301], [-111.57060093018278, 26.004114812917127], [-111.57182755549401, 26.00521478205661], [-111.57183700227593, 26.00716543584258], [-111.57124543055609, 26.007705271869842], [-111.5716653534666, 26.00808182307142], [-111.57100813897982, 26.008681554516013], [-111.57101362661366, 26.00981616502171], [-111.57018290801606, 26.010954075450943], [-111.57019353939111, 26.013155091573033], [-111.56685687037319, 26.01316821267001], [-111.56517718132686, 26.011661945535653], [-111.56434096888141, 26.011665211935007], [-111.56353488017353, 26.010942318840375], [-111.56065596838583, 26.013948814362486], [-111.55898350965137, 26.013955290555643], [-111.55623152683984, 26.01570624172409], [-111.55690400448097, 26.01630935637729], [-111.56101805305903, 26.016293449139294], [-111.56185069796248, 26.015533793915328], [-111.56811427484104, 26.015509314990464], [-111.56854510646681, 26.018146525523157], [-111.56771430678137, 26.01928442183175], [-111.56730861475427, 26.021873849815176], [-111.56772857667082, 26.022250411089217], [-111.56774131576105, 26.024897831866923], [-111.5684043894378, 26.02549235903183], [-111.56691801859884, 26.02760817045076], [-111.56609258342318, 26.029880665613323], [-111.56609774269478, 26.030955638158506], [-111.5667608429132, 26.031550171942598], [-111.56551538039139, 26.033446100180285], [-111.5666080101204, 26.034425730964745], [-111.56737719124033, 26.034422712655218], [-111.56828500573516, 26.033594520522225], [-111.56952677227696, 26.030942164272172], [-111.57160847867263, 26.029042896673545], [-111.5715941069486, 26.026076912209422], [-111.57075047453237, 26.024567406706147], [-111.57073737965526, 26.02186035156494], [-111.5724026084428, 26.020340926381856], [-111.57198109468789, 26.019645811473488], [-111.572390056591, 26.017753141734506], [-111.57155013883468, 26.01700004448573], [-111.5715461869821, 26.01618400265606], [-111.57237876213068, 26.015424287915685], [-111.5744491101263, 26.011255761867353], [-111.57735919135337, 26.007840276293248], [-111.57818611471617, 26.005945919319256], [-111.58068532468374, 26.00404485204444], [-111.58068194058502, 26.003356650036718], [-111.582696923563, 26.003348545003334], [-111.58352933681768, 26.00258876745344], [-111.58478355478492, 26.002583701216142], [-111.58694145403088, 26.000993911809086], [-111.58693803393591, 26.000305710280088], [-111.58769876985406, 26.00030262095154], [-111.59019959550278, 25.998779595233568], [-111.5976978556885, 25.99345385840954], [-111.5985339342352, 25.993450401335643], [-111.60103447300426, 25.99192719179484], [-111.60353881043652, 25.991160344357247], [-111.60818687658343, 25.98615593898883], [-111.60900961136896, 25.983573211044206], [-111.6102554027499, 25.983567962080617], [-111.61109532025141, 25.984320837839483], [-111.61569338354369, 25.984301344609964], [-111.61653334030761, 25.98505418800759], [-111.62280345790202, 25.985027333754214], [-111.6231897176815, 25.985373495800328], [-111.62357230938849, 25.985024022141637], [-111.62900640313569, 25.985000499817172], [-111.62966381099169, 25.984399941584233], [-111.63032758722834, 25.984994750022167], [-111.63116360079799, 25.984991105457567], [-111.63865079981313, 25.9920760132924], [-111.63825556619327, 25.996297688829394], [-111.63541647130516, 25.998511235219905], [-111.63374425404733, 25.998518572200258], [-111.63291219831119, 25.999278632903955], [-111.63165802667163, 25.99928411588667], [-111.6307509242081, 26.00011269736855], [-111.63075900357951, 26.00162549651261], [-111.62992892415151, 26.00276374023131], [-111.62500913670144, 26.006877176576474], [-111.62375488245866, 26.006882592495145], [-111.62309732138043, 26.007483124851912], [-111.6224334518913, 26.006888286714613], [-111.62041020273104, 26.00689698176358], [-111.61957800162143, 26.007656967512997], [-111.61867464932547, 26.007660835468734], [-111.61807829487826, 26.007126457028082], [-111.61640306890398, 26.00827623726832], [-111.61700005064759, 26.008811186026147], [-111.61700431538, 26.009627221943592], [-111.61583099113133, 26.010698645180852], [-111.61374049589797, 26.010707534197362], [-111.61290822468365, 26.011467482413405], [-111.61040352381156, 26.01223449653357], [-111.6074884675557, 26.01451602830183], [-111.60623412801536, 26.014521293683572], [-111.60535954057367, 26.015319763549765], [-111.60624229265838, 26.01611086924331], [-111.61035629804715, 26.016093558081007], [-111.61118861798192, 26.015333624163855], [-111.61369731165863, 26.01532299623973], [-111.61953107440173, 26.011516029058487], [-111.62119525945685, 26.011508888400726], [-111.62162327373922, 26.013389522082527], [-111.6187103938964, 26.016049476217685], [-111.61705374212328, 26.019082223732966], [-111.61748145358985, 26.02091180181743], [-111.61881757182827, 26.022108917181157], [-111.62000480439617, 26.022103829378118], [-111.62174045041445, 26.019758920912675], [-111.62172849527965, 26.017489723847007], [-111.62256075018782, 26.016729725739413], [-111.62255077566877, 26.014838727737352], [-111.62455629411858, 26.013007241658016], [-111.62622871953104, 26.013000007168444], [-111.62706091386892, 26.012239983789375], [-111.62831522423326, 26.012234538155507], [-111.62981375497876, 26.010865902711792], [-111.62939364016988, 26.01048952400456], [-111.63005056215181, 26.009889532396958], [-111.63004248890307, 26.008376734775087], [-111.63087462627097, 26.007616690010394], [-111.6308669076795, 26.00617209578346], [-111.6320457567845, 26.00616694788786], [-111.63329594457163, 26.005405061510587], [-111.63420306862974, 26.00457646424539], [-111.63419494408441, 26.003063666726906], [-111.6350270175126, 26.002303598696937], [-111.63502331702054, 26.001615403478894], [-111.63620211968983, 26.001610222541537], [-111.6378662094192, 26.00009005927294], [-111.63870232858208, 26.000086369164514], [-111.6408573873342, 25.99811758944965], [-111.64085160171253, 25.9970511953836], [-111.64161230896153, 25.99704782286917], [-111.64335128217667, 25.995459060037685], [-111.6433289528327, 25.991358503366243], [-111.64199294619895, 25.990161607600857], [-111.64123228334351, 25.990164981288792], [-111.64080027235917, 25.98758763955122], [-111.64012817026678, 25.986985480716786], [-111.63971220445751, 25.98736552947637], [-111.6386303559589, 25.98677261119791], [-111.6357712242378, 25.983458095130622], [-111.63777637691366, 25.9834492705742], [-111.63860829157072, 25.98268918289453], [-111.64028028324307, 25.982681793852326], [-111.64111217617892, 25.98192169209796], [-111.64278415617446, 25.9819142743267], [-111.64361602738873, 25.981154158500058], [-111.64528799570415, 25.981146712001745], [-111.64611984519648, 25.98038658210529], [-111.64737381273221, 25.9803809774986], [-111.64987343021436, 25.978856937768402], [-111.65112738059089, 25.97885130094284], [-111.65195917594298, 25.97809113825693], [-111.6532131176757, 25.97808548351293], [-111.65571260967353, 25.976561344796018], [-111.6569665342391, 25.976555657839942], [-111.6577982754518, 25.975795462379374], [-111.65863421943854, 25.975791660339077], [-111.66196528964844, 25.973507210965327], [-111.66405085938403, 25.97274123993822], [-111.6657870454855, 25.970774016040373], [-111.66743751645001, 25.966984329202575], [-111.66985089688048, 25.963637509184576], [-111.67359932722253, 25.96135086494145], [-111.68108704257281, 25.95526449851147], [-111.6836748876758, 25.95449588619148], [-111.68283473426943, 25.953743433326423], [-111.68442147239784, 25.953735942380877], [-111.6852528764515, 25.952975593440517], [-111.68608865448368, 25.95297163604815], [-111.68858718634796, 25.951446943276054], [-111.69357519207398, 25.946884640338578], [-111.6948205761304, 25.94687867112018], [-111.6948268350405, 25.947945060818505], [-111.69566702089217, 25.948697443994583], [-111.69568515328916, 25.951782658367097], [-111.69368177659469, 25.953615104019875], [-111.69201021394368, 25.953623101809622], [-111.69117884981802, 25.954383488697566], [-111.68658201856213, 25.95440535734698], [-111.68575061341687, 25.955165713800362]], [[-111.57929339354419, 25.977643846759722], [-111.58340607967645, 25.97762732518236], [-111.58448860060955, 25.976639040112783], [-111.58448299172322, 25.975504427105626], [-111.58297093354, 25.974148396468554], [-111.57844039556204, 25.974166574763203], [-111.57753310181643, 25.974994828571027], [-111.57753835258417, 25.9760698071236], [-111.57929339354419, 25.977643846759722]]]}}]}
