{"type": "FeatureCollection", "features": [{"type": "Feature", "properties": {"uga": "34b", "politica": "conservacion", "procedencia": {"metodo": "digitalizacion-semiautomatica", "fuente": "Mapa de ubicación de la ficha UGA 34b, Boletín Oficial No. 12 (12-mar-2014), p. 264 del PDF", "datum": "UTM 12N con desplazamiento de +30 m E y +165 m N ajustado contra la costa (INC-011)", "correccion_borde_px": 1.4, "precision_aprox_m": 83.0, "escala_por_superficie": false, "revisada_en_qgis": false}, "control": {"residuo_georreferencia_m": 49.1, "area_digitalizada_ha": 8107.95, "escala_por_superficie": false, "superficie_ficha_ha": 8253.56, "diferencia_area_pct": -1.8}}, "geometry": {"type": "MultiPolygon", "coordinates": [[[[-111.64590427435665, 25.869192801294837], [-111.6446769280248, 25.866224250042823], [-111.64167690487284, 25.862039770694015], [-111.63918499146475, 25.86129983557164], [-111.63609754056935, 25.85927846517695], [-111.6355117017998, 25.85981410459339], [-111.63137351432249, 25.85983216010795], [-111.63135991249109, 25.857271635820098], [-111.62886021464986, 25.855029694726877], [-111.62885195578157, 25.853468468338004], [-111.63537734531148, 25.847124827471887], [-111.64116546483396, 25.84409567023407], [-111.64240921393063, 25.844090174456344], [-111.6432343185442, 25.84333559287662], [-111.64489263931992, 25.843328239386782], [-111.64571772267486, 25.842573644019946], [-111.64654687742527, 25.842569955565956], [-111.65892594899782, 25.83200131906763], [-111.66099030379127, 25.830490083264912], [-111.66264024356927, 25.830482567922537], [-111.66278631334518, 25.856696712014045], [-111.66320303344501, 25.85707027242984], [-111.66282609823568, 25.863830330070925], [-111.66367217538762, 25.86683016710582], [-111.66388631535753, 25.90512628919856], [-111.66472011226885, 25.905873390709996], [-111.66474326147717, 25.910003351357407], [-111.66565223970822, 25.910817770242407], [-111.67303499112084, 25.91078368482299], [-111.67064231707025, 25.912971597851566], [-111.66774702609318, 25.914486803648085], [-111.66436184940245, 25.914502357430578], [-111.66352799272266, 25.91375525588169], [-111.66276490489435, 25.91375874664172], [-111.66145442415655, 25.915334242384688], [-111.66147537408827, 25.91908874975006], [-111.65989875120952, 25.92053010876185], [-111.65782450809316, 25.92053953785935], [-111.65699897292752, 25.921294202953565], [-111.6540950118635, 25.921307337641817], [-111.65326944721649, 25.922061981972114], [-111.65161002915266, 25.922069452138384], [-111.65078444315502, 25.92282408263857], [-111.64871015610883, 25.9228333820677], [-111.64788454605144, 25.92358799642229], [-111.64456566299091, 25.92360279526052], [-111.64374002074734, 25.924357386525788], [-111.6371022035448, 25.924386719200122], [-111.63627650745063, 25.925141268856425], [-111.63337244024731, 25.925153990110918], [-111.63254671468353, 25.925908518977735], [-111.6304723662367, 25.92591755838887], [-111.62964661662039, 25.926672071092053], [-111.62798712632141, 25.92667927198435], [-111.62716135536076, 25.927433770836387], [-111.6238463047694, 25.928199003020627], [-111.62012418906976, 25.930467748648965], [-111.61721998232808, 25.930480148599813], [-111.61680705021712, 25.930857368588562], [-111.61349420250733, 25.93049597114318], [-111.61306412349784, 25.927561765154103], [-111.61215536808092, 25.926747013999876], [-111.61056244047214, 25.926753734159867], [-111.6092491847441, 25.927953316571884], [-111.6088420233524, 25.929456876187054], [-111.60760314801527, 25.930588462479037], [-111.60743510906947, 25.931873583264156], [-111.60843501053431, 25.932770074745267], [-111.60602954817479, 25.932780155939895], [-111.60347721829574, 25.93511125013411], [-111.60348069932549, 25.93579449073888], [-111.60106984822707, 25.936555436935798], [-111.60024383498877, 25.937309785658307], [-111.5947833998478, 25.937332306625308], [-111.59419164441925, 25.93680166413568], [-111.59315043785126, 25.937752431988816], [-111.59395106125827, 25.938470375420476], [-111.59395512513517, 25.939280684821416], [-111.59295519955, 25.9401937357829], [-111.59354931697507, 25.941100257195835], [-111.5942162126994, 25.941698262389977], [-111.59504229508164, 25.940943947284335], [-111.59611777336131, 25.94190830310453], [-111.59836738683096, 25.94205663616318], [-111.59978555018294, 25.941893162776967], [-111.60061159773826, 25.941138816527893], [-111.60227129916406, 25.941131925552035], [-111.6043344290409, 25.93887056283872], [-111.60516426336535, 25.938867098682124], [-111.60888307426761, 25.93584782292537], [-111.61012779287863, 25.935842586391892], [-111.61095373190851, 25.935088182464384], [-111.61261334536117, 25.935081174514966], [-111.61343926304556, 25.934326756717955], [-111.61641013958027, 25.934314147624143], [-111.61724385301194, 25.93506152103153], [-111.6209779771462, 25.93504556431718], [-111.62181172406729, 25.935792910745068], [-111.62256675652274, 25.935789668220355], [-111.62257855431763, 25.93803411671371], [-111.61886788176609, 25.942555548469784], [-111.61764232699076, 25.946247719701496], [-111.61688722714973, 25.946250937766074], [-111.6148203155382, 25.947761569894958], [-111.60935941313342, 25.94778464885604], [-111.60727696867572, 25.94629155062868], [-111.60651366292399, 25.946294749016708], [-111.60520015299878, 25.947494296098515], [-111.60563046706238, 25.950496186830367], [-111.60480630655832, 25.951626014408575], [-111.60481363497395, 25.95306015932528], [-111.60405848986649, 25.953063311277802], [-111.60339714125013, 25.953667228015647], [-111.6039933237194, 25.95494915528836], [-111.60359780365278, 25.958764814658597], [-111.59954330916212, 25.962844060989227], [-111.59830210179936, 25.96360011739945], [-111.59740550288895, 25.96360382008241], [-111.58997497845193, 25.956568196577045], [-111.58746832188486, 25.953199233345227], [-111.57788004259662, 25.944226716889673], [-111.57787637773724, 25.943475806276833], [-111.57620384713019, 25.940854229783014], [-111.5761874469139, 25.93748339591718], [-111.57742398650252, 25.937478472684475], [-111.57801567168323, 25.938009184847925], [-111.57905516865095, 25.93668306809633], [-111.57842134312202, 25.93611456017461], [-111.57701686962898, 25.937396734931774], [-111.57700991902517, 25.935970003137594], [-111.57635184916711, 25.93537972699286], [-111.5770041427227, 25.934784235082038], [-111.57740290676954, 25.931471146819444], [-111.57815791783614, 25.93146813618747], [-111.58188089129465, 25.92920045430237], [-111.59469332039062, 25.919386402532922], [-111.59758969613746, 25.91787263767644], [-111.59841938444733, 25.91786921472563], [-111.59924527667121, 25.917114876571194], [-111.60007495942595, 25.917111444237328], [-111.60090083573543, 25.916357096849765], [-111.60173051293444, 25.916353655133477], [-111.60255637332975, 25.915599298514046], [-111.60338604497242, 25.915595847415997], [-111.61088881107612, 25.9079874970056], [-111.61335242045182, 25.90309607604213], [-111.61417811498147, 25.90234165482361], [-111.61499601332818, 25.900085409049677], [-111.61582167666495, 25.899330978728674], [-111.61581777896016, 25.898580068667197], [-111.62035478606542, 25.893679710179452], [-111.6207620419087, 25.892243783307293], [-111.62275711479484, 25.891484304749923], [-111.62853975105354, 25.88695380420749], [-111.63019868543336, 25.886946607231383], [-111.6330938095023, 25.885432149072702], [-111.63475272115758, 25.885424900417352], [-111.63805843496695, 25.883157621079505], [-111.63888787418168, 25.88315397103707], [-111.64095336387545, 25.88164300889548], [-111.6417827920393, 25.881639342502936], [-111.64391852119185, 25.87930943296772], [-111.64390630594632, 25.87705670852905], [-111.64473162492592, 25.876302117681675], [-111.64471531986717, 25.87329848417687], [-111.64554060803657, 25.87254388893351], [-111.645524285244, 25.869540254352902], [-111.64590427435665, 25.869192801294837]], [[-111.58779066175332, 25.941153439357734], [-111.5869149401108, 25.940368097247834], [-111.58490689804479, 25.940376219041152], [-111.58449382721872, 25.940753348821357], [-111.58241735373487, 25.940386249687027], [-111.58154942082746, 25.941178629966927], [-111.58242511367106, 25.941964004934555], [-111.58359962367284, 25.941208352775867], [-111.58449605519215, 25.941204738486924], [-111.58532962059722, 25.94195229753913], [-111.58692275996299, 25.94194585122988], [-111.58779066175332, 25.941153439357734]], [[-111.63864880143349, 25.903430002675485], [-111.63948243057644, 25.904177252751694], [-111.64273421709854, 25.90416287555327], [-111.64363411790077, 25.903340291479946], [-111.64404107610899, 25.901896038758917], [-111.64271346278868, 25.900332412171668], [-111.63655832305149, 25.900359560683224], [-111.63565839431045, 25.901182101676145], [-111.6356701476866, 25.90337542199902], [-111.63654543885865, 25.90416005281006], [-111.63733787409318, 25.90343577042842], [-111.63864880143349, 25.903430002675485]]], [[[-111.66071635174166, 25.9243267977929], [-111.66482342752418, 25.922836298360117], [-111.66771472838163, 25.920570247834593], [-111.66895106991504, 25.920564546867936], [-111.6689658574012, 25.923184429370604], [-111.66814215856317, 25.92425520679582], [-111.66898247788143, 25.9261286278949], [-111.67148870278372, 25.92912071094667], [-111.67153160525113, 25.936689093627532], [-111.67029964207752, 25.93894755182075], [-111.6690612689043, 25.940079652935534], [-111.66906512907556, 25.940762884348132], [-111.66831007184828, 25.940766369807047], [-111.66748446700733, 25.941521093997242], [-111.66582478111958, 25.94152873222346], [-111.6645842306088, 25.94228534685459], [-111.65542720597307, 25.950654838091953], [-111.65014020850836, 25.956618344687968], [-111.64806532920902, 25.95662764612098], [-111.64716506351833, 25.957450258794587], [-111.64717122379297, 25.958576607884297], [-111.64634946170855, 25.960082114024427], [-111.64105548462076, 25.964918948771906], [-111.63773543840665, 25.964933612857042], [-111.63690946949878, 25.96568816713227], [-111.63192936281501, 25.96570999268591], [-111.63110335080682, 25.966464514538472], [-111.62778325480349, 25.966478951183472], [-111.62695721055334, 25.96723344988244], [-111.62488213570569, 25.967242422522673], [-111.6238164113007, 25.968215790178473], [-111.62274046801114, 25.967251651916992], [-111.61741185815957, 25.96727447775963], [-111.61658574098728, 25.968028918491903], [-111.61492566675324, 25.968035980247375], [-111.61409952819662, 25.968790407092474], [-111.61285446398115, 25.96879568395318], [-111.61202830675201, 25.969550099230137], [-111.6107832340562, 25.969555358418347], [-111.60830081221346, 25.971067652115515], [-111.60705572267615, 25.971072879524833], [-111.60622951214054, 25.97182726240886], [-111.60498441412734, 25.97183247214216], [-111.60374314946114, 25.972588575326537], [-111.60119374996502, 25.975670536639473], [-111.60162755762306, 25.979355664374303], [-111.60005033165768, 25.979362213176266], [-111.59962609371141, 25.977554340536646], [-111.59879218408004, 25.97680687338673], [-111.5987845783062, 25.975305064494442], [-111.59795069006086, 25.974557591893102], [-111.59792950678309, 25.970368214629936], [-111.59998213499307, 25.965921863920126], [-111.6023974116422, 25.96591183326345], [-111.60577657666595, 25.962826380255194], [-111.60618195907297, 25.960947380924395], [-111.6094748388386, 25.955677108836937], [-111.6094632377434, 25.953424393253595], [-111.61028384249667, 25.951611301834255], [-111.61269882244761, 25.95160110451856], [-111.61352485250478, 25.950846685882606], [-111.61767443517057, 25.95082904680244], [-111.62105474164998, 25.94811869789033], [-111.62352663394748, 25.94472893209836], [-111.62351872525856, 25.94322712349817], [-111.6243446277474, 25.94247264459757], [-111.62433670947549, 25.940970835764077], [-111.6251625912323, 25.940216352349495], [-111.6251487179027, 25.937588186277374], [-111.62679644046764, 25.935328301263738], [-111.62678849361873, 25.933826491653942], [-111.62843812544018, 25.931942040792798], [-111.62925630160595, 25.929753392074286], [-111.63042617771798, 25.929748307027836], [-111.63125194326587, 25.9289937898956], [-111.63297803515039, 25.928986260240936], [-111.63377836626773, 25.929703561357755], [-111.63457098596852, 25.928979293138383], [-111.63546731642438, 25.928975365151313], [-111.63622597235319, 25.92965528921193], [-111.63706583160337, 25.931528902899426], [-111.6366852491229, 25.93791340499029], [-111.63735233995304, 25.93851120821609], [-111.6392516190271, 25.936775722513573], [-111.64003862841537, 25.93492464674097], [-111.63941323744646, 25.934364217516322], [-111.64006520220981, 25.933768447423887], [-111.64004897383462, 25.930764834968105], [-111.6408746837805, 25.930010264112664], [-111.6408706219913, 25.92925936084599], [-111.64286043325274, 25.92744091245025], [-111.64493480335075, 25.927431695221674], [-111.6457604587964, 25.926677097205584], [-111.64907942717126, 25.92666226937589], [-111.64990505042437, 25.925907648268627], [-111.65197939078654, 25.925898330713594], [-111.65280498997534, 25.925143693459518], [-111.65404958557147, 25.925138081737686], [-111.6561155958436, 25.92362690203939], [-111.65908617941615, 25.923613423061234], [-111.66071635174166, 25.9243267977929]], [[-111.63847267164074, 25.9477351682649], [-111.63930661787074, 25.948482408986457], [-111.64297456830087, 25.94846617133113], [-111.6442876982839, 25.947266288673447], [-111.64428189178102, 25.946199336992958], [-111.64295376540306, 25.944635731547297], [-111.63721125963448, 25.94466110844872], [-111.6358980847476, 25.94586092817644], [-111.63590381560971, 25.9469278816587], [-111.636812889041, 25.94774247572287], [-111.63847267164074, 25.9477351682649]]], [[[-111.62946844063016, 25.98524457121856], [-111.62497739022712, 25.985264040540976], [-111.62415119913648, 25.98601852400716], [-111.62159410975721, 25.98602953268129], [-111.62076000301337, 25.985282196573518], [-111.61577905559538, 25.9853034814311], [-111.61452991346528, 25.984557874525272], [-111.60996406784118, 25.984577195095], [-111.60878819190437, 25.98352343812766], [-111.60877628366441, 25.981211330995844], [-111.61076357438112, 25.97864240920949], [-111.61821102130926, 25.97410527398019], [-111.62491824684848, 25.974076468314603], [-111.62609416782868, 25.97513009466851], [-111.62610839984244, 25.97781764639828], [-111.62569533478924, 25.978194891779665], [-111.62612598195153, 25.981137297756828], [-111.62946248580488, 25.984126489332258], [-111.62946844063016, 25.98524457121856]], [[-111.6162337283481, 25.980121055114928], [-111.6183129602573, 25.980863103633084], [-111.62281205570524, 25.980843808874514], [-111.62371266862766, 25.98002134387958], [-111.62370307781536, 25.978203492083036], [-111.62237682665837, 25.97701515685578], [-111.61621767628698, 25.977041514298875], [-111.615317032427, 25.97786393351457], [-111.61532453989561, 25.979306337394664], [-111.6162337283481, 25.980121055114928]]], [[[-111.64115319438788, 25.98294051611875], [-111.639492918623, 25.982947863520735], [-111.63866683793644, 25.983702428101655], [-111.63569473381386, 25.983715516604857], [-111.63277716883327, 25.981475555934164], [-111.6319470399652, 25.981479183773086], [-111.63035193851371, 25.979676517141144], [-111.63034361416236, 25.97811531804756], [-111.63116770646253, 25.976985350267633], [-111.6311616936151, 25.975859000517243], [-111.63315242435384, 25.97404067977215], [-111.63439753896598, 25.97403522730336], [-111.63604961312222, 25.972526141787867], [-111.63853575406951, 25.97176427768242], [-111.63936175393857, 25.971009714157006], [-111.64102186211574, 25.971002371389567], [-111.6418478405853, 25.97024779399388], [-111.6435079372573, 25.970240422913626], [-111.64771204329745, 25.966399419475213], [-111.64894883477555, 25.96489204660225], [-111.64894508665519, 25.964208814694913], [-111.64970029639007, 25.964205427333667], [-111.65184145511536, 25.962626300396554], [-111.654236253252, 25.958928582065024], [-111.65589618700494, 25.95892107194072], [-111.6567964016749, 25.958098406089892], [-111.6567801066788, 25.955162480218778], [-111.65836519746654, 25.955155282007244], [-111.65926536657767, 25.954332601263417], [-111.6592490130584, 25.95139667532484], [-111.66000413947266, 25.951393235787187], [-111.66454336660853, 25.946866974770934], [-111.66868428588641, 25.945346081862045], [-111.66950990900257, 25.944591350855525], [-111.67033977286822, 25.94458751258859], [-111.67412931724328, 25.941123131190725], [-111.67412504259416, 25.94037223409941], [-111.67553496108775, 25.938705803327665], [-111.67511790997048, 25.938332288946498], [-111.67576971268367, 25.93773636155684], [-111.6757611440391, 25.936234567102368], [-111.67658665895154, 25.935479796961896], [-111.67656521486438, 25.931725309702188], [-111.6773906938136, 25.930970535239332], [-111.67696756824317, 25.929530078293652], [-111.6748846204001, 25.928037958343076], [-111.67487392832639, 25.92616071236986], [-111.67403992304403, 25.92541367541448], [-111.67402250181553, 25.922350680361802], [-111.67484793345173, 25.921595920388253], [-111.67484185846087, 25.920528971507675], [-111.67400789386947, 25.919781933002543], [-111.67400328627518, 25.918971634004045], [-111.67482869502439, 25.918216874254178], [-111.67481373417532, 25.91558872616265], [-111.67563308143954, 25.91377527926713], [-111.67811382017446, 25.913763696148667], [-111.68304250206177, 25.91817840065814], [-111.68305331971492, 25.920055645513287], [-111.68388734201781, 25.92080263076338], [-111.6838916748063, 25.921553528359755], [-111.6847257130479, 25.922300508314084], [-111.68473222069426, 25.923426854248717], [-111.68556627759014, 25.92417382880214], [-111.68557496591089, 25.92567562268956], [-111.68640904417774, 25.926422591736685], [-111.686417744046, 25.927924384892428], [-111.68725184368674, 25.9286713484321], [-111.68725837718574, 25.9297976927793], [-111.68809249548791, 25.930544650914992], [-111.68810121828604, 25.932046442684783], [-111.68977388068899, 25.934291238193406], [-111.68978262625313, 25.935793028654327], [-111.6906168032689, 25.936539970467393], [-111.69062556039273, 25.938041760194825], [-111.69145975879579, 25.938788696495003], [-111.6914685274819, 25.940290485488585], [-111.69230274727515, 25.941037416274746], [-111.69231152752613, 25.94253920453412], [-111.69398442168072, 25.94478394357185], [-111.69400017567388, 25.94747146971787], [-111.68788100733137, 25.952689397067925], [-111.68043332847114, 25.95647915837339], [-111.6771307331087, 25.959498300185505], [-111.6713422628957, 25.963279831868103], [-111.66837771772572, 25.96598941993147], [-111.66838196074573, 25.966740315252736], [-111.66673250341616, 25.968625209246596], [-111.66673673648657, 25.96937610454677], [-111.66508510523123, 25.970885532669598], [-111.66468063196425, 25.972764677439528], [-111.66351627900949, 25.973828724028998], [-111.66268620888648, 25.97383252717187], [-111.66061942336988, 25.97534380550994], [-111.65978934212445, 25.975347592243644], [-111.6573074464106, 25.976860715876686], [-111.6548213275122, 25.977622901673858], [-111.6539953831336, 25.978377551757443], [-111.65275022759775, 25.978383173693462], [-111.64985311869384, 25.9798980434876], [-111.64860794611596, 25.979903630086064], [-111.64612580851131, 25.981416565540915], [-111.64446555577436, 25.981423969596502], [-111.64363951791405, 25.982178561930382], [-111.6419792536615, 25.98218593766015], [-111.64115319438788, 25.98294051611875]], [[-111.66334466797674, 25.956566721134816], [-111.66550315654658, 25.95812631684432], [-111.67041632459788, 25.95810365087766], [-111.67172927508969, 25.95690352427078], [-111.67172108759432, 25.95546113194582], [-111.67039462461989, 25.954273237311412], [-111.6646516828189, 25.95429971119942], [-111.66333868727037, 25.95549977489214], [-111.66334466797674, 25.956566721134816]]]]}}]}
