{"type": "FeatureCollection", "features": [{"type": "Feature", "properties": {"uga": "36a", "politica": "preservacion", "procedencia": {"metodo": "digitalizacion-semiautomatica", "fuente": "Mapa de ubicación de la ficha UGA 36a, Boletín Oficial No. 12 (12-mar-2014), p. 270 del PDF", "datum": "UTM 12N con desplazamiento de +30 m E y +165 m N ajustado contra la costa (INC-011)", "correccion_borde_px": 1.4, "precision_aprox_m": 20.0, "escala_por_superficie": false, "revisada_en_qgis": false}, "control": {"residuo_georreferencia_m": 2.5, "area_digitalizada_ha": 279.05, "escala_por_superficie": false, "superficie_ficha_ha": 274.05, "diferencia_area_pct": 1.8}}, "geometry": {"type": "Polygon", "coordinates": [[[-111.00381572741684, 25.34982725950248], [-111.00316175573398, 25.348658206052747], [-111.00154617747974, 25.348658231875003], [-111.00144826258965, 25.348569523744132], [-111.00131680029465, 25.348658234104484], [-111.00105660754069, 25.348569527074737], [-111.00004392042474, 25.34856953085839], [-110.99986318857005, 25.34873327232384], [-111.00032016909675, 25.349502126993187], [-111.00051600113443, 25.350211799327802], [-111.00080974875105, 25.35056663442523], [-111.00080975052325, 25.350832761728707], [-111.00100558315964, 25.3510101787187], [-111.00090767106559, 25.351496928671214], [-111.00046913626079, 25.35149693072119], [-110.99811918232521, 25.34936790095326], [-110.99792335351516, 25.349367898322157], [-110.99753170129685, 25.349101764922565], [-110.99723795872477, 25.349101759706564], [-110.9964546555445, 25.34874690644339], [-110.99596508602019, 25.34874689384441], [-110.99586717513009, 25.348658182004336], [-110.99547551649623, 25.348746879618023], [-110.99537760596333, 25.348658167452523], [-110.99459429529736, 25.34865814078464], [-110.99438169767267, 25.34855422590854], [-110.99405367424994, 25.348807034036646], [-110.99405366851853, 25.348924247320543], [-110.99377742149767, 25.34892423590784], [-110.99348366984903, 25.349101641445753], [-110.99287865746511, 25.349649718532905], [-110.99287864800343, 25.349811286358847], [-110.99230864346286, 25.3499886759137], [-110.99209530581736, 25.350181933231145], [-110.99209529531463, 25.350343501045113], [-110.99186800266563, 25.35034348866978], [-110.99170361639902, 25.350609606810664], [-110.99067759917814, 25.35052083633375], [-110.9904817824013, 25.35034340560077], [-110.99009012164477, 25.350343379766446], [-110.98982857850271, 25.350106391379963], [-110.98857023861774, 25.351512338310094], [-110.98837435698412, 25.352028727105463], [-110.98819601946035, 25.352028712918628], [-110.987101336696, 25.35302027135205], [-110.98710131955573, 25.35318183910118], [-110.98692298034149, 25.353181823372005], [-110.98604164160612, 25.353891414991057], [-110.98579684649418, 25.35389139158332], [-110.98550306062798, 25.354157490131676], [-110.98520930585151, 25.354157460918874], [-110.98452381028889, 25.35468964479512], [-110.98393629816756, 25.354689581875284], [-110.98334874959906, 25.35495564375458], [-110.98236954773043, 25.35504423881608], [-110.98178199402267, 25.355310294428293], [-110.98085383559028, 25.35539888571081], [-110.980853912246, 25.3549121366795], [-110.981245683493, 25.35429122374005], [-110.98124590700166, 25.352842223905995], [-110.98095221099763, 25.35248734991218], [-110.98065862959335, 25.35142280265165], [-110.98026703735741, 25.350979205241554], [-110.97997340714655, 25.350269492815034], [-110.979973450975, 25.350003365507508], [-110.97948398118606, 25.349382334366222], [-110.97948404104962, 25.349027497912363], [-110.97928830345066, 25.34849521579042], [-110.97928842431372, 25.347785542781022], [-110.9791905263681, 25.34769681984833], [-110.97928847969325, 25.347460361119296], [-110.97919058708331, 25.34734198331393], [-110.97919070343634, 25.346661965065664], [-110.97968035346211, 25.34612977853565], [-110.97968038310317, 25.34595236023229], [-110.97997417647495, 25.345597563842407], [-110.97997431280815, 25.344769526505036], [-110.97968063999497, 25.34441464960036], [-110.9796806844524, 25.344148522081746], [-110.97938705909294, 25.343527517022622], [-110.97928943636238, 25.34184202864279], [-110.97919156595749, 25.34162024183643], [-110.97829302789707, 25.340894588066103], [-110.97750984928165, 25.340450924489907], [-110.9771357143054, 25.340450866895214], [-110.97713574467095, 25.340289298875625], [-110.9768245832426, 25.340007272162506], [-110.97662876951885, 25.340007241226772], [-110.97633510070092, 25.339741066663294], [-110.97604139822886, 25.33965230996069], [-110.97556949846248, 25.338958409011052], [-110.97556956057709, 25.338649077388904], [-110.97609058352677, 25.338471744385934], [-110.97625498752053, 25.338205643240837], [-110.9770207875018, 25.337939636935396], [-110.97760830032117, 25.337496181138082], [-110.97799993572885, 25.337407530885635], [-110.97868526912553, 25.337407631633273], [-110.97897901409165, 25.337230255322236], [-110.97966434649416, 25.337230351514698], [-110.97986018511965, 25.337052959894784], [-110.98198051124947, 25.33723065301486], [-110.98227419929485, 25.337408107162737], [-110.98305743748637, 25.3374081993188], [-110.98364483035932, 25.337674393471236], [-110.98393854532559, 25.33767442578547], [-110.98413433216813, 25.337851865510082], [-110.98452595269542, 25.33785190716466], [-110.98591329848367, 25.338709982032917], [-110.98614129643845, 25.338650451222165], [-110.98633708806493, 25.338827887997972], [-110.98651540623266, 25.338827904428058], [-110.98651538832523, 25.338989472488137], [-110.98672867303118, 25.339182760756824], [-110.98692448543893, 25.339182778266874], [-110.98721817609137, 25.33944893175211], [-110.98739649516999, 25.339448947116054], [-110.98739647843216, 25.33961051516308], [-110.98760976562684, 25.339803802140793], [-110.98808178795741, 25.339981259545503], [-110.98808177647454, 25.34009847296794], [-110.98837548306949, 25.340247410696314], [-110.98837545915478, 25.340497687949156], [-110.98866915615586, 25.340763838496486], [-110.98866913963097, 25.34094125693253], [-110.98906072224808, 25.341473541818985], [-110.98935443336151, 25.341622477569256], [-110.98946210605531, 25.341925988043545], [-110.98974813116995, 25.341888633118977], [-110.98991250992106, 25.341622516843337], [-110.99009083218736, 25.341622528946864], [-110.99028666269082, 25.341445123568537], [-110.99084056331826, 25.341445159051045], [-110.99162379698627, 25.341888751716475], [-110.99252172896672, 25.342170125460907], [-110.99302804675142, 25.342154952488745], [-110.99390925078185, 25.341622736318865], [-110.99430088761629, 25.34153404278072], [-110.99651922379012, 25.34162282111305], [-110.99687866781736, 25.34194850920494], [-110.99710666648079, 25.341888961449158], [-110.99740038594649, 25.342155094542385], [-110.99845987984502, 25.34267151422152], [-110.99845987460468, 25.34308540530928], [-110.99816614255042, 25.34335152951899], [-110.99787239990096, 25.344149908232495], [-110.99748074806028, 25.344682157115425], [-110.99726853513005, 25.345850199937765], [-110.99744925839506, 25.34605829933984], [-110.99818359512349, 25.346147019383057], [-110.99851087721193, 25.346324441365446], [-110.99860879018138, 25.346235733168456], [-110.99909834959801, 25.34623573697902], [-110.99978373341237, 25.345880902951773], [-111.00027329140084, 25.345880902856997], [-111.00056702536679, 25.345703483698536], [-111.00121885684804, 25.3457034797468], [-111.00141468182136, 25.345880896316643], [-111.0017084166143, 25.345880893202473], [-111.00229589457282, 25.346324430999104], [-111.00278545637774, 25.34641313170749], [-111.0030791991936, 25.346679253312704], [-111.00337293591433, 25.34667924687882], [-111.00386250556717, 25.346945362297255], [-111.00415624293036, 25.346945354301113], [-111.00454789938222, 25.347122761018397], [-111.00523328756185, 25.34712273825982], [-111.00542912067597, 25.34730014945712], [-111.00572285889535, 25.34730013833644], [-111.00590119732716, 25.347461699177067], [-111.00599913061363, 25.347875586037862], [-111.00580331267382, 25.348053012151563], [-111.00570542013679, 25.348496561626817], [-111.00550960076868, 25.348673987335296], [-111.00531380408674, 25.349383667498287], [-111.00541172377156, 25.34950202791117], [-111.00541179746266, 25.35115784605165], [-111.00523346816703, 25.35131942029066], [-111.00474388828644, 25.35131943687537], [-111.00464597569973, 25.35140814908988], [-111.0041095221706, 25.351319455943997], [-111.00410950771607, 25.350891760859238], [-111.00391366788695, 25.35062563889297], [-111.00381572741684, 25.34982725950248]], [[-110.98419894988001, 25.346383153689963], [-110.98438010815366, 25.346219061082152], [-110.98438014614023, 25.34592327874633], [-110.98403539317376, 25.3457299730601], [-110.98382204986065, 25.345923218503092], [-110.98382201641674, 25.34617464626218], [-110.98419894988001, 25.346383153689963]]]}}]}
