{"type": "FeatureCollection", "features": [{"type": "Feature", "properties": {"uga": "36b", "politica": "preservacion", "procedencia": {"metodo": "digitalizacion-semiautomatica", "fuente": "Mapa de ubicación de la ficha UGA 36b, Boletín Oficial No. 12 (12-mar-2014), p. 273 del PDF", "datum": "UTM 12N con desplazamiento de +30 m E y +170 m N ajustado contra la costa (INC-011)", "correccion_borde_px": 1.4, "precision_aprox_m": 13.0, "escala_por_superficie": false, "revisada_en_qgis": false}, "control": {"residuo_georreferencia_m": 5.4, "area_digitalizada_ha": 87.24, "escala_por_superficie": false, "superficie_ficha_ha": 86.23, "diferencia_area_pct": 1.2}, "georreferencia": {"a_x": 6.321485654670049, "b_x": 502714.2713790803, "a_y": -6.31001581855953, "b_y": 2802558.1441005357, "factor_render": 1, "pagina_mapa": 273, "ficha_mapa": "36b"}}, "geometry": {"type": "Polygon", "coordinates": [[[-110.9656583980027, 25.330610358777356], [-110.9650943806416, 25.33061022624943], [-110.96490597125242, 25.330496213928917], [-110.96434066172725, 25.330439094423916], [-110.96402662543838, 25.33032505052217], [-110.96346130001824, 25.330324911425137], [-110.96295887524823, 25.330039867052225], [-110.96270762009716, 25.330039803679107], [-110.96251923137795, 25.329868804517503], [-110.96214236690746, 25.32981172438914], [-110.96189116575484, 25.329640708269665], [-110.96145148873589, 25.329583610115783], [-110.95994413229704, 25.329070353956247], [-110.95963505522369, 25.32901779634411], [-110.95954080692458, 25.329103246187717], [-110.95944164500438, 25.329013232717102], [-110.9591903919831, 25.329013163349362], [-110.95912759786283, 25.32895616215177], [-110.95838376356733, 25.329012937754232], [-110.95805834232607, 25.329307973352233], [-110.95805830657225, 25.32941173202379], [-110.95719005119388, 25.329753385069317], [-110.95693879665198, 25.329753311860536], [-110.9568759628269, 25.3298102772723], [-110.95548413909825, 25.329752879592487], [-110.95491887971346, 25.329581756384783], [-110.95460481198872, 25.3295816599668], [-110.95448419780257, 25.32947216570567], [-110.95430070960367, 25.32952458218297], [-110.95392369908348, 25.32986636749595], [-110.95366749231147, 25.329813813895715], [-110.9536096306287, 25.329866268955865], [-110.95315999082891, 25.32986612671461], [-110.95297161581138, 25.329695115360693], [-110.95279442834214, 25.329695058705237], [-110.95273174355447, 25.32936334478952], [-110.95263242667426, 25.32927318168253], [-110.9527266799478, 25.329187736266164], [-110.9526062276348, 25.329078385528977], [-110.95260627563626, 25.328955106896828], [-110.95272068911115, 25.328851384966708], [-110.95297198580975, 25.32873749779411], [-110.95342162143905, 25.328737640603126], [-110.95348441277065, 25.32879464423013], [-110.95379850008929, 25.32873775924685], [-110.95386129159772, 25.328794762713503], [-110.95448942298145, 25.328794958043837], [-110.95460508412835, 25.328851977512258], [-110.9553703080892, 25.32827216440078], [-110.95574755820095, 25.327246569736356], [-110.95581059808704, 25.326619766761404], [-110.9559363046286, 25.326391869154744], [-110.95637619213356, 25.325822161874708], [-110.95637623297362, 25.32570819425153], [-110.95662760097728, 25.325366365527266], [-110.95662763794397, 25.32526260680068], [-110.95674200765278, 25.325262640415247], [-110.95702972248252, 25.32500178685962], [-110.95709251358207, 25.32505878897784], [-110.95740779925073, 25.324829902289537], [-110.95738161672067, 25.32456881196568], [-110.95750731819943, 25.32434091294892], [-110.95750745417317, 25.32395133724624], [-110.95738187278447, 25.323837333320103], [-110.95738193262686, 25.323666381836365], [-110.95713087122992, 25.323153454497735], [-110.95706818156167, 25.322811533213144], [-110.95640382158969, 25.322037400770053], [-110.95646665161769, 25.321980435494492], [-110.95592684665185, 25.32143337513143], [-110.95485917235514, 25.321205116601355], [-110.95461926916205, 25.320987316431687], [-110.95461933254076, 25.32081726272223], [-110.95580161694325, 25.320361751132243], [-110.95599010509716, 25.32019085595258], [-110.95737189653126, 25.320191262053903], [-110.95743472515305, 25.32013429634957], [-110.95838679842501, 25.32013456821515], [-110.95844461760537, 25.32018705786322], [-110.9586380331207, 25.320134638929986], [-110.95888924857852, 25.320191693073355], [-110.95901482762571, 25.32030569576854], [-110.95932885240606, 25.320362766613396], [-110.95945443204158, 25.32047676893213], [-110.95960649351774, 25.320443808226848], [-110.95976843864271, 25.320590822694182], [-110.96014527345372, 25.320647908929224], [-110.96108722545141, 25.321217999190136], [-110.96152683607978, 25.321389066159043], [-110.96228038908659, 25.321902115600086], [-110.96245756523527, 25.321902160836267], [-110.96245753324231, 25.32200591961765], [-110.9633993866727, 25.322974881898126], [-110.96339935241186, 25.3230888495734], [-110.96377612885095, 25.323373861861114], [-110.96427844444918, 25.323943822838537], [-110.96534570632976, 25.325767560167126], [-110.96547110321754, 25.326565363059085], [-110.96572212655931, 25.327363195034007], [-110.96572138574996, 25.32999376069002], [-110.96565855590589, 25.330050729849496], [-110.96565849422016, 25.33026935391984], [-110.96575782157437, 25.330359508247682], [-110.9656584433578, 25.330449616332015], [-110.9656583980027, 25.330610358777356]], [[-110.95775236046839, 25.327422765070768], [-110.95755788318024, 25.32718922059565], [-110.95744220230281, 25.327189187233788], [-110.95730528101903, 25.32731332414451], [-110.95730524431163, 25.327417980676405], [-110.95756271369211, 25.32759470484005], [-110.95775236046839, 25.327422765070768]]]}}]}
