{"type": "FeatureCollection", "features": [{"type": "Feature", "properties": {"uga": "36c", "politica": "preservacion", "procedencia": {"metodo": "digitalizacion-semiautomatica", "fuente": "Mapa de ubicación de la ficha UGA 36c, Boletín Oficial No. 12 (12-mar-2014), p. 276 del PDF", "datum": "UTM 12N con desplazamiento de +30 m E y +170 m N ajustado contra la costa (INC-011)", "correccion_borde_px": 1.4, "precision_aprox_m": 9.0, "escala_por_superficie": true, "revisada_en_qgis": false}, "control": {"residuo_georreferencia_m": 0.0, "area_digitalizada_ha": 78.06, "escala_por_superficie": true, "superficie_ficha_ha": 78.05, "diferencia_area_pct": 0.0}, "georreferencia": {"a_x": 2.2695289233854674, "b_x": 505153.18031392526, "a_y": -2.2695289233854674, "b_y": 2796788.497014608, "factor_render": 2, "pagina_mapa": 276, "ficha_mapa": "36c"}}, "geometry": {"type": "MultiPolygon", "coordinates": [[[[-110.9411874064406, 25.28022470823618], [-110.94126308404127, 25.28034771163623], [-110.94136768392164, 25.280347753234416], [-110.94136760865683, 25.280504343290627], [-110.94141267321989, 25.28054535227422], [-110.94141249603258, 25.28091427195573], [-110.94150252723368, 25.281201245246297], [-110.94150236997093, 25.281529173824374], [-110.94154743495723, 25.28157018276188], [-110.94154727781259, 25.281898111323812], [-110.94159234295007, 25.281939120245827], [-110.94159211408694, 25.282417067815242], [-110.94154697373189, 25.282532648909164], [-110.9412394697307, 25.282573517846195], [-110.94110415530756, 25.282696437116524], [-110.94083360517892, 25.282778311023456], [-110.94060809988893, 25.282942184713], [-110.94047284443695, 25.28294213020911], [-110.94038263406463, 25.283024075929184], [-110.94029246370312, 25.283024039469147], [-110.9399767665785, 25.283228866731765], [-110.93975134029819, 25.283228774857584], [-110.93948076774635, 25.283351637334114], [-110.93925532082636, 25.28339253576117], [-110.93916510930393, 25.283474480729748], [-110.93893968257306, 25.28347438761469], [-110.93857891723677, 25.2836382021458], [-110.93845899916454, 25.283638152178504], [-110.93836886977817, 25.283556132427076], [-110.93828680984011, 25.28355609812825], [-110.93824179337503, 25.283419984811168], [-110.93785878739364, 25.282989417790414], [-110.9378588187193, 25.28292793119943], [-110.93763348732142, 25.28274337631535], [-110.93758848614412, 25.28257939300404], [-110.93749025116135, 25.282489995025205], [-110.93705439478639, 25.28225738621627], [-110.93694933733762, 25.28228480952208], [-110.93681414632636, 25.282161778474027], [-110.93649861633435, 25.282038669801533], [-110.9363634260509, 25.28191563833784], [-110.93619119768455, 25.28191556396107], [-110.93611552423508, 25.28179255799384], [-110.9357775183136, 25.281546464815545], [-110.93565037510103, 25.28154640942395], [-110.93557470242574, 25.28142340317472], [-110.93510140152082, 25.281259231461938], [-110.93497434208398, 25.28110258546712], [-110.93479428907159, 25.28056962197757], [-110.93483945347559, 25.280419622850644], [-110.9347943986275, 25.28036466661735], [-110.93479450072812, 25.28017365649774], [-110.93483960674627, 25.28013268533865], [-110.9348398257003, 25.279722774587878], [-110.93488493153617, 25.279681803412075], [-110.93488520153576, 25.279175965229722], [-110.93475008182259, 25.278929959009027], [-110.9347502024068, 25.27870450806257], [-110.93451677698987, 25.278512570497487], [-110.93436616691116, 25.278553494681514], [-110.93406594190898, 25.27851236975634], [-110.9338488086637, 25.278191718095346], [-110.93384893446114, 25.277959716838044], [-110.93429187385902, 25.277557378015278], [-110.93451726763394, 25.277598469297235], [-110.93470582436986, 25.277386223095625], [-110.93475106092008, 25.277099305405976], [-110.93488641926332, 25.276894409684935], [-110.93488729035835, 25.275262140081754], [-110.93496934471212, 25.275262176260163], [-110.93506766714174, 25.275172863069812], [-110.93506770684557, 25.27509825512376], [-110.93514976108942, 25.27509829120164], [-110.93537528087951, 25.274893434561868], [-110.93560073500849, 25.274811550883687], [-110.93592461783749, 25.274435397560403], [-110.93592470393916, 25.27427143313273], [-110.93610520342585, 25.273943582443405], [-110.93619573144153, 25.27324677255635], [-110.93627782340262, 25.27317220003737], [-110.93636031442459, 25.273179208260373], [-110.9365033164058, 25.27300833272474], [-110.93686409546848, 25.2727625407446], [-110.9370480352321, 25.272738848599925], [-110.93709767588327, 25.272639667098243], [-110.93726989115864, 25.272639740391934], [-110.93763064663968, 25.27243493763972], [-110.9377131372428, 25.27244194510652], [-110.93781101348166, 25.272353031489743], [-110.9380210829314, 25.272353119850994], [-110.93824640613526, 25.272517178808414], [-110.93853937262655, 25.272640274474927], [-110.93920718002886, 25.273248043669113], [-110.93929728198898, 25.27337105412509], [-110.93926702522073, 25.273466546854152], [-110.93938726196164, 25.273740011206648], [-110.9393871263563, 25.274013003733153], [-110.93916972878723, 25.27421049562718], [-110.93909490190325, 25.27421046476781], [-110.93896778683062, 25.274169421138588], [-110.93896781389654, 25.274115308732124], [-110.93883260275354, 25.274046391817492], [-110.93883264015334, 25.27397178385464], [-110.93846402372638, 25.2736773185213], [-110.93807320576163, 25.27358820018543], [-110.93796721481517, 25.273684484810808], [-110.93792200796442, 25.273930412525345], [-110.9377866371124, 25.27417630223851], [-110.93778656730278, 25.27431322082381], [-110.93783158660789, 25.27443621314524], [-110.9380568925871, 25.27464126345957], [-110.93819201424564, 25.274887266799286], [-110.93848488303666, 25.27521531806844], [-110.93848473837255, 25.275502255791903], [-110.93857486189908, 25.275584275551047], [-110.93857478637425, 25.27573429470221], [-110.93848453873662, 25.27589822155071], [-110.93848441845243, 25.27613679389155], [-110.9383752911504, 25.276181838582637], [-110.9383942010249, 25.276240057990314], [-110.93868028336793, 25.27662344397606], [-110.93876278386315, 25.27661650560361], [-110.93885290839836, 25.276698525182468], [-110.93903321928249, 25.276739590885736], [-110.93961116577894, 25.276780819615205], [-110.93965566433309, 25.27796220549887], [-110.94042168023421, 25.278782338664303], [-110.94042133991003, 25.279479187090104], [-110.94100711306645, 25.280135279841556], [-110.94110534873944, 25.280224675508894], [-110.9411874064406, 25.28022470823618]], [[-110.93764202727864, 25.27926693469513], [-110.93781565942, 25.279150183357306], [-110.93771745507333, 25.279005849161518], [-110.93751361595804, 25.27911561497255], [-110.93764202727864, 25.27926693469513]]], [[[-110.94578781445419, 25.27611998581136], [-110.94578758387239, 25.276638924893877], [-110.94569738173335, 25.276720873947124], [-110.94569727226666, 25.27696682054918], [-110.9455619502674, 25.277130735117723], [-110.94551672081678, 25.27745864726247], [-110.94538134297451, 25.27774553493959], [-110.94538125121721, 25.27795049041233], [-110.94529104783427, 25.27803243920059], [-110.94524580222875, 25.27839396805614], [-110.94490858240287, 25.27839384255129], [-110.94454798914678, 25.27822974310128], [-110.94427760100963, 25.27798369465616], [-110.94418743436762, 25.277983660582674], [-110.94395442757167, 25.27781263524613], [-110.9437366956804, 25.277778533922795], [-110.94355641959497, 25.277655491778262], [-110.94286483421608, 25.277655225645475], [-110.94277462936475, 25.27773717289635], [-110.94254919391842, 25.277778076407447], [-110.94245898876449, 25.2778600234635], [-110.94215874326905, 25.277859906089024], [-110.94193338543106, 25.27773684428875], [-110.94166290566459, 25.277695746514464], [-110.94107700208122, 25.277326593830235], [-110.9409868359299, 25.277326557802088], [-110.94054435169372, 25.276841861215303], [-110.94040920311076, 25.27663685117951], [-110.94040934325633, 25.276349913489927], [-110.94031923798052, 25.27622690375642], [-110.9402743359036, 25.275857965610243], [-110.94018421103056, 25.275775946889453], [-110.94004914479378, 25.275406972082237], [-110.93995902040486, 25.275324953219812], [-110.93995908091767, 25.275201979904796], [-110.93982389469741, 25.275078951504934], [-110.93982396868424, 25.274928932336962], [-110.94001205000455, 25.274758071811412], [-110.9400044183713, 25.27468305910718], [-110.94018482714182, 25.274519167866323], [-110.9401848637156, 25.27444455990638], [-110.94026691752785, 25.27444459313846], [-110.94035712162109, 25.274362647382432], [-110.94089812523823, 25.27432187389888], [-110.94107849268784, 25.274239963777926], [-110.94139408592326, 25.27419909831329], [-110.94175485868718, 25.27395329440605], [-110.94211557166305, 25.273830462950873], [-110.94247634188585, 25.273584657263253], [-110.9425665052744, 25.27358469237651], [-110.94270180810149, 25.273461771593055], [-110.94287448218935, 25.27342782003417], [-110.94301745621291, 25.27329792929501], [-110.94310761939043, 25.273297964077344], [-110.94329613549725, 25.273126697856682], [-110.94329617016646, 25.273052089878522], [-110.94343144658319, 25.272983280834488], [-110.94343147166826, 25.272929168414993], [-110.94349098373982, 25.272929191212018], [-110.94364884454224, 25.272765287053428], [-110.94381383333123, 25.27276534995272], [-110.9439409485812, 25.27280638941637], [-110.94394092372218, 25.27286050183724], [-110.94426446003365, 25.273175432086393], [-110.94434651299838, 25.27317546304893], [-110.94442218942997, 25.273298464944432], [-110.9445267832727, 25.2732985042931], [-110.94452674935553, 25.273373112270345], [-110.94489536101663, 25.273708553615425], [-110.94497741434076, 25.273708584227812], [-110.94497736221466, 25.273824183318222], [-110.9451206591125, 25.273954584301332], [-110.94521082277848, 25.273954617799657], [-110.94553393288439, 25.274248647878604], [-110.94561643139195, 25.274241705669226], [-110.94569845187337, 25.27431634385052], [-110.94569810526838, 25.27509517498266], [-110.94574316929558, 25.275136182672984], [-110.94571278946233, 25.275518614468226], [-110.94574275004929, 25.2760789781395], [-110.94578781445419, 25.27611998581136]]], [[[-110.9433671456297, 25.280396497854714], [-110.94344964841606, 25.28038955686969], [-110.9435316716949, 25.280464196197837], [-110.94353156429864, 25.280696197418536], [-110.94330602837698, 25.280942057442928], [-110.94330599027411, 25.281024039594296], [-110.94321578322273, 25.281105987073616], [-110.94321571032779, 25.28126257711884], [-110.94304348286174, 25.281262510741616], [-110.94299837917485, 25.28130348440644], [-110.94270625511888, 25.281262380190412], [-110.94270651464652, 25.280709824636812], [-110.94279679863457, 25.280463913153504], [-110.94301420150902, 25.280266416093156], [-110.94330634233638, 25.280266528621578], [-110.9433671456297, 25.280396497854714]]]]}}]}
