{"type": "FeatureCollection", "features": [{"type": "Feature", "properties": {"uga": "37a", "politica": "conservacion", "procedencia": {"metodo": "digitalizacion-semiautomatica", "fuente": "Mapa de ubicación de la ficha UGA 37a, Boletín Oficial No. 12 (12-mar-2014), p. 279 del PDF", "datum": "UTM 12N con desplazamiento de +30 m E y +170 m N ajustado contra la costa (INC-011)", "correccion_borde_px": 1.4, "precision_aprox_m": 127.0, "escala_por_superficie": false, "revisada_en_qgis": false}, "control": {"residuo_georreferencia_m": 76.8, "area_digitalizada_ha": 2225.71, "escala_por_superficie": false, "superficie_ficha_ha": 2628.43, "diferencia_area_pct": -15.3}}, "geometry": {"type": "MultiPolygon", "coordinates": [[[[-111.51033485604988, 25.82423355198307], [-111.50559899713504, 25.82975934078803], [-111.50334079455482, 25.827706661277666], [-111.50208581788084, 25.82771100296409], [-111.50082600375302, 25.826565778188307], [-111.49957103862411, 25.826570097979275], [-111.49328191709425, 25.823142862470007], [-111.49202698661364, 25.82314711658766], [-111.49076731679504, 25.82200180176911], [-111.48459919605807, 25.82202249957772], [-111.48334894314283, 25.823176237921253], [-111.4745644085239, 25.823205188840603], [-111.47393922960993, 25.82378201685214], [-111.47194806107765, 25.823213708831133], [-111.4708018770907, 25.823792214508085], [-111.45073011306651, 25.823281064002302], [-111.45072369049053, 25.821584707829185], [-111.4528630269516, 25.81788105594169], [-111.45136249961429, 25.816515869381096], [-111.45874516913709, 25.81649275711022], [-111.4606230220253, 25.815337240174014], [-111.46376015633395, 25.815327265290453], [-111.465010520813, 25.814173692712814], [-111.46877504265382, 25.8141616016096], [-111.47002534577904, 25.813007986551135], [-111.47378982806003, 25.812995766094687], [-111.47504006982683, 25.811842108568758], [-111.48318685235103, 25.811815259082735], [-111.482577647772, 25.816309339808573], [-111.48646803311826, 25.818701770557055], [-111.49012621266957, 25.818689480802615], [-111.49211695357651, 25.816852144157895], [-111.49210540070273, 25.814056502339263], [-111.4907294147133, 25.81280533038861], [-111.48457127722332, 25.812825988070042], [-111.48456246954514, 25.81066110383769], [-111.48821089640826, 25.810648897508727], [-111.48946097208791, 25.809495117934883], [-111.49646876295483, 25.809471356037434], [-111.4977283520283, 25.810616624549272], [-111.50149758338615, 25.811753245862064], [-111.50275724455821, 25.812898469370708], [-111.50401206497959, 25.812894124199737], [-111.50716380142943, 25.816331883344272], [-111.50830267878351, 25.816327905212667], [-111.5083071323771, 25.817371214935207], [-111.511466520011, 25.822533207085936], [-111.51147380842647, 25.824229547869603], [-111.51033485604988, 25.82423355198307]]], [[[-111.53156145291213, 25.94039727487118], [-111.53395767853563, 25.940388462270583], [-111.53396238274436, 25.9414317498872], [-111.53623286409986, 25.943492553150644], [-111.53848460415583, 25.941415009898318], [-111.538479860111, 25.94037172305335], [-111.54149464560152, 25.940360485155573], [-111.5415050307882, 25.942631555142167], [-111.53911874689805, 25.944833309773294], [-111.53786253855233, 25.94483797999926], [-111.53661153991608, 25.945992169685844], [-111.53347098644238, 25.94600377094522], [-111.53221993216383, 25.947157923378683], [-111.52849133388129, 25.947171576691854], [-111.53311234643732, 25.9434857216914], [-111.53151551759932, 25.942036301618725], [-111.52957640686628, 25.94382520761185], [-111.52958107318749, 25.944868495477177], [-111.5278128607163, 25.94487494963064], [-111.52656176206924, 25.946029054039887], [-111.52404931456601, 25.946038166184515], [-111.52279816653898, 25.94719223865262], [-111.5214353414264, 25.947197151496844], [-111.52054288155486, 25.946386966518286], [-111.51927172259148, 25.947559430819755], [-111.52518944512295, 25.952931338576374], [-111.5149173515942, 25.952729608314613], [-111.5136485635535, 25.95447679069012], [-111.51466819320864, 25.95540245150692], [-111.51580840417172, 25.95539839440918], [-111.51581784021329, 25.957563225099594], [-111.5127980672545, 25.958723501655328], [-111.50465623094517, 25.9644998620312], [-111.50266499050088, 25.96450678976273], [-111.50152026646964, 25.963467455002384], [-111.5002492710381, 25.960023198872314], [-111.49610986190771, 25.956837045805724], [-111.49760117861933, 25.955462106355384], [-111.50022043277289, 25.95545308186659], [-111.50111282531456, 25.956263392133152], [-111.50173855694752, 25.955686449328535], [-111.50236916226503, 25.956259038844948], [-111.50362060694046, 25.955105139897668], [-111.50519714620243, 25.9565365876871], [-111.50639547640444, 25.955431618596045], [-111.50864837223469, 25.95566234200094], [-111.50929403880802, 25.95506694693053], [-111.50901918002367, 25.954244877448122], [-111.50769487234997, 25.95304249728715], [-111.50613063995768, 25.954484912594587], [-111.50513121645217, 25.953577470206966], [-111.50399102113292, 25.95358144297405], [-111.50397935582842, 25.95084183938946], [-111.5051195247596, 25.9508378671031], [-111.5104956810036, 25.947034203413953], [-111.51112628113351, 25.947606755533403], [-111.51263727964859, 25.946213243310204], [-111.5145216215936, 25.946206561709367], [-111.5155330925956, 25.945273682810978], [-111.51403021947351, 25.94390920192348], [-111.51639593539308, 25.943900787286132], [-111.52829395214592, 25.93581102080587], [-111.53139413592467, 25.93579968307646], [-111.52990346156571, 25.93717496448968], [-111.53018356882706, 25.939146527302402], [-111.53156145291213, 25.94039727487118]]], [[[-111.52533083041442, 25.949588421286588], [-111.52434188238227, 25.948690714737264], [-111.52583276487113, 25.947315489495377], [-111.52907994542046, 25.947303663987118], [-111.53145544207605, 25.94945983019764], [-111.52908962076995, 25.949468492504803], [-111.52783848707895, 25.950622607773095], [-111.52533546050945, 25.950631709036536], [-111.52533083041442, 25.949588421286588]]], [[[-111.55206982986434, 25.909215572011647], [-111.55391869814885, 25.910893722273048], [-111.55392980409714, 25.91327104077084], [-111.55267929195384, 25.914425366319286], [-111.55331796358604, 25.91672203470056], [-111.55180000892916, 25.91870040979076], [-111.55243065178952, 25.91927278359862], [-111.5508674115423, 25.92071567310462], [-111.55146619118872, 25.923626402567425], [-111.54897286763627, 25.927659298028605], [-111.54584339809426, 25.929970222001415], [-111.54585610953309, 25.932729095987696], [-111.54434247681768, 25.931355329407847], [-111.54307171597654, 25.932527998752665], [-111.54307962096624, 25.93425229530534], [-111.54434099852966, 25.935397112184667], [-111.54273487347086, 25.936879203257163], [-111.54273965426142, 25.937922489870854], [-111.54086496957753, 25.93792950095849], [-111.53834224996739, 25.935639795707264], [-111.53029361761544, 25.93566947891684], [-111.53028392617837, 25.93350464669751], [-111.53268001286135, 25.933495857395414], [-111.53404653310433, 25.932235029231784], [-111.5336834640053, 25.930838554340966], [-111.5365404629623, 25.92820238353598], [-111.53653525774006, 25.92705285034535], [-111.54027973281256, 25.921865952004477], [-111.54027187289428, 25.920141651704267], [-111.54152256716651, 25.918987431200314], [-111.54149368836477, 25.91266499353932], [-111.54274166227975, 25.91093599544523], [-111.5427285095017, 25.90806215822136], [-111.54518436894372, 25.90521818544938], [-111.54396623278016, 25.904112332861402], [-111.5439161652567, 25.89319173726397], [-111.54264736459204, 25.890322596108305], [-111.54262371678178, 25.885149673496244], [-111.54136289934836, 25.884004824993593], [-111.54133407384177, 25.877682356667183], [-111.54007334931975, 25.87653749432386], [-111.5400656354691, 25.874841173563546], [-111.545589686292, 25.874820510906645], [-111.54560276031593, 25.877666369592827], [-111.54435516896406, 25.87939539393985], [-111.54436271521055, 25.881041448446375], [-111.54815584558533, 25.88677495795147], [-111.54816380839996, 25.88849926392278], [-111.55041337232859, 25.890541598276997], [-111.54978821949602, 25.89111874734679], [-111.550691027554, 25.89193836235648], [-111.55259858394292, 25.89710410877394], [-111.55260965664768, 25.89948143232425], [-111.55073407379639, 25.901212899654272], [-111.5507474165247, 25.904086735744183], [-111.5495395301784, 25.905201745251247], [-111.55013285906759, 25.906962954415786], [-111.54923756126824, 25.90778938650135], [-111.54988826430707, 25.90838004713756], [-111.55053346699391, 25.907784471715022], [-111.55025323609686, 25.905840934159702], [-111.55389503328726, 25.905827068229478], [-111.55390295554729, 25.907523377817245], [-111.55206982986434, 25.909215572011647]]], [[[-111.54923646979853, 25.83967799465818], [-111.5517144184318, 25.841928604968817], [-111.55235835626749, 25.845453104961717], [-111.55059912280315, 25.847077883294475], [-111.54871636546582, 25.847085008915194], [-111.54746648591363, 25.84823928954971], [-111.54370093178125, 25.84825343575625], [-111.54245099063401, 25.849407674019353], [-111.53995010453323, 25.84941699401152], [-111.53993718218231, 25.846571121579267], [-111.54118711887345, 25.845416904590046], [-111.54175906174454, 25.84257998788399], [-111.54117178274828, 25.842046522533952], [-111.54142565865585, 25.838270360096892], [-111.53788371236548, 25.834480307384908], [-111.536112817164, 25.835636420054673], [-111.53238772315515, 25.83565011879622], [-111.53485706277684, 25.83336990511364], [-111.53485237323454, 25.832326602108623], [-111.53599139858895, 25.832322404628933], [-111.53700174495691, 25.831389379144465], [-111.53635153392207, 25.830798646748196], [-111.53572662016657, 25.831375736067145], [-111.5335843424958, 25.829429353445573], [-111.53357918860304, 25.828279804050613], [-111.52982702988277, 25.82429803275964], [-111.5359551605411, 25.824275561397876], [-111.53857013093236, 25.821860509183473], [-111.53981722012558, 25.82013152919697], [-111.5398094023356, 25.818407204594667], [-111.54130897638677, 25.81702214455916], [-111.54293755654393, 25.818501800593157], [-111.5448198635088, 25.818494757122107], [-111.54634158563039, 25.819877236595673], [-111.54785056775881, 25.818483365200482], [-111.54973287288584, 25.818476258110387], [-111.55109791001169, 25.817215273555373], [-111.55108763214812, 25.814994432338622], [-111.54971102608349, 25.81374382870765], [-111.54787961002657, 25.813224727242048], [-111.54480771884131, 25.813762288208153], [-111.54479732993026, 25.81149117913469], [-111.54854319164272, 25.80745359957629], [-111.54853044840426, 25.804685969864448], [-111.54966920679615, 25.80468166943249], [-111.5510340894177, 25.803420685655574], [-111.55102913502903, 25.80234939055107], [-111.54965267833062, 25.801098781813717], [-111.54851395417683, 25.801103081562317], [-111.54912072819394, 25.79663674554277], [-111.55025940955642, 25.79663244173442], [-111.5515087297575, 25.79547813816174], [-111.55589041775295, 25.795461456676918], [-111.55593050679596, 25.80405508897132], [-111.55530582738334, 25.80463226077555], [-111.55473735643906, 25.8172796853844], [-111.55225914384879, 25.824080279441148], [-111.54421808801129, 25.824110614445843], [-111.54039076673324, 25.826491152123307], [-111.54198612126912, 25.827940520372387], [-111.54360698569607, 25.827695842761674], [-111.547393039078, 25.83227989580818], [-111.54915956937008, 25.832273229587166], [-111.54980783351574, 25.83676279284626], [-111.55043802411247, 25.83733518895817], [-111.55044370507338, 25.838562988399374], [-111.54923646979853, 25.83967799465818]]]]}}]}
