{"type": "FeatureCollection", "features": [{"type": "Feature", "properties": {"uga": "37b", "politica": "preservacion", "procedencia": {"metodo": "digitalizacion-semiautomatica", "fuente": "Mapa de ubicación de la ficha UGA 37b, Boletín Oficial No. 12 (12-mar-2014), p. 282 del PDF", "datum": "UTM 12N con desplazamiento de +30 m E y +170 m N ajustado contra la costa (INC-011)", "correccion_borde_px": 1.4, "precision_aprox_m": 125.0, "escala_por_superficie": false, "revisada_en_qgis": false}, "control": {"residuo_georreferencia_m": 129.5, "area_digitalizada_ha": 1906.83, "escala_por_superficie": false, "superficie_ficha_ha": 2344.39, "diferencia_area_pct": -18.7}}, "geometry": {"type": "MultiPolygon", "coordinates": [[[[-111.47945921762461, 25.97169735719489], [-111.47947937835832, 25.976669367633423], [-111.48073271230125, 25.97779522666271], [-111.48073996669822, 25.9795792228881], [-111.47861161895976, 25.981519309412622], [-111.47950229470065, 25.982319375330828], [-111.47951182420562, 25.98466837114934], [-111.47764543824822, 25.986369568477958], [-111.47764959349658, 25.987397658346044], [-111.47588894328945, 25.98740346037998], [-111.4749057043494, 25.988299614536192], [-111.47391528860108, 25.987409938876006], [-111.46589810686922, 25.98743597835359], [-111.46491479075569, 25.988332065647338], [-111.4639244488039, 25.98744232056743], [-111.46215153882254, 25.987447994735444], [-111.46116819377808, 25.988344056948645], [-111.46017787950937, 25.98745428584322], [-111.45840496841163, 25.98745991410334], [-111.45716048254215, 25.98859386948986], [-111.4521650028841, 25.988609568734663], [-111.45092044433368, 25.989743471218613], [-111.44717379529699, 25.989755100702926], [-111.44530472844401, 25.990890884374252], [-111.44155804015548, 25.99090236889425], [-111.44031335456185, 25.992036181404035], [-111.43833961267867, 25.992042175586135], [-111.43708652330429, 25.990915948180596], [-111.43343606273504, 25.989796912044635], [-111.42996496583598, 25.993525245419022], [-111.42871193921964, 25.992398944887142], [-111.42658146413207, 25.99377235621975], [-111.42284693151879, 25.993783321132913], [-111.42284325196984, 25.992755224410764], [-111.4215903005851, 25.99162886112474], [-111.42158595118697, 25.99040985775373], [-111.42278178298115, 25.9893208451168], [-111.42184209532121, 25.988476072571824], [-111.42525718414699, 25.983098474805892], [-111.42431752918527, 25.98225371721995], [-111.42530010103238, 25.981358818549914], [-111.42591468908499, 25.97863386903612], [-111.4307971428143, 25.978619416762307], [-111.43327418280269, 25.976363067994622], [-111.43329240530926, 25.98133510729294], [-111.43586306351155, 25.984208939170287], [-111.43965916414922, 25.980750892547896], [-111.4390267067263, 25.978581766991727], [-111.43653515023783, 25.976342178969592], [-111.44202759950397, 25.976325507440485], [-111.443272105369, 25.975191680081426], [-111.4457695652636, 25.975184009224346], [-111.44701402289239, 25.974050150132673], [-111.44826274027355, 25.97404628796283], [-111.44950716185205, 25.972912407725957], [-111.45138021916493, 25.97290657840305], [-111.45262459860008, 25.971772671736385], [-111.45959276449469, 25.971750713370696], [-111.46048222544792, 25.97254998959777], [-111.46111758903383, 25.971970953681684], [-111.45961490039149, 25.970620623071614], [-111.46822876047871, 25.970593014592893], [-111.47196577240764, 25.968320839475222], [-111.47694357060205, 25.967174504986474], [-111.47758116726268, 25.970460546135676], [-111.47857045252749, 25.971349289915384], [-111.47732633000918, 25.972483416254843], [-111.47796627379934, 25.97305831655859], [-111.47945921762461, 25.97169735719489]], [[-111.4779886247687, 25.9753062749257], [-111.4773486685183, 25.974731375070327], [-111.47671337101163, 25.975310481131043], [-111.47735332740363, 25.975885383749233], [-111.4779886247687, 25.9753062749257]], [[-111.47398718734212, 25.977252468752692], [-111.47460057819247, 25.97451440930092], [-111.4719810976383, 25.972161026221475], [-111.46947859069432, 25.973966105676045], [-111.47073369684614, 25.975568061061495], [-111.4707404453208, 25.97726306624884], [-111.47210673189811, 25.978490545598245], [-111.47398718734212, 25.977252468752692]], [[-111.44957178859661, 25.980199923159077], [-111.45276823218414, 25.983072419585632], [-111.458911917357, 25.983053064804967], [-111.46026855665156, 25.981816825149227], [-111.46025570433474, 25.978515805755446], [-111.45888953864764, 25.97728821285201], [-111.45711896422276, 25.977858826021414], [-111.4536337913953, 25.977632699480274], [-111.45212393820543, 25.97787451783015], [-111.44957178859661, 25.980199923159077]]], [[[-111.54125367506944, 25.693943448234155], [-111.54686595631068, 25.698429807319684], [-111.54387802831386, 25.69844098148564], [-111.54263734081019, 25.699575656460976], [-111.54076860750392, 25.699582598296562], [-111.53890496109716, 25.700719550723097], [-111.53631151725507, 25.703091134449473], [-111.53508041673616, 25.706396818504274], [-111.53570589339836, 25.70695954801323], [-111.53571854170673, 25.709784632651054], [-111.53760013020567, 25.71260283566648], [-111.54073034981772, 25.715981410905687], [-111.54136101821442, 25.71767414565517], [-111.54636829007868, 25.722740683616266], [-111.54704033228676, 25.73344961224573], [-111.54017822334968, 25.728966112934206], [-111.53781259387982, 25.72897486381148], [-111.54028045182788, 25.726718553459673], [-111.54089623852074, 25.72511019303964], [-111.53776068872024, 25.720601597989067], [-111.53775052644902, 25.71834153447867], [-111.53399985708927, 25.715530196159342], [-111.53023934664179, 25.710458688721936], [-111.53021641889644, 25.70528453480245], [-111.53145728434002, 25.70414996357876], [-111.53144022421259, 25.700307842559702], [-111.53294126002194, 25.701658429110342], [-111.53393390368932, 25.70075075476365], [-111.5339238226628, 25.69849068368119], [-111.53516458316429, 25.697356081530668], [-111.53515953164737, 25.696226045778882], [-111.53764095919566, 25.693956810515132], [-111.53763634267904, 25.69292868869363], [-111.54124902753551, 25.692915327023847], [-111.54125367506944, 25.693943448234155]]], [[[-111.55652625206788, 25.76338385388021], [-111.5571678972056, 25.767323626101746], [-111.54669707384694, 25.767363331402226], [-111.5466897760353, 25.765770210057127], [-111.54543810035892, 25.764644863158782], [-111.54541744639006, 25.760124768515524], [-111.54416584274233, 25.758999408657168], [-111.5453967973612, 25.75560467105016], [-111.54403236988648, 25.754377816564052], [-111.54164942850285, 25.75382167826262], [-111.54164476513641, 25.752793565567462], [-111.5394002886992, 25.749649773618884], [-111.54038008944757, 25.748754108089685], [-111.5403754380596, 25.747725994463003], [-111.54275311689184, 25.747152129689717], [-111.54399428814057, 25.74601745314479], [-111.54647466818442, 25.74600816718795], [-111.54711547002441, 25.74985900409871], [-111.55400443909097, 25.757178240554264], [-111.5540096827154, 25.758308263304894], [-111.5556235850925, 25.75975916446973], [-111.55469268804625, 25.76061024599757], [-111.55625733957835, 25.762016828233627], [-111.55563673456666, 25.76258421923746], [-111.55652625206788, 25.76338385388021]]], [[[-111.55667120268141, 25.794446458382705], [-111.55366924944126, 25.795022935653275], [-111.55181905767044, 25.796713933303835], [-111.5518091174614, 25.794566900463085], [-111.55018148210718, 25.793104017712775], [-111.54806301820209, 25.79334911290135], [-111.5480215227258, 25.784321877484945], [-111.54864008566346, 25.783278503798822], [-111.54765187680135, 25.782390198790946], [-111.54920372777931, 25.780971799627938], [-111.54862708979377, 25.780453453725073], [-111.54888295982245, 25.778995440255738], [-111.54763112261303, 25.777870116842468], [-111.54923180052006, 25.776407034922837], [-111.54921406191701, 25.772553873856438], [-111.55719217771882, 25.772523546883264], [-111.55667120268141, 25.794446458382705]]], [[[-111.55817847880321, 25.69273668763151], [-111.55693798731093, 25.693871481953934], [-111.55382358727806, 25.69388334135903], [-111.55258304210182, 25.69501809934045], [-111.5494950755504, 25.695029766529856], [-111.55134174883048, 25.69334063540662], [-111.55132654965504, 25.690039531454403], [-111.55007563794163, 25.688914200530345], [-111.55006531696634, 25.686667049062464], [-111.5561840235826, 25.6872088754536], [-111.5586727683425, 25.686634338807835], [-111.55965291857119, 25.685737629153582], [-111.56240772873734, 25.688778176521435], [-111.56304380335301, 25.691587935255036], [-111.56066468210952, 25.69159709979448], [-111.55942422619728, 25.692731914850935], [-111.55817847880321, 25.69273668763151]]], [[[-111.5809978024742, 25.669018413385235], [-111.58040186867832, 25.674558042528187], [-111.57739947201189, 25.671857826469218], [-111.57739359931533, 25.670638798474712], [-111.5786336574274, 25.669503834005738], [-111.57738041955353, 25.66790271517676], [-111.5773663844986, 25.664988637875755], [-111.57984363067659, 25.662153683124988], [-111.57983270171994, 25.65989361776665], [-111.58344058870024, 25.656590995849093], [-111.58778829284623, 25.65431344843413], [-111.58903363443538, 25.65430842974325], [-111.59150100519932, 25.65204943649783], [-111.59151159289145, 25.654196496422184], [-111.59287533476123, 25.655422934549144], [-111.59711032885517, 25.655970702691846], [-111.59413691232861, 25.658693132760433], [-111.5928915263598, 25.658698195780165], [-111.58482406678387, 25.664381004461042], [-111.58223232076172, 25.666753387698417], [-111.5809978024742, 25.669018413385235]]], [[[-111.60804582603744, 25.651065432713025], [-111.60956036928768, 25.652427184136798], [-111.60956891758197, 25.65410930863196], [-111.60843589516494, 25.654114034454405], [-111.60719628066381, 25.65524924663565], [-111.6052281673475, 25.655257418259033], [-111.60397712920803, 25.654132546531578], [-111.60097610025028, 25.6541449296562], [-111.6009540304264, 25.649739641192063], [-111.60208701309861, 25.649734974165707], [-111.60332662106872, 25.64859980466514], [-111.6076728746757, 25.64858178353998], [-111.60767808223046, 25.649609898991752], [-111.60866561093903, 25.65049782444238], [-111.60804582603744, 25.651065432713025]]], [[[-111.6194970960095, 25.64738913276009], [-111.6163955498449, 25.649662359932055], [-111.61640658194868, 25.651809410680627], [-111.61215292349597, 25.647985128746704], [-111.61214093887169, 25.645636076160343], [-111.61610425799284, 25.641438216412805], [-111.61948205100747, 25.644475069744672], [-111.6194970960095, 25.64738913276009]]]]}}]}
