{"type": "FeatureCollection", "features": [{"type": "Feature", "properties": {"uga": "38", "politica": "aprovechamiento-sustentable", "procedencia": {"metodo": "digitalizacion-semiautomatica", "fuente": "Mapa de ubicación de la ficha UGA 38, Boletín Oficial No. 12 (12-mar-2014), p. 285 del PDF", "datum": "UTM 12N con desplazamiento de +30 m E y +165 m N ajustado contra la costa (INC-011)", "correccion_borde_px": 1.4, "precision_aprox_m": 24.0, "escala_por_superficie": false, "revisada_en_qgis": false}, "control": {"residuo_georreferencia_m": 7.9, "area_digitalizada_ha": 320.17, "escala_por_superficie": false, "superficie_ficha_ha": 322.69, "diferencia_area_pct": -0.8}}, "geometry": {"type": "Polygon", "coordinates": [[[-111.34918620928389, 25.99011274261595], [-111.34848479663687, 25.99042697588543], [-111.3470613525391, 25.990430397777594], [-111.34682442589991, 25.99053796880595], [-111.34493024660128, 25.99182653148071], [-111.3442203862838, 25.99247023925161], [-111.34339127314992, 25.992900221048497], [-111.34303540450892, 25.992901065379783], [-111.34279877965517, 25.99311563194641], [-111.34208766064907, 25.993331321006384], [-111.34149454399346, 25.99333272241547], [-111.34130771116746, 25.993502134079744], [-111.34118877865245, 25.993395411823997], [-111.34066479766433, 25.993548684503157], [-111.33971580910764, 25.993550916273406], [-111.33870044763472, 25.994364284974274], [-111.338512640841, 25.994195753867903], [-111.3382259499979, 25.994365395226517], [-111.33803814387184, 25.994196863497432], [-111.33782214382255, 25.99419736810637], [-111.33780348780138, 25.98767190265878], [-111.33827581458243, 25.986921778533556], [-111.33839289960878, 25.986386490019964], [-111.33874752201619, 25.985957648386794], [-111.33874690863287, 25.985743643919182], [-111.33921983604864, 25.985207521129443], [-111.33921922183048, 25.98499351665013], [-111.34158317208774, 25.98209887502107], [-111.34513247336467, 25.978987366313206], [-111.34513190456654, 25.978792528452576], [-111.3453478762979, 25.978792013211788], [-111.34700462909302, 25.977504013901925], [-111.34736045122789, 25.977503160275162], [-111.34771564395918, 25.97728830125743], [-111.3492537439109, 25.976000561323495], [-111.34949095559605, 25.975999988680318], [-111.3505767410889, 25.97501516856475], [-111.3517586513478, 25.973621261375406], [-111.3529418112382, 25.972655353638956], [-111.35294117252933, 25.972441349099345], [-111.35365086591514, 25.971797598484965], [-111.35365022594743, 25.971583593936394], [-111.35435991034102, 25.97093983986246], [-111.35459518679913, 25.97029724527995], [-111.35506765955361, 25.969654068632718], [-111.3550670170831, 25.969440064053643], [-111.35554012719415, 25.96901089043966], [-111.35553948388706, 25.96879688585256], [-111.35601258972092, 25.968367710700903], [-111.35601194557734, 25.968153706105788], [-111.35624849678491, 25.967939117953165], [-111.35624720767585, 25.967511108742254], [-111.35648375718141, 25.967296520204023], [-111.35648246725776, 25.966868510966094], [-111.3567190150614, 25.966653922042276], [-111.35676783482141, 25.96639504393214], [-111.35664891608477, 25.96628833384718], [-111.35719081566856, 25.965796733774674], [-111.35718629240937, 25.964298701136183], [-111.35751991919086, 25.96399603501394], [-111.35825024856616, 25.96399422958626], [-111.35860667834288, 25.964207353392275], [-111.35896246002912, 25.964206471658223], [-111.35953542902317, 25.964613895491087], [-111.35937035008322, 25.965639584906462], [-111.3594892705865, 25.965746292746413], [-111.35930219362274, 25.9659160118145], [-111.35931579267307, 25.97039260694739], [-111.35943569357065, 25.970820321378454], [-111.36050766473626, 25.97231569755832], [-111.36240988753403, 25.973808988704867], [-111.36241354862254, 25.97500351193879], [-111.35995022577487, 25.97702354859374], [-111.35876610651044, 25.977668506531135], [-111.35708958631265, 25.97940386672861], [-111.35685462897541, 25.98015346671936], [-111.35638212478756, 25.980796648604766], [-111.35614683791147, 25.981439245278114], [-111.35555700036514, 25.982510724714054], [-111.3550841583598, 25.98304690023563], [-111.35485078754188, 25.984331507188045], [-111.3541426294882, 25.985510273626687], [-111.35414391200352, 25.985938281870883], [-111.3528455279942, 25.988081510813142], [-111.35284648646407, 25.988402516929604], [-111.35249190842292, 25.988831392531498], [-111.35237450888495, 25.989240522995154], [-111.35203989912851, 25.98924133761107], [-111.35185093173199, 25.989412718346554], [-111.35196986971471, 25.989519431837916], [-111.3515461422144, 25.989903721874196], [-111.35154672186852, 25.990098559302403], [-111.35121210965261, 25.99009937202863], [-111.35097550536176, 25.990313951844964], [-111.34953329160193, 25.990317443585166], [-111.34918620928389, 25.99011274261595]], [[-111.34395757758293, 25.990137635632916], [-111.34421538624186, 25.98990384996756], [-111.34421325537228, 25.9891723349265], [-111.34395409090145, 25.988939778799697], [-111.34314252979082, 25.988941705975286], [-111.34288472106152, 25.989175489760008], [-111.34288684370715, 25.989907004902904], [-111.34314600824585, 25.99013956291037], [-111.34395757758293, 25.990137635632916]], [[-111.34856387716822, 25.983385429723334], [-111.34893995919153, 25.983044347722373], [-111.34893874734361, 25.982633838861297], [-111.34856066037524, 25.982294574533427], [-111.34798636964544, 25.982295956781897], [-111.34761028719377, 25.982637036343334], [-111.34761149442824, 25.98304754526234], [-111.34798958113866, 25.983386812038347], [-111.34856387716822, 25.983385429723334]]]}}]}
