{"type": "FeatureCollection", "features": [{"type": "Feature", "properties": {"uga": "39", "politica": "conservacion", "procedencia": {"metodo": "digitalizacion-semiautomatica", "fuente": "Mapa de ubicación de la ficha UGA 39, Boletín Oficial No. 12 (12-mar-2014), p. 288 del PDF", "datum": "UTM 12N con desplazamiento de +30 m E y +170 m N ajustado contra la costa (INC-011)", "correccion_borde_px": 1.4, "precision_aprox_m": 35.0, "escala_por_superficie": false, "revisada_en_qgis": false}, "control": {"residuo_georreferencia_m": 41.9, "area_digitalizada_ha": 478.42, "escala_por_superficie": false, "superficie_ficha_ha": 481.94, "diferencia_area_pct": -0.7}}, "geometry": {"type": "Polygon", "coordinates": [[[-111.69669243045234, 25.973842077684345], [-111.6977306791374, 25.974767121703234], [-111.69774753226103, 25.977622893867167], [-111.69750159398552, 25.97784673325008], [-111.6977501603643, 25.978068188714534], [-111.69776035582862, 25.97979556642139], [-111.6971664334728, 25.979732149125766], [-111.69699279229353, 25.979890183687413], [-111.69601474921532, 25.979175180762695], [-111.69496457349153, 25.978708633711154], [-111.69411910092043, 25.97871269165057], [-111.69321990423423, 25.979531031797855], [-111.69322359147372, 25.98015980677345], [-111.6928762966446, 25.980475866452185], [-111.69289656877059, 25.9839341279361], [-111.69254926220731, 25.98425018690868], [-111.69255294664956, 25.98487896156358], [-111.691368327517, 25.98595697476524], [-111.69101917268974, 25.985958642822386], [-111.69067185517811, 25.98627469742211], [-111.68979896557735, 25.98627886183074], [-111.68927706538703, 25.986595745412128], [-111.68735670223134, 25.986604881752577], [-111.6850926486827, 25.98755880952488], [-111.68471612619362, 25.987560592036967], [-111.68419056588746, 25.987248682111442], [-111.68314308828431, 25.98725363201965], [-111.68279211255347, 25.98694089244114], [-111.6819192165881, 25.98694500940881], [-111.68121727518984, 25.986319523219066], [-111.68086811854748, 25.98632116680109], [-111.67981703149877, 25.985697316282224], [-111.67897437986389, 25.985544074901874], [-111.67897273477158, 25.985257724883486], [-111.67862177588752, 25.98494497476424], [-111.67861637048017, 25.984003562045576], [-111.67893438210366, 25.984002070150485], [-111.68084655687265, 25.98257829973454], [-111.68119570246004, 25.98257665642398], [-111.68154303524658, 25.98226062412287], [-111.68206675213276, 25.982258156348315], [-111.68241408162396, 25.981942122007474], [-111.6829377970038, 25.981939651108416], [-111.68383708436076, 25.981121373330446], [-111.68383526561063, 25.980806985269627], [-111.68418258609995, 25.98049094680022], [-111.68417894689371, 25.9798621706555], [-111.6845117441089, 25.979559343502324], [-111.6830903959794, 25.978136379065287], [-111.68256578989516, 25.977981656046115], [-111.67876082020953, 25.979414339422696], [-111.67771881801062, 25.980362414172845], [-111.67511014806534, 25.98210379199018], [-111.67076992509385, 25.986368337336344], [-111.668647617117, 25.986378161397745], [-111.66812210314882, 25.98606619210577], [-111.66690005408778, 25.986071830300467], [-111.66637454596295, 25.985759854530734], [-111.66497792155731, 25.985766280400263], [-111.6641032644275, 25.98545590058545], [-111.66235748753046, 25.985463903324337], [-111.66200657102762, 25.985151112059643], [-111.6614828391638, 25.985153507477293], [-111.6594155415952, 25.98453414933616], [-111.65941394396148, 25.984247798131026], [-111.65906303876767, 25.983934999454213], [-111.65905938606105, 25.98327993411137], [-111.65940590436702, 25.982806759008152], [-111.6630259844844, 25.980145876487512], [-111.66407163733213, 25.9798266840588], [-111.66738845346437, 25.979811424621055], [-111.66773581601885, 25.979495424778197], [-111.66843409084277, 25.97949220093918], [-111.66881242812812, 25.979148016486135], [-111.66950535935511, 25.97820162021319], [-111.66950105725438, 25.97744193360318], [-111.66915014658302, 25.977129159223658], [-111.66914569819932, 25.976343186222806], [-111.66879479177845, 25.976030410852115], [-111.66878575167541, 25.974432178179462], [-111.66913309495375, 25.974116175131336], [-111.66913042632548, 25.97364459114317], [-111.66982421419081, 25.972855387978868], [-111.66982259217903, 25.972569036917694], [-111.67041646652507, 25.97263256751176], [-111.67066335728677, 25.972407944640498], [-111.67146292475898, 25.97247051766048], [-111.67163659015726, 25.97231251310926], [-111.67191351638932, 25.972559345018176], [-111.67453189051675, 25.97254716567224], [-111.67575559446631, 25.972855854717572], [-111.67687512565199, 25.97260250617659], [-111.67715206327078, 25.972849327822292], [-111.67872309010059, 25.97284196896192], [-111.67897253144638, 25.973064277767893], [-111.67925038082042, 25.972811456281175], [-111.67924873598695, 25.972525105775343], [-111.68009039066774, 25.97252115333513], [-111.68088634220686, 25.971954896893525], [-111.68106180464503, 25.972111269922422], [-111.68130867367961, 25.971886629297178], [-111.68252875795217, 25.971566483771365], [-111.68287605546973, 25.971250448510002], [-111.68479161983517, 25.9704554055203], [-111.68878715225196, 25.96713527861653], [-111.69226526521238, 25.964917908130502], [-111.69418242062872, 25.965065925902124], [-111.69418410106785, 25.965352275804527], [-111.69488598229698, 25.965977702022784], [-111.69488782922329, 25.966292089994973], [-111.6952387735788, 25.96660480171403], [-111.69524431741654, 25.9675479654368], [-111.69562656538157, 25.96788856466391], [-111.69734279034817, 25.968194703497467], [-111.69737058781192, 25.97290876569369], [-111.69669243045234, 25.973842077684345]], [[-111.6834233444875, 25.97533502636913], [-111.68414892804613, 25.974674765358554], [-111.68414726107723, 25.974386663186735], [-111.6833391950649, 25.973510169298752], [-111.68274229969215, 25.973579266470402], [-111.68201671467912, 25.974239520550174], [-111.68202109657823, 25.97499920553044], [-111.68240333193157, 25.975339839616005], [-111.6834233444875, 25.97533502636913]]]}}]}
