{"type": "FeatureCollection", "features": [{"type": "Feature", "properties": {"uga": "3a", "politica": "aprovechamiento-sustentable", "procedencia": {"metodo": "digitalizacion-semiautomatica", "fuente": "Mapa de ubicación de la ficha UGA 3a, Boletín Oficial No. 12 (12-mar-2014), p. 151 del PDF", "datum": "UTM 12N con desplazamiento de +30 m E y +165 m N ajustado contra la costa (INC-011)", "correccion_borde_px": 1.4, "precision_aprox_m": 15.0, "escala_por_superficie": false, "revisada_en_qgis": false}, "control": {"residuo_georreferencia_m": 9.9, "area_digitalizada_ha": 237.83, "escala_por_superficie": false, "superficie_ficha_ha": 236.03, "diferencia_area_pct": 0.8}}, "geometry": {"type": "Polygon", "coordinates": [[[-111.54105364428229, 26.545142936540664], [-111.54065453237062, 26.544721490773718], [-111.54065391264548, 26.54458931807335], [-111.54050620906645, 26.544457703168526], [-111.54050527974606, 26.544259444104846], [-111.54012276383192, 26.543918591133473], [-111.53975505586352, 26.54391998394935], [-111.53960735416472, 26.54378836807206], [-111.53938672961726, 26.543789203073917], [-111.53842760408735, 26.543131953614616], [-111.53820698075282, 26.543132786771544], [-111.5377645013166, 26.542870106473075], [-111.53747033750427, 26.542871215894657], [-111.53732263973461, 26.542739597570556], [-111.53702847623379, 26.542740706075307], [-111.53680723833412, 26.542609364234654], [-111.53614537112476, 26.542611855112536], [-111.53599767517942, 26.542480235382826], [-111.53570351227621, 26.542481341143507], [-111.53555581699658, 26.5423497209434], [-111.53526165440498, 26.54235082578728], [-111.53511395979106, 26.5422192051168], [-111.53445209463729, 26.54222168809925], [-111.53430440109989, 26.54209006657112], [-111.53401023911037, 26.54209116882276], [-111.53386254623868, 26.541959546824287], [-111.53334776329139, 26.541961473762022], [-111.53320007133192, 26.54182985106086], [-111.53299114880853, 26.541830632351065], [-111.53284467881514, 26.541963355113886], [-111.53209757591796, 26.541966145729308], [-111.53172865485074, 26.541703171858583], [-111.53158157428975, 26.541703720395386], [-111.53121265522508, 26.5414407451493], [-111.53077080618658, 26.541310215717125], [-111.53062311796667, 26.54117859027733], [-111.5304024980875, 26.541179411299733], [-111.5301812705715, 26.54104805898796], [-111.52966649138448, 26.541049972571663], [-111.52951880474258, 26.54091834595909], [-111.52937172512975, 26.540918892201027], [-111.52872039767216, 26.540338385838673], [-111.5284241203259, 26.539876870829765], [-111.52811549584584, 26.539601798604167], [-111.52700939126296, 26.538945015201552], [-111.52678877552732, 26.538945830568128], [-111.52664109485364, 26.53881420084635], [-111.52568509429219, 26.538817729150377], [-111.52553741502382, 26.53868609826173], [-111.52539033816308, 26.538686640353962], [-111.52479962511745, 26.53816011457601], [-111.52420951815768, 26.53776575941507], [-111.52369415302095, 26.53763547802465], [-111.52354647752549, 26.537503844995737], [-111.52325232672085, 26.537504924876274], [-111.52310465189113, 26.537373291377357], [-111.52295757664696, 26.537373830935252], [-111.52280990231861, 26.537242197121156], [-111.52258928969111, 26.537243005941335], [-111.52244161594635, 26.53711137173465], [-111.52214746609056, 26.53711244932098], [-111.5218527182418, 26.536981353055133], [-111.52074965733688, 26.536985386300522], [-111.52067582162235, 26.53691956824418], [-111.52001398533767, 26.53692198374708], [-111.51994015007725, 26.536856165302375], [-111.51846940330101, 26.536861521314016], [-111.51824819740939, 26.536730150081507], [-111.51796574634962, 26.536731176503782], [-111.51745217127797, 26.536997392379345], [-111.51715802147945, 26.5369984596676], [-111.5168958514433, 26.537235974016294], [-111.5164850781483, 26.537133074583316], [-111.51589677775294, 26.537135204572614], [-111.51552849924214, 26.537004361205735], [-111.5153808337335, 26.53687271955839], [-111.51523375894713, 26.53687325113936], [-111.51464310094035, 26.536346682328166], [-111.51442248973967, 26.536347478486643], [-111.51424520264892, 26.536189425905224], [-111.51443422410865, 26.53601818659825], [-111.51443338754942, 26.535830602253057], [-111.51435955613104, 26.535764780851462], [-111.51420330321497, 26.533705947119564], [-111.51617693111926, 26.531055304099016], [-111.51862303386926, 26.52883909583726], [-111.52049713187643, 26.53024654651163], [-111.52139057906341, 26.532688530053395], [-111.52212981378757, 26.533544965799067], [-111.52251194312335, 26.53381978220824], [-111.52265901384685, 26.533819243176744], [-111.52332263079133, 26.534213335469484], [-111.52346970199747, 26.534212795594417], [-111.52383858035479, 26.53447579175012], [-111.52404598517984, 26.534475029600227], [-111.52404653170409, 26.534595337783387], [-111.52441571301651, 26.534924419010572], [-111.52463782393312, 26.535254040486663], [-111.52620257682767, 26.536846244175788], [-111.5267914784133, 26.536976244827272], [-111.52730744811275, 26.537238688152094], [-111.52825173728486, 26.537235192507868], [-111.52847174413264, 26.537102201823604], [-111.52950126741625, 26.537098381950873], [-111.52964773524643, 26.536965662568022], [-111.53001542165178, 26.536964296154853], [-111.53016188871317, 26.536831576252712], [-111.53045603747312, 26.53683048214237], [-111.53060250385204, 26.536697761795228], [-111.5309701893465, 26.536696392932576], [-111.5311166549566, 26.536563672066173], [-111.53148433999294, 26.536562301883993], [-111.53163080483424, 26.53642958049834], [-111.53185141558431, 26.5364287577111], [-111.53258312320438, 26.5356329744093], [-111.53324495075306, 26.53563050067163], [-111.53343385234803, 26.535459318420084], [-111.5336110731028, 26.53561726563492], [-111.53398181418767, 26.53627675409973], [-111.53398242604327, 26.53640892709922], [-111.53429105559445, 26.53668398666453], [-111.53443812968945, 26.536683435428607], [-111.53613439621273, 26.537734468807603], [-111.53628147160272, 26.53773391564997], [-111.5367122297086, 26.537996645129986], [-111.53694506794093, 26.537785640318454], [-111.53694414501182, 26.537587380952825], [-111.53723644853274, 26.53718975409208], [-111.5372355251268, 26.536991494719366], [-111.53738198377573, 26.53685876752513], [-111.53738136801284, 26.536726594607625], [-111.53796534934727, 26.535799165597023], [-111.53796473294445, 26.535666992672546], [-111.53840348347015, 26.535136635515762], [-111.53840286658313, 26.535004462588553], [-111.53869546724644, 26.534672919234104], [-111.53869485003737, 26.53454074630464], [-111.53898744869906, 26.5342092023602], [-111.53898379345326, 26.533426840481866], [-111.53883548894936, 26.533163050442415], [-111.53883178504039, 26.532370012679078], [-111.53868409941569, 26.532238395391428], [-111.5386744845312, 26.53017903825046], [-111.5388209329955, 26.530046309608665], [-111.53881506949962, 26.528790665890497], [-111.53998570485928, 26.527530571947718], [-111.53998230319209, 26.52680362023174], [-111.54012874591585, 26.5266708902726], [-111.54012601205763, 26.526086787301516], [-111.53997833315918, 26.525955171138605], [-111.53997647784118, 26.52555865194195], [-111.53982879979759, 26.525427035601563], [-111.53982756328566, 26.525162689446812], [-111.53967988592423, 26.525031072934595], [-111.53967772267384, 26.52456846712026], [-111.53953004625357, 26.524436850427744], [-111.53952881047931, 26.524172504223248], [-111.5393808258866, 26.52397480080343], [-111.5393792816298, 26.523644368016726], [-111.53923160674641, 26.523512750974948], [-111.5392303717055, 26.52324840472318], [-111.53893440647089, 26.522852996994693], [-111.53878549913635, 26.52245703315403], [-111.53848984580738, 26.5221277109874], [-111.53819265345851, 26.521467955214842], [-111.53789700438462, 26.521138631709412], [-111.53789541481783, 26.520797522940942], [-111.53921272436017, 26.51947079379563], [-111.5392115513189, 26.519219664713567], [-111.53938875449042, 26.519377605365047], [-111.5394619716109, 26.519311240706596], [-111.53957859651763, 26.519415187715914], [-111.54060796014433, 26.519411290043553], [-111.54081746104721, 26.51954267137269], [-111.5412573778412, 26.519276651701816], [-111.54169791282207, 26.51914280384706], [-111.54244352065294, 26.51853331527253], [-111.54258932895543, 26.518268409691213], [-111.54302861504011, 26.517870211501652], [-111.54302804913327, 26.51774990340907], [-111.54316189837577, 26.517749393795857], [-111.54444957595578, 26.516714868067115], [-111.54464003864308, 26.51688461686716], [-111.54506860808966, 26.51701515539838], [-111.54507292039831, 26.5179285021], [-111.54522184304007, 26.518324459385116], [-111.5452262632711, 26.519260346701344], [-111.54376446347375, 26.52111638331406], [-111.54230075388463, 26.522575885976565], [-111.54230137490079, 26.522708059049002], [-111.54200912477536, 26.52310569626938], [-111.54201005582178, 26.523303955871974], [-111.54186392976645, 26.523502774260166], [-111.5418657914024, 26.523899293447283], [-111.54171935416701, 26.524032025157094], [-111.54172090514953, 26.524362457797963], [-111.54157477728475, 26.52456127588868], [-111.54157632788916, 26.52489170851295], [-111.5414301991196, 26.525090526454907], [-111.54143174934588, 26.525420959062558], [-111.54128561967153, 26.525619776855763], [-111.54128685954787, 26.525884122929824], [-111.54114103894047, 26.526149027091254], [-111.54114253834902, 26.526468783910325], [-111.5412902192209, 26.5266003988278], [-111.54129114917423, 26.526798658356853], [-111.54173543557698, 26.527457848116693], [-111.54173605607792, 26.52759002111103], [-111.54203173283233, 26.52791933594077], [-111.54203266411317, 26.528117595408794], [-111.5426252668597, 26.529040568966522], [-111.54262935730269, 26.52991036881576], [-111.5424844670391, 26.53037353362227], [-111.5424894386626, 26.531430916944238], [-111.54234299276247, 26.5315636492905], [-111.54234423538297, 26.531827995097853], [-111.54219778881759, 26.531960727297914], [-111.54219872054799, 26.532158986648096], [-111.5420522733994, 26.53229171870157], [-111.54205351539328, 26.532556064494667], [-111.5419070675794, 26.53268879640193], [-111.54190825911573, 26.532942466442382], [-111.54309290099299, 26.5346562370596], [-111.54324246199357, 26.535184368080547], [-111.5435387856484, 26.535645851877813], [-111.54353971983329, 26.535844111081346], [-111.5436877270805, 26.536041809514586], [-111.54368866153752, 26.536240068702195], [-111.54383635798379, 26.536371680566347], [-111.54383703146597, 26.536514529084855], [-111.54310477476585, 26.537178196165243], [-111.5431060194365, 26.537442541730965], [-111.542959566757, 26.537575274705375], [-111.54296081111643, 26.53783962026276], [-111.54281435777145, 26.537972353090932], [-111.54281560181964, 26.538236698639956], [-111.54266914780918, 26.538369431321907], [-111.54267008061029, 26.538567690478338], [-111.54252393687018, 26.53876650939828], [-111.5425263735213, 26.539284524719367], [-111.54267500548086, 26.53961439681936], [-111.54267842602147, 26.54034134690482], [-111.54282705983228, 26.54067121877003], [-111.54282892617437, 26.5410677369389], [-111.54361064082003, 26.541830102781923], [-111.54268936066464, 26.54266504513637], [-111.54247060365121, 26.543062402956902], [-111.54166630880269, 26.544056774371285], [-111.54166692967384, 26.54418894705937], [-111.5415204668893, 26.544321678586908], [-111.5412294014694, 26.544983659254754], [-111.54105364428229, 26.545142936540664]], [[-111.51845282892997, 26.533173721755468], [-111.51868569153794, 26.532962746270265], [-111.51868484817768, 26.532775161970722], [-111.51845009739799, 26.532565887114465], [-111.51805138104714, 26.532539548888213], [-111.5178609623597, 26.532712068825], [-111.51786210102647, 26.532965739853484], [-111.51802301983636, 26.533109196146622], [-111.51820083638026, 26.533070249639213], [-111.51831745658971, 26.53317421391458], [-111.51845282892997, 26.533173721755468]]]}}]}
