{"type": "FeatureCollection", "features": [{"type": "Feature", "properties": {"uga": "3b", "politica": "aprovechamiento-sustentable", "procedencia": {"metodo": "digitalizacion-semiautomatica", "fuente": "Mapa de ubicación de la ficha UGA 3b, Boletín Oficial No. 12 (12-mar-2014), p. 154 del PDF", "datum": "UTM 12N con desplazamiento de +30 m E y +170 m N ajustado contra la costa (INC-011)", "correccion_borde_px": 1.4, "precision_aprox_m": 9.0, "escala_por_superficie": true, "revisada_en_qgis": false}, "control": {"residuo_georreferencia_m": 0.0, "area_digitalizada_ha": 92.47, "escala_por_superficie": true, "superficie_ficha_ha": 92.55, "diferencia_area_pct": -0.1}}, "geometry": {"type": "Polygon", "coordinates": [[[-111.56188940776093, 26.55618384468789], [-111.5617768752269, 26.556083525384736], [-111.56172957747461, 26.555957758104622], [-111.5611584834596, 26.555448640212173], [-111.56041753086944, 26.554955293998212], [-111.56041708996973, 26.554864617499376], [-111.56050633475887, 26.554783651850858], [-111.56043506102495, 26.554720111350704], [-111.56029562331865, 26.554846613428438], [-111.56017840473659, 26.554742112777245], [-111.56010868576531, 26.554805363709512], [-111.55928543401251, 26.554280435093997], [-111.55900411333795, 26.55402963129018], [-111.55891074721642, 26.554029997499764], [-111.55881697399649, 26.55394639603967], [-111.5585452740498, 26.553947461198202], [-111.55854426090035, 26.55373838607987], [-111.55924043109582, 26.55289596374234], [-111.55924002371117, 26.55281199612653], [-111.55970277219362, 26.55197048731999], [-111.55970236448864, 26.55188651969992], [-111.55993394000187, 26.55150774854548], [-111.55993332820485, 26.551381797111794], [-111.56018299921725, 26.550691424368512], [-111.56013611351878, 26.550649624031482], [-111.56020954352137, 26.55058300396399], [-111.56039341287709, 26.549994496463796], [-111.56039140874485, 26.549582211133227], [-111.56057719539376, 26.549581480517116], [-111.5614186845014, 26.549830075979784], [-111.56155913754087, 26.54991349187608], [-111.56174606760815, 26.549954739838043], [-111.56187844755243, 26.549912233395276], [-111.56634315151113, 26.54649380906079], [-111.56699667076515, 26.546491210905536], [-111.56708961766412, 26.546406871918208], [-111.56783649614445, 26.54640389845102], [-111.56792944234908, 26.546319558925966], [-111.5685829604355, 26.54631695351368], [-111.5686759060156, 26.546232613510718], [-111.56942278316117, 26.546229631749842], [-111.56956240782975, 26.546145104689323], [-111.57012256518821, 26.546142865258577], [-111.57021550948429, 26.546058524269952], [-111.57082234609484, 26.546056095347513], [-111.57100864920314, 26.54597137994149], [-111.5715688055762, 26.545969134840895], [-111.57170842831789, 26.545884605705503], [-111.57231526385479, 26.54588217044207], [-111.57240820631198, 26.545797828049817], [-111.57273496363241, 26.545796515474944], [-111.5728279057093, 26.54571217281409], [-111.57315466276299, 26.545710859281026], [-111.5732476044596, 26.545626516351582], [-111.57362104078564, 26.545625014014746], [-111.57371398206705, 26.54554067078682], [-111.57404073858393, 26.545539355230428], [-111.57413367948504, 26.545455011733925], [-111.57441375627218, 26.545453883338737], [-111.5745066968279, 26.54536953960353], [-111.5748801322391, 26.545368033981585], [-111.57646114555651, 26.544144096004622], [-111.57777561422094, 26.54413877411869], [-111.57790784682376, 26.54425663882213], [-111.57790995097203, 26.544676476031956], [-111.57800394056589, 26.544802048654375], [-111.57800541374476, 26.545095934676382], [-111.57809940379246, 26.545221507221225], [-111.57810108773617, 26.545557376934223], [-111.57819486774318, 26.545640965688214], [-111.57819679617229, 26.546025527997386], [-111.5781122176064, 26.546102287209276], [-111.57801885821507, 26.54610266583299], [-111.57732076489381, 26.546525340706534], [-111.57722740514689, 26.54652571881744], [-111.57685522644671, 26.546779132945147], [-111.57657556646264, 26.546864233623673], [-111.57620338521762, 26.547117646078426], [-111.5761100249727, 26.54711802346526], [-111.57322733733284, 26.54943879745215], [-111.57294787677013, 26.549565874856288], [-111.5727611522066, 26.549566625368097], [-111.572668207029, 26.549650967991102], [-111.57248148231848, 26.549651718138744], [-111.57238853686525, 26.54973606058278], [-111.57224849322283, 26.549736622943314], [-111.57217507083024, 26.549803249101434], [-111.57212818122912, 26.549761452768394], [-111.57206218502849, 26.54982134000906], [-111.57187546002223, 26.5498220893672], [-111.57178251398282, 26.54990643142338], [-111.5715957888296, 26.54990718041734], [-111.57150284251456, 26.549991522294544], [-111.5710364451766, 26.55007736088813], [-111.57061714413979, 26.550246978556217], [-111.57038373696012, 26.55024791286308], [-111.57029078947276, 26.550332253964505], [-111.56991775279987, 26.5504177153115], [-111.56984432861026, 26.550484340291234], [-111.56979743955696, 26.550442543186165], [-111.56912541070011, 26.55067278901929], [-111.56898536583998, 26.5506733481918], [-111.56884573531865, 26.550757874728543], [-111.56870569034835, 26.5507584336279], [-111.5681463380975, 26.5509286028704], [-111.56684441066466, 26.55198340155896], [-111.56674309822085, 26.552075326628323], [-111.56674347392321, 26.552151741308794], [-111.56665850753457, 26.55215207917276], [-111.56307874068148, 26.55518915805856], [-111.56298537368596, 26.555189526952493], [-111.56188940776093, 26.55618384468789]]]}}]}
