{"type": "FeatureCollection", "features": [{"type": "Feature", "properties": {"uga": "4", "politica": "preservacion", "procedencia": {"metodo": "digitalizacion-semiautomatica", "fuente": "Mapa de ubicación de la ficha UGA 4, Boletín Oficial No. 12 (12-mar-2014), p. 157 del PDF", "datum": "UTM 12N con desplazamiento de +30 m E y +170 m N ajustado contra la costa (INC-011)", "correccion_borde_px": 1.4, "precision_aprox_m": 47.0, "escala_por_superficie": false, "revisada_en_qgis": false}, "control": {"residuo_georreferencia_m": 45.7, "area_digitalizada_ha": 169.53, "escala_por_superficie": false, "superficie_ficha_ha": 171.25, "diferencia_area_pct": -1.0}}, "geometry": {"type": "Polygon", "coordinates": [[[-111.56044294277304, 26.54730189382733], [-111.56045801708093, 26.55040275033756], [-111.56022760990652, 26.55125013162692], [-111.55976061998571, 26.55167520425185], [-111.55976370281093, 26.552310048628375], [-111.5588720291155, 26.55312166793561], [-111.55801307703453, 26.553125033816862], [-111.55648048214935, 26.551438075439325], [-111.55612869754437, 26.551439448600807], [-111.555186528464, 26.550596646175503], [-111.55377838329585, 26.550390505624126], [-111.55236720107611, 26.549549505710218], [-111.55189816228733, 26.54955132274287], [-111.54790328516859, 26.547873782689628], [-111.54602615339952, 26.547669366971018], [-111.54555511909635, 26.54724793214868], [-111.5441470303458, 26.547041695439415], [-111.54293072830316, 26.54616414511814], [-111.54136939798772, 26.545782556124426], [-111.54112945145273, 26.544625474279133], [-111.54229652672812, 26.543457132080366], [-111.5422937216188, 26.542860639982052], [-111.54272023015683, 26.542859016800115], [-111.5448207876618, 26.54073480949721], [-111.5455242928726, 26.540732119130784], [-111.54669379199431, 26.540092780660252], [-111.54829488570819, 26.53991072349004], [-111.54927027200779, 26.53944801874816], [-111.55177061566245, 26.539438363378274], [-111.55294513883543, 26.5398570513602], [-111.55388313734139, 26.539853410089414], [-111.5552942102921, 26.540694397818818], [-111.55618971234018, 26.540690906817822], [-111.55619156848111, 26.541075782462734], [-111.55831028188686, 26.5427604536692], [-111.5585478621534, 26.543394380315114], [-111.55948999549076, 26.544237161908512], [-111.56044294277304, 26.54730189382733]], [[-111.55031237044865, 26.544981813393964], [-111.55119445366097, 26.544391511240974], [-111.55046326163288, 26.543737344253426], [-111.54995450240634, 26.54370359683405], [-111.549639628556, 26.544063865260643], [-111.5500109577856, 26.544396082723207], [-111.54943265804695, 26.544922420040447], [-111.54909885680368, 26.54469489337042], [-111.54878255501691, 26.544982770295466], [-111.54908245150743, 26.5452510805325], [-111.54954945591251, 26.544826042305562], [-111.55031237044865, 26.544981813393964]]]}}]}
