{"type": "FeatureCollection", "features": [{"type": "Feature", "properties": {"uga": "40", "politica": "conservacion", "procedencia": {"metodo": "digitalizacion-semiautomatica", "fuente": "Mapa de ubicación de la ficha UGA 40, Boletín Oficial No. 12 (12-mar-2014), p. 291 del PDF", "datum": "UTM 12N con desplazamiento de +30 m E y +165 m N ajustado contra la costa (INC-011)", "correccion_borde_px": 1.4, "precision_aprox_m": 35.0, "escala_por_superficie": false, "revisada_en_qgis": false}, "control": {"residuo_georreferencia_m": 10.2, "area_digitalizada_ha": 454.07, "escala_por_superficie": false, "superficie_ficha_ha": 457.11, "diferencia_area_pct": -0.7}}, "geometry": {"type": "Polygon", "coordinates": [[[-111.4818045530805, 25.981625563549468], [-111.48180209024237, 25.981021316207094], [-111.48109213586251, 25.979751561153847], [-111.48109019454613, 25.979274523608893], [-111.48073651784235, 25.978957669623494], [-111.48073199168738, 25.977844581789117], [-111.48037702810359, 25.97720970163458], [-111.4803737977762, 25.97641463867922], [-111.48001819497236, 25.97562074480985], [-111.4800130307376, 25.97434864369276], [-111.47965937183764, 25.97403178661225], [-111.47965743679279, 25.973554748589788], [-111.47824089677786, 25.971810272802674], [-111.47788532258137, 25.97101637279453], [-111.47788082485182, 25.969903283273293], [-111.47752654304756, 25.969427407704565], [-111.47752333299448, 25.968632343562128], [-111.47724371685611, 25.968381802334797], [-111.477521302536, 25.968129423487742], [-111.47724115044268, 25.967745750909707], [-111.47751873465857, 25.96749337206626], [-111.47751616686729, 25.966857320588655], [-111.47786658629062, 25.966379119249908], [-111.47786208966104, 25.9652660290125], [-111.47821314588452, 25.9649468397211], [-111.47821057464924, 25.964310788084305], [-111.47891010285991, 25.963036355310727], [-111.4803136332993, 25.96160057016029], [-111.48031245795089, 25.961311053015372], [-111.48063320409027, 25.961309988576268], [-111.48221350406716, 25.96003261327425], [-111.48256583012984, 25.960031439408954], [-111.48397123172246, 25.959072658059366], [-111.48449971638338, 25.95907089058471], [-111.48520175437602, 25.958432479453563], [-111.48608125078385, 25.9581114994444], [-111.4874866007638, 25.957152684447813], [-111.48854355233406, 25.957149122152202], [-111.48889455558682, 25.956829907354635], [-111.49030382016228, 25.95682514226479], [-111.49065481764596, 25.956505923267745], [-111.49191585394725, 25.9565016447287], [-111.4922694919274, 25.956818472909667], [-111.49385491359199, 25.956813074269498], [-111.49420855762554, 25.957129897612482], [-111.49526550792392, 25.957126286253676], [-111.49826823415376, 25.95902416309904], [-111.50000620489988, 25.960897840433972], [-111.5000075488968, 25.961215865372004], [-111.5003612225069, 25.961532673062546], [-111.5003625674959, 25.961850697955406], [-111.50107194277145, 25.962961347776943], [-111.50107396325689, 25.963438384964892], [-111.5023159139456, 25.96550127192748], [-111.50249546201701, 25.966295722034346], [-111.50284915761317, 25.966612523104104], [-111.50286616905056, 25.97061371038795], [-111.50181449730097, 25.971889476600836], [-111.5007922489094, 25.972659580839675], [-111.5002637048332, 25.972661408667527], [-111.49991268652974, 25.972980650572968], [-111.49920795907529, 25.972983082993206], [-111.4988569369364, 25.973302322379574], [-111.49832838983109, 25.97330414318199], [-111.49657190785716, 25.974582296737847], [-111.49551613451828, 25.97490394444334], [-111.49463787106235, 25.975543007031604], [-111.49410931360273, 25.9755448125712], [-111.49375826999591, 25.975864039788497], [-111.49287733835975, 25.975867042629254], [-111.49164667865112, 25.976507286951584], [-111.49058955458389, 25.976510874375784], [-111.4902384985008, 25.97683009319064], [-111.48847661976227, 25.976836050866726], [-111.48794936854502, 25.977155858804405], [-111.48721667655498, 25.97715832739087], [-111.48636236454682, 25.97684317176641], [-111.48492660722198, 25.978148616107802], [-111.48440129498391, 25.978945448637994], [-111.4818045530805, 25.981625563549468]], [[-111.48315109775113, 25.970511866475416], [-111.48351916332149, 25.970043573304082], [-111.48305941209665, 25.969631669752516], [-111.48200102427808, 25.970115203134604], [-111.48235796963735, 25.970435004318205], [-111.48270902864206, 25.970115804305117], [-111.48315109775113, 25.970511866475416]], [[-111.49124140462636, 25.966347290860533], [-111.49034059449927, 25.965698717518695], [-111.48966384507277, 25.96570100822206], [-111.48910583658555, 25.96620844821771], [-111.48910901712351, 25.966977629758006], [-111.48949438288098, 25.967322865847105], [-111.49034731528172, 25.967319979140616], [-111.49124140462636, 25.966347290860533]]]}}]}
