{"type": "FeatureCollection", "features": [{"type": "Feature", "properties": {"uga": "41", "politica": "conservacion", "procedencia": {"metodo": "digitalizacion-semiautomatica", "fuente": "Mapa de ubicación de la ficha UGA 41, Boletín Oficial No. 12 (12-mar-2014), p. 294 del PDF", "datum": "UTM 12N con desplazamiento de +30 m E y +165 m N ajustado contra la costa (INC-011)", "correccion_borde_px": 1.4, "precision_aprox_m": 26.0, "escala_por_superficie": true, "revisada_en_qgis": false}, "control": {"residuo_georreferencia_m": 0.0, "area_digitalizada_ha": 86.48, "escala_por_superficie": true, "superficie_ficha_ha": 86.45, "diferencia_area_pct": 0.0}}, "geometry": {"type": "Polygon", "coordinates": [[[-111.35957884156363, 25.96439428502291], [-111.35904270181443, 25.964395615694087], [-111.35878422308207, 25.96416323809969], [-111.35790485663435, 25.964048905541198], [-111.35790345380519, 25.96358521407336], [-111.3581605186376, 25.96335155988475], [-111.35815699150814, 25.96218647623936], [-111.35841405283018, 25.961952821592636], [-111.35841122928682, 25.961020754537184], [-111.35866828759777, 25.960787099433364], [-111.35866481230373, 25.95964063324785], [-111.35814717305017, 25.958942858842907], [-111.35814012064832, 25.956612689941757], [-111.35788166086645, 25.95638031028958], [-111.35788025152243, 25.955914276390992], [-111.35762179378787, 25.955681896231248], [-111.357621089645, 25.955448879256608], [-111.35736263344153, 25.955216498603402], [-111.35736122621398, 25.954750464603432], [-111.35710277205766, 25.95451808344271], [-111.35710136589691, 25.954052049384565], [-111.35606616155125, 25.952656485635227], [-111.35580631360212, 25.951958067762952], [-111.35554786863106, 25.951725683642096], [-111.35554681872917, 25.951376157907262], [-111.35528837554683, 25.951143773286123], [-111.35528732643823, 25.95079424751333], [-111.35508317070595, 25.950610675044107], [-111.35528622146875, 25.95042610388539], [-111.35528558499598, 25.950214046462012], [-111.35590675437336, 25.950212521280324], [-111.35680709266907, 25.94962775864608], [-111.35837206694603, 25.948088311730483], [-111.35862768582118, 25.947388622164887], [-111.3588847144386, 25.9471549665535], [-111.35888294854851, 25.946572423497486], [-111.35913962148426, 25.946222258813474], [-111.3591333167513, 25.944143721227235], [-111.35887488258147, 25.943911342682572], [-111.35887382322223, 25.94356181669768], [-111.35809711976621, 25.94239864336783], [-111.35678209431393, 25.941332342046138], [-111.35613673847078, 25.940984401277607], [-111.35510515517382, 25.94075391447933], [-111.35293771118036, 25.940759211355168], [-111.35293395421404, 25.939498574424377], [-111.35241643806164, 25.93880077633185], [-111.35241499592132, 25.93831612315009], [-111.35267201747382, 25.938082478347898], [-111.35267138602973, 25.937870420503067], [-111.35329179576149, 25.93763588954408], [-111.35432265135897, 25.93763337204187], [-111.35516821812512, 25.93686467970917], [-111.35573637466878, 25.9372594186362], [-111.35586663143302, 25.93772513738111], [-111.3557395241408, 25.93830799781215], [-111.3562567070617, 25.9388892751275], [-111.35886417819117, 25.941233991392696], [-111.36000074333433, 25.94123117132329], [-111.36000209638695, 25.94167624626468], [-111.3601313119708, 25.941792434641215], [-111.36027187148272, 25.945636899480576], [-111.36040109170075, 25.945753087504578], [-111.36040392899996, 25.946685156321404], [-111.36066272719087, 25.947034040540043], [-111.36066450187458, 25.947616583444802], [-111.36092401330816, 25.948198484254277], [-111.36081899698068, 25.956023492799652], [-111.36069047521372, 25.956140322317154], [-111.36071036433972, 25.962664791941634], [-111.36019837518809, 25.963831158789443], [-111.35957884156363, 25.96439428502291]], [[-111.35913983110939, 25.953932840786248], [-111.3597303171378, 25.95316241328298], [-111.35926509842646, 25.952744134390368], [-111.35877019883442, 25.952745361313802], [-111.35836151639994, 25.953116861319614], [-111.3583625183233, 25.953447769038778], [-111.35877380116125, 25.95393374809994], [-111.35913983110939, 25.953932840786248]]]}}]}
