{"type": "FeatureCollection", "features": [{"type": "Feature", "properties": {"uga": "42", "politica": "preservacion", "procedencia": {"metodo": "digitalizacion-semiautomatica", "fuente": "Mapa de ubicación de la ficha UGA 42, Boletín Oficial No. 12 (12-mar-2014), p. 297 del PDF", "datum": "UTM 12N con desplazamiento de +30 m E y +165 m N ajustado contra la costa (INC-011)", "correccion_borde_px": 1.4, "precision_aprox_m": 78.0, "escala_por_superficie": false, "revisada_en_qgis": false}, "control": {"residuo_georreferencia_m": 19.5, "area_digitalizada_ha": 10932.92, "escala_por_superficie": false, "superficie_ficha_ha": 11034.33, "diferencia_area_pct": -0.9}}, "geometry": {"type": "MultiPolygon", "coordinates": [[[[-111.54171577447957, 25.904870067064525], [-111.54285843467194, 25.906244747706513], [-111.54286191457714, 25.90700501716967], [-111.541715102953, 25.911582952333692], [-111.54058585401471, 25.92003081509679], [-111.54020299029528, 25.921439516252462], [-111.53595588998004, 25.92919528754211], [-111.5267196934823, 25.937609589755763], [-111.5224478588155, 25.940087785295148], [-111.52011179143058, 25.94009619144832], [-111.51949164006174, 25.940661025704152], [-111.52043011588083, 25.94150232084418], [-111.51833424145823, 25.94136194846029], [-111.51793886988395, 25.941722040505002], [-111.51926823903617, 25.94291376298467], [-111.51778802946795, 25.942919061691626], [-111.51562258603114, 25.944537989960665], [-111.51503625118961, 25.944012348738326], [-111.51429148204426, 25.944690609355312], [-111.51289706861073, 25.944547666610163], [-111.51211383052134, 25.94526093407362], [-111.51344318242359, 25.946452709721378], [-111.51196292725308, 25.9464579495675], [-111.49642957492996, 25.956362939522432], [-111.49480994559973, 25.956368483186584], [-111.48666804264667, 25.94801563095283], [-111.48330465235765, 25.9425453739587], [-111.4838865281918, 25.942015702400735], [-111.48313210448272, 25.94028744586606], [-111.48311344798118, 25.935713854020058], [-111.4815375260664, 25.93114544284265], [-111.48091995162993, 25.930591441633844], [-111.481533006051, 25.930033353386815], [-111.48152608713995, 25.928330920912924], [-111.48090852765424, 25.92777691923301], [-111.4833897991798, 25.925164894831887], [-111.48572125940005, 25.924101639202163], [-111.4869544816748, 25.922978836273334], [-111.4954747473315, 25.912395355082676], [-111.51020437143195, 25.8979196360792], [-111.52336446766935, 25.881337178464964], [-111.52917351796461, 25.874983333222826], [-111.52955637389242, 25.873574652497876], [-111.53033148367294, 25.872868179990803], [-111.53032677140585, 25.871812733885633], [-111.53110186522795, 25.871106257344373], [-111.53109557362922, 25.86969899567092], [-111.53187064924872, 25.86899251510635], [-111.53186305711635, 25.867296641064993], [-111.53295889151784, 25.86694080033506], [-111.53411828423411, 25.866936538776578], [-111.5341243267104, 25.868280596939165], [-111.53647486260087, 25.871790138281096], [-111.53998813232955, 25.87423985440926], [-111.5399993295459, 25.87670255702825], [-111.54118597552247, 25.880919981343336], [-111.5415959878742, 25.885492113871937], [-111.5427827842597, 25.88970951773578], [-111.54279404715653, 25.892172213963633], [-111.54398095736494, 25.89638960241093], [-111.54362103378828, 25.902780344222926], [-111.54171577447957, 25.904870067064525]], [[-111.51560885804018, 25.941385394120836], [-111.51599974020623, 25.94173582056592], [-111.5166202448727, 25.941170699700855], [-111.51576697649544, 25.940111725731633], [-111.51388380000381, 25.94047023669788], [-111.51287579204535, 25.941388236751767], [-111.51346972544674, 25.941920719888188], [-111.51405146114556, 25.94139092914305], [-111.51466891178559, 25.94194448624558], [-111.51560885804018, 25.941385394120836]], [[-111.52037433725343, 25.916558273164775], [-111.51838309980035, 25.91512324820046], [-111.51604752302414, 25.91513158136814], [-111.51532947696212, 25.914782316159744], [-111.51370887064505, 25.91625855072721], [-111.5137131988041, 25.917257349482792], [-111.51573587796177, 25.918720648822244], [-111.5180095147382, 25.918712541230303], [-111.52037433725343, 25.916558273164775]]], [[[-111.59640916782118, 25.86736271878716], [-111.59715944037414, 25.86803494946688], [-111.59716679878059, 25.86949883866891], [-111.59406625053458, 25.871974293828337], [-111.59174732740254, 25.875150135990413], [-111.58944050585649, 25.880788622066564], [-111.58633950326488, 25.88326391623126], [-111.58518244668883, 25.885379498531154], [-111.58324701388986, 25.887498203026194], [-111.58325537918756, 25.889200616879126], [-111.5844983227458, 25.89031427272821], [-111.58949737277955, 25.8906458616342], [-111.59415341388255, 25.88781232219532], [-111.59609042050423, 25.886045286305404], [-111.59926038171574, 25.88497677331421], [-111.60035972403924, 25.885324046130677], [-111.60036652142617, 25.886668085435], [-111.60115019417769, 25.88772029336363], [-111.60200233137041, 25.88848359876293], [-111.60271075673445, 25.88848065718856], [-111.60272144249056, 25.890584958535175], [-111.59697993406236, 25.895822761211512], [-111.59465182112724, 25.897239595234097], [-111.59309502499785, 25.897245969959656], [-111.5924830020311, 25.897804219825513], [-111.59189656793187, 25.897278887982882], [-111.59153998234189, 25.897604138432193], [-111.58719677709423, 25.89762178812733], [-111.58641489794637, 25.896921316035204], [-111.58407970635255, 25.896930739130358], [-111.58251945692483, 25.896233378174784], [-111.58141386564462, 25.896237814424314], [-111.58080179177847, 25.89679601592843], [-111.5804108723392, 25.8964457627889], [-111.58002339475206, 25.896799130998733], [-111.57940588376458, 25.89624585001545], [-111.57791109487727, 25.89625181384786], [-111.57590403585019, 25.89808209230831], [-111.57592111431337, 25.90160020551491], [-111.57476028886201, 25.903012083150166], [-111.57438950403896, 25.906820345597833], [-111.57284049771324, 25.90682647364906], [-111.57166771450215, 25.905775648444745], [-111.5709591819222, 25.905778440155466], [-111.57095440549053, 25.90478620870535], [-111.56954373403248, 25.90282157475622], [-111.56776275639712, 25.90479874084854], [-111.56737996023168, 25.906144307968653], [-111.56667142492044, 25.906147078764583], [-111.56582669809502, 25.906917217817096], [-111.56621901965507, 25.90756267819431], [-111.56625120967612, 25.914303737605493], [-111.56586363186787, 25.914657068797702], [-111.56587202801197, 25.916416124679387], [-111.5639441189044, 25.920293632258264], [-111.56356293677636, 25.92199755838661], [-111.5639538931737, 25.922347855149336], [-111.56436830831124, 25.927623502017646], [-111.56515194395497, 25.928675899443032], [-111.5649929608756, 25.929584384261158], [-111.56632994628798, 25.930782202547903], [-111.56636385813536, 25.937875050302143], [-111.56597620498975, 25.938228381927633], [-111.56561039367455, 25.943155242053198], [-111.56328934600933, 25.946330634457997], [-111.56330414247297, 25.949440279333537], [-111.56800868935267, 25.956106405805947], [-111.56883003314667, 25.964955211858513], [-111.56805456541481, 25.96566188737289], [-111.56651708283763, 25.969889694719694], [-111.5657415692791, 25.970596358129683], [-111.56381616439334, 25.975177466628445], [-111.56033105563776, 25.97941278154333], [-111.55995824924865, 25.982932372578492], [-111.55957043167781, 25.983285687610504], [-111.5595837569413, 25.986100153192442], [-111.55453849800804, 25.98998954006736], [-111.55456491868665, 25.995618469741324], [-111.55262881297897, 25.9980885799838], [-111.55263180923895, 25.998728993852872], [-111.55192271769707, 25.998731701522505], [-111.54920251047733, 26.00014931364317], [-111.5440866198313, 26.004101811415133], [-111.53928136434273, 26.011303681675177], [-111.53967255062545, 26.011654036128668], [-111.53867298881947, 26.01291743478868], [-111.5382898228095, 26.01432611799602], [-111.53758355266963, 26.01496917085679], [-111.53557354021346, 26.0149766312055], [-111.53479117147552, 26.014275899288368], [-111.53212611499798, 26.014285733191755], [-111.53135010583799, 26.014992215823295], [-111.53057092445299, 26.01499507754795], [-111.52894916146998, 26.016471480541753], [-111.52895203167996, 26.01711189529183], [-111.52707717561277, 26.01782237178937], [-111.52623140287247, 26.018592284734048], [-111.52623425860348, 26.019232699577188], [-111.52475375945615, 26.01923808168919], [-111.52474465462602, 26.017190432233438], [-111.52389206297318, 26.01642669265426], [-111.52318286178551, 26.016429261043427], [-111.52317821243923, 26.01538039399324], [-111.52472876202464, 26.01361570204703], [-111.52471337592382, 26.010154255799787], [-111.52392954179656, 26.009101654078158], [-111.52391705282963, 26.006287180813736], [-111.52235102152498, 26.00453377140712], [-111.52156413890333, 26.002777536147587], [-111.52155481690109, 26.000666678657772], [-111.51998579874807, 25.998209620995667], [-111.51757215935066, 25.996747812817844], [-111.51374042640265, 25.997113289005366], [-111.51335242253042, 25.99746648231129], [-111.5055617375984, 25.997493923483447], [-111.50517370764172, 25.997847095211853], [-111.50299960481856, 25.997706786281086], [-111.50261156638936, 25.99805995124828], [-111.5019938734352, 25.997506350495932], [-111.5008252689618, 25.997510401657348], [-111.49926415536035, 25.996812166463474], [-111.49614641558904, 25.99647107828342], [-111.49347964869092, 25.994080689637965], [-111.4934767096945, 25.99337706662887], [-111.4928587501945, 25.99282312654562], [-111.49324680132273, 25.992469987314678], [-111.49269179790664, 25.991972475796448], [-111.49268592995433, 25.990565229132066], [-111.49190251127969, 25.989512444862317], [-111.49189811780325, 25.988457009405405], [-111.49032549861913, 25.984944178265632], [-111.49029607827602, 25.977851289441574], [-111.49216786829837, 25.976500869963097], [-111.4960566242407, 25.975080323549154], [-111.49799800325201, 25.973666387117724], [-111.49877691610791, 25.973663704903352], [-111.49955285635872, 25.972957394151948], [-111.50072121831863, 25.972953356809217], [-111.50234275255404, 25.971477265127028], [-111.5031171603814, 25.97041912345664], [-111.50310818094832, 25.96830825042168], [-111.50349612180756, 25.96795508413526], [-111.50271001167242, 25.96625537306667], [-111.5030919900393, 25.96450151774392], [-111.50380088186948, 25.964499052484918], [-111.51739384838368, 25.956007493909016], [-111.52011344298789, 25.954590480968626], [-111.52089222757068, 25.954587681644405], [-111.52360863394495, 25.95246698017243], [-111.52438740412032, 25.95246416226498], [-111.5337072575135, 25.946801037957748], [-111.53759452447059, 25.94537939244454], [-111.54154652767039, 25.94283874585622], [-111.54152432626815, 25.93798374827522], [-111.54246260079245, 25.93882459999276], [-111.54308296201948, 25.93825936775854], [-111.54307812243222, 25.93720393338197], [-111.54385355888162, 25.936497389457458], [-111.54384580529026, 25.934808694186408], [-111.54501022132281, 25.934030319971733], [-111.54693896956084, 25.93015305790174], [-111.55003548560816, 25.92627134209023], [-111.55080426869718, 25.924157515171686], [-111.55157957439744, 25.923450930748206], [-111.55157466232244, 25.922395495716366], [-111.55234995202862, 25.921688907261636], [-111.55234175459582, 25.919929848590552], [-111.55388735219225, 25.917461224264688], [-111.55384656145924, 25.90872912656829], [-111.55572118320787, 25.908370135005715], [-111.55657354077599, 25.907663228649962], [-111.553833387324, 25.905908068752076], [-111.5538153181989, 25.902038131656152], [-111.55303360285328, 25.90133747721009], [-111.55301884309145, 25.898171162770655], [-111.5522371582991, 25.897470503168645], [-111.55222897134074, 25.895711438587963], [-111.55066075553167, 25.89325466585216], [-111.55065585820375, 25.89219922626102], [-111.54987259713705, 25.89114673917378], [-111.54986607738279, 25.889739485755584], [-111.54908446739582, 25.889038807150296], [-111.5490779575951, 25.887631553136682], [-111.54829636630345, 25.886930869782923], [-111.5482914913712, 25.88587542885212], [-111.54515716990225, 25.881313580048253], [-111.54514398829816, 25.878442423201292], [-111.54591903494433, 25.877735868874726], [-111.5459063878792, 25.87498455786831], [-111.54855713581715, 25.874270921600015], [-111.5521174409001, 25.871731474016325], [-111.55366407511876, 25.869614660035392], [-111.55365915624662, 25.86855921754097], [-111.55443408801204, 25.867852618648076], [-111.5544275209698, 25.866445361796604], [-111.5555202823586, 25.865448926604543], [-111.55629847721052, 25.865445946388682], [-111.55908017456781, 25.86290931189839], [-111.56062657155641, 25.860792425088434], [-111.56062325234207, 25.860088796755935], [-111.5613980877182, 25.859382161454864], [-111.56137675419316, 25.854865219511453], [-111.5605953111172, 25.85416459689995], [-111.56059033408522, 25.853109153406326], [-111.55902583552529, 25.851356079727747], [-111.5590225271751, 25.85065245028784], [-111.55449544945628, 25.847644143303572], [-111.55410804958741, 25.847997443320292], [-111.55277975143963, 25.846806312176874], [-111.55277321011069, 25.845399050851753], [-111.55199188013688, 25.84469837918293], [-111.55198045051598, 25.84223567064132], [-111.5511991462806, 25.841534993989658], [-111.55118773467814, 25.839072284045983], [-111.55040482842986, 25.838019786557783], [-111.55039506258669, 25.835908891067692], [-111.54960893438265, 25.834152756237472], [-111.5472652525097, 25.832050669170968], [-111.54726201653499, 25.83134703646037], [-111.54413725503619, 25.828544191236258], [-111.54413403805829, 25.827840557818593], [-111.54335287539661, 25.8271398353151], [-111.54334458670522, 25.82532410694367], [-111.54404971589001, 25.82468102771247], [-111.5487172919485, 25.824663478519362], [-111.54932915469588, 25.8241054104247], [-111.54994614670849, 25.824658833330083], [-111.5522799325349, 25.824649982787953], [-111.55345009660768, 25.825349176090413], [-111.55539492833168, 25.825341756165678], [-111.55656511708328, 25.82604092390626], [-111.55889892738548, 25.826031966625845], [-111.56162834498508, 25.827428732054084], [-111.56514413343685, 25.830581498175228], [-111.57138981510111, 25.835130750456376], [-111.57528658998345, 25.836522656872106], [-111.57606799993556, 25.837223202622084], [-111.58698439532657, 25.84210499180566], [-111.58776243310552, 25.842101845553934], [-111.5885439524657, 25.842802321757432], [-111.58932199458765, 25.84279916707329], [-111.59322273199957, 25.84489420882422], [-111.59400078714738, 25.844891028839754], [-111.5947823612151, 25.845591470245157], [-111.5955604207038, 25.84558828182623], [-111.59783500371121, 25.84762665151203], [-111.59940356259038, 25.850082923481086], [-111.60589100636524, 25.857296615728732], [-111.59870195516636, 25.865270689179383], [-111.59870518216093, 25.865911109590996], [-111.59799689089465, 25.865914029242614], [-111.59640916782118, 25.86736271878716]], [[-111.55687041506152, 25.90766208874469], [-111.55789203575668, 25.908157866926526], [-111.55848096349989, 25.9076210124292], [-111.55769156222559, 25.906913554385312], [-111.55687041506152, 25.90766208874469]], [[-111.54415126985883, 25.935082441819695], [-111.5461523975865, 25.93687574082304], [-111.54732307695878, 25.935809010978062], [-111.5461426013226, 25.934751153555812], [-111.54415126985883, 25.935082441819695]], [[-111.53889831355902, 25.961558124824382], [-111.54195481524097, 25.962250348331064], [-111.54396347567857, 25.96042052993275], [-111.54396050125766, 25.959773552362353], [-111.5423277855293, 25.958661024232786], [-111.5388851770877, 25.958673878013293], [-111.53765343119305, 25.960092283273806], [-111.53889831355902, 25.961558124824382]]]]}}]}
