{"type": "FeatureCollection", "features": [{"type": "Feature", "properties": {"uga": "43", "politica": "preservacion", "procedencia": {"metodo": "digitalizacion-semiautomatica", "fuente": "Mapa de ubicación de la ficha UGA 43, Boletín Oficial No. 12 (12-mar-2014), p. 300 del PDF", "datum": "UTM 12N con desplazamiento de +30 m E y +165 m N ajustado contra la costa (INC-011)", "correccion_borde_px": 1.4, "precision_aprox_m": 14.0, "escala_por_superficie": true, "revisada_en_qgis": false}, "control": {"residuo_georreferencia_m": 0.0, "area_digitalizada_ha": 44.23, "escala_por_superficie": true, "superficie_ficha_ha": 44.21, "diferencia_area_pct": 0.0}}, "geometry": {"type": "Polygon", "coordinates": [[[-111.35524608715114, 25.950315350521834], [-111.35476496771999, 25.95025423646441], [-111.35476425454051, 25.950016271087666], [-111.35448789890837, 25.949767774121444], [-111.35434897565682, 25.949394353584346], [-111.35434764061064, 25.948948348538792], [-111.35448507103057, 25.94882342538523], [-111.35448376531238, 25.948387374601705], [-111.35475843761289, 25.94807523493239], [-111.35475473414385, 25.946839329681733], [-111.35433965310192, 25.946279704752794], [-111.35391270610877, 25.94589578138097], [-111.35378591624118, 25.9458960911273], [-111.35364848843406, 25.94602101364023], [-111.35330398819616, 25.94602185436625], [-111.3530992266174, 25.946207981879436], [-111.35302791927495, 25.945400845096188], [-111.35350891515854, 25.944963617759996], [-111.35350835719777, 25.944776738736635], [-111.3536457837268, 25.944651816348674], [-111.35364522555771, 25.944464937320042], [-111.35378265158297, 25.944340014802105], [-111.35378209320558, 25.94415313576819], [-111.3539193622849, 25.943975874405027], [-111.35378119233073, 25.943851624998512], [-111.35378026172877, 25.943540159918246], [-111.35364209243313, 25.943415910364795], [-111.35364041805157, 25.94285527316849], [-111.35350224970928, 25.942731023460116], [-111.35350169181423, 25.942544144379006], [-111.35294883656, 25.941984851116153], [-111.35294750722552, 25.94153884554675], [-111.35308493063839, 25.94141392366796], [-111.35308437343447, 25.94122704454444], [-111.35318195067057, 25.9411383436222], [-111.35315252762, 25.940977704427688], [-111.35327758909347, 25.94086401903632], [-111.35362207432661, 25.94086317852804], [-111.35369078532189, 25.940800717286795], [-111.35480396034178, 25.94073570163968], [-111.35487304397434, 25.940797825912266], [-111.35583797624052, 25.940920045860434], [-111.35666567901586, 25.941229477743164], [-111.3574250527179, 25.94172595387782], [-111.35838020584019, 25.942709082880036], [-111.35879585936557, 25.943455575391038], [-111.35900482133702, 25.944202579016707], [-111.35900614346279, 25.944638629837016], [-111.35914507557413, 25.945012046056362], [-111.35914794014244, 25.945956394809123], [-111.35894293995092, 25.94651754382213], [-111.35894369539491, 25.94676671564472], [-111.3588066496771, 25.947016228897986], [-111.35880721605656, 25.947203107755666], [-111.35825902661918, 25.94820115943242], [-111.3568974940255, 25.94956376947375], [-111.35586583538364, 25.950189242185935], [-111.35531480270221, 25.9502528885434], [-111.35524608715114, 25.950315350521834]], [[-111.3563914545845, 25.945341521228865], [-111.35674737546607, 25.945017971291666], [-111.35674703007577, 25.944903339614353], [-111.35659642742846, 25.9447679170332], [-111.35625707604326, 25.94464914235878], [-111.35597535706567, 25.944905238134904], [-111.3559760762824, 25.945144455800417], [-111.35619576571303, 25.9453420025899], [-111.3563914545845, 25.945341521228865]]]}}]}
