{"type": "FeatureCollection", "features": [{"type": "Feature", "properties": {"uga": "44", "politica": "restauracion", "procedencia": {"metodo": "digitalizacion-semiautomatica", "fuente": "Mapa de ubicación de la ficha UGA 44, Boletín Oficial No. 12 (12-mar-2014), p. 303 del PDF", "datum": "UTM 12N con desplazamiento de +30 m E y +165 m N ajustado contra la costa (INC-011)", "correccion_borde_px": 1.4, "precision_aprox_m": 38.0, "escala_por_superficie": false, "revisada_en_qgis": false}, "control": {"residuo_georreferencia_m": 19.0, "area_digitalizada_ha": 498.44, "escala_por_superficie": false, "superficie_ficha_ha": 503.88, "diferencia_area_pct": -1.1}}, "geometry": {"type": "Polygon", "coordinates": [[[-111.40722652590162, 25.94548882396279], [-111.40692725230906, 25.94521966177395], [-111.4048505597574, 25.945225481150167], [-111.40447181189663, 25.944884827529002], [-111.4037166529482, 25.944886934283925], [-111.40258159067082, 25.944206669845766], [-111.40220401328159, 25.944207718762637], [-111.40050029159843, 25.942845591789645], [-111.40015675645863, 25.942846541205295], [-111.40015570580786, 25.942535637274442], [-111.39825980018436, 25.94014887760404], [-111.39825750192804, 25.939465459605607], [-111.39787879144815, 25.93912478803615], [-111.3978759215193, 25.938270515367595], [-111.39749721599296, 25.93792984268715], [-111.39749320219455, 25.93673386067007], [-111.39711450273126, 25.93639318684697], [-111.3971063932427, 25.9339742493765], [-111.39748221837229, 25.93346065014803], [-111.39747820552043, 25.93226466739096], [-111.39785459748427, 25.931921921855256], [-111.3978517286461, 25.93106764833483], [-111.39897858207468, 25.929355987021246], [-111.39973133679135, 25.92867048723002], [-111.39973028791688, 25.928359582674606], [-111.40007378106193, 25.92835863476145], [-111.40101470725759, 25.92750175237416], [-111.40139223145313, 25.92750070718186], [-111.40199070791117, 25.926955674078133], [-111.40349265281058, 25.924559511223013], [-111.40439959682136, 25.923733506721202], [-111.40665997869169, 25.922360331017753], [-111.40703748624537, 25.92235927131386], [-111.40797890253809, 25.92167319889531], [-111.40911141838357, 25.92167000660657], [-111.40986524718197, 25.921326164125713], [-111.41291559259221, 25.9213175061382], [-111.41348304057337, 25.921657601050878], [-111.41518181286847, 25.921652744790997], [-111.41556051585613, 25.921993372029725], [-111.41593802181814, 25.92199228915755], [-111.41631672804918, 25.92233291436463], [-111.41763980866988, 25.92284167654789], [-111.41930929181306, 25.924172900436194], [-111.41968861973571, 25.924684370927224], [-111.41969225028132, 25.92570949724291], [-111.42120596435463, 25.92673024219836], [-111.42120778633091, 25.927242805129627], [-111.42158652450885, 25.927583415926613], [-111.42159321161843, 25.92946281284991], [-111.42197256658943, 25.929974276659024], [-111.42197570527733, 25.93085552027127], [-111.42160060339022, 25.931540036027187], [-111.42160607575495, 25.933077723612882], [-111.4212303573355, 25.93359138416381], [-111.42123278752794, 25.93427480074811], [-111.42085645672844, 25.934617606177156], [-111.42086131310765, 25.935984439153287], [-111.42048497586133, 25.936327243617054], [-111.42048740204778, 25.937010660008855], [-111.42011106048864, 25.93735346350646], [-111.42011348462792, 25.938036879834314], [-111.41973713875569, 25.938379682365632], [-111.41973834979069, 25.93872139050566], [-111.41917503475219, 25.939577300614268], [-111.41770413924421, 25.941088446389927], [-111.41695020889696, 25.94143232996971], [-111.41544473264128, 25.94280350175489], [-111.413184067997, 25.944176814116688], [-111.41261770279691, 25.944178428576713], [-111.41224131568069, 25.944521211845654], [-111.41148615978358, 25.944523359078502], [-111.41110976826617, 25.944866139443548], [-111.40997703092745, 25.944869350007345], [-111.409600633898, 25.945212126500202], [-111.4075239421699, 25.945217984203452], [-111.40722652590162, 25.94548882396279]], [[-111.40971902868215, 25.933628225276912], [-111.41031749687355, 25.933083158328994], [-111.41031581496573, 25.932597567681643], [-111.40971359068662, 25.932055898344675], [-111.40880006074771, 25.932058478582828], [-111.40838977166034, 25.9324321529721], [-111.40839262367652, 25.933259452636495], [-111.40880548661906, 25.93363080569437], [-111.40971902868215, 25.933628225276912]]]}}]}
