{"type": "FeatureCollection", "features": [{"type": "Feature", "properties": {"uga": "45", "politica": "aprovechamiento-sustentable", "procedencia": {"metodo": "digitalizacion-semiautomatica", "fuente": "Mapa de ubicación de la ficha UGA 45, Boletín Oficial No. 12 (12-mar-2014), p. 306 del PDF", "datum": "UTM 12N con desplazamiento de +30 m E y +165 m N ajustado contra la costa (INC-011)", "correccion_borde_px": 1.4, "precision_aprox_m": 26.0, "escala_por_superficie": false, "revisada_en_qgis": false}, "control": {"residuo_georreferencia_m": 6.6, "area_digitalizada_ha": 144.2, "escala_por_superficie": false, "superficie_ficha_ha": 138.18, "diferencia_area_pct": 4.4}}, "geometry": {"type": "Polygon", "coordinates": [[[-111.36701193331957, 25.942233211172866], [-111.3664627610123, 25.942115317682415], [-111.36448050473683, 25.94104676406481], [-111.36357808398247, 25.94104903179581], [-111.36344652110262, 25.941168645818646], [-111.35948864691153, 25.9411785217685], [-111.35935707971069, 25.941298132120362], [-111.35880828041786, 25.94129949249004], [-111.35565717699045, 25.938465907123508], [-111.35578653763748, 25.937611540182385], [-111.35670253522103, 25.93512578252727], [-111.35812922828754, 25.934883694982588], [-111.35918279720579, 25.934284666822922], [-111.36025857153884, 25.933186980613662], [-111.3609141753681, 25.931873224568484], [-111.3609123584366, 25.931276808796174], [-111.36117364921492, 25.93044116926351], [-111.36104106311817, 25.930221992870937], [-111.36116861671896, 25.928790265908123], [-111.36103633790037, 25.92867131142889], [-111.3607674229055, 25.927002003455627], [-111.36023723102872, 25.926168333353747], [-111.35968397487987, 25.925551827639634], [-111.35836233205893, 25.92472011248981], [-111.35653558225043, 25.924366765383493], [-111.35640403048586, 25.92448637316625], [-111.35521719225706, 25.924608571187935], [-111.35442679775622, 25.924968358966183], [-111.35403477762071, 25.925324772080153], [-111.3540330101648, 25.92473315075261], [-111.35519368209971, 25.9237974960677], [-111.3591713334344, 25.92354912468078], [-111.36062596807609, 25.924738354312503], [-111.36221181482846, 25.925688672738023], [-111.36311395998288, 25.926499944982332], [-111.36364380741033, 25.927214321101033], [-111.36379183589398, 25.93246244841014], [-111.36445730458622, 25.93436932008609], [-111.36487833748158, 25.934866855367602], [-111.36646324725278, 25.93545927507256], [-111.36762984070582, 25.935575603582624], [-111.36815679045421, 25.93533569765968], [-111.36857511053806, 25.93495532321479], [-111.36856434799193, 25.931496115479238], [-111.3690668695245, 25.93103915948222], [-111.37001174637389, 25.931156033771863], [-111.37025252869854, 25.93137252762836], [-111.37131684641851, 25.93423261902685], [-111.37198057310766, 25.935543039575393], [-111.3718543274384, 25.937351683309753], [-111.37161489229044, 25.93756940637127], [-111.36897639232609, 25.937576150266683], [-111.36868961853153, 25.93783690719502], [-111.36870254930982, 25.941990350293644], [-111.36793470367518, 25.941992302631846], [-111.36701193331957, 25.942233211172866]], [[-111.36236462247267, 25.935099803630983], [-111.36195453322537, 25.934731048313385], [-111.36118408230881, 25.934732970996418], [-111.36089729795984, 25.9349937127123], [-111.36089869360327, 25.9354517838938], [-111.36118706480683, 25.935711092341208], [-111.36182559903816, 25.935709499095157], [-111.36236462247267, 25.935099803630983]]]}}]}
