{"type": "FeatureCollection", "features": [{"type": "Feature", "properties": {"uga": "46", "politica": "preservacion", "procedencia": {"metodo": "digitalizacion-semiautomatica", "fuente": "Mapa de ubicación de la ficha UGA 46, Boletín Oficial No. 12 (12-mar-2014), p. 309 del PDF", "datum": "UTM 12N con desplazamiento de +30 m E y +170 m N ajustado contra la costa (INC-011)", "correccion_borde_px": 1.4, "precision_aprox_m": 30.0, "escala_por_superficie": false, "revisada_en_qgis": false}, "control": {"residuo_georreferencia_m": 24.3, "area_digitalizada_ha": 55.93, "escala_por_superficie": false, "superficie_ficha_ha": 53.84, "diferencia_area_pct": 3.9}}, "geometry": {"type": "Polygon", "coordinates": [[[-111.35729411969014, 25.935200004812128], [-111.35684619584843, 25.93520110872375], [-111.35668608130024, 25.931975237259014], [-111.35638365947742, 25.931434247613687], [-111.35623041352059, 25.930486590216002], [-111.35592840451002, 25.930081031929358], [-111.35577557074453, 25.929268806316777], [-111.3548683472299, 25.92764582862739], [-111.3535107910731, 25.926294811057357], [-111.35350870311514, 25.925594900159812], [-111.35423189010477, 25.9249401024602], [-111.35513299570172, 25.924531596386693], [-111.35573454235251, 25.924530121094875], [-111.35588452230095, 25.924394319295285], [-111.35711113856057, 25.924391302026933], [-111.358315049101, 25.92465919763924], [-111.35936980996715, 25.92533375373966], [-111.36009693128028, 25.925984980405754], [-111.36085217275541, 25.927066569843134], [-111.36100710135861, 25.92855595221241], [-111.36115790584523, 25.928691009904696], [-111.36101624937514, 25.931558213037324], [-111.36041919971657, 25.93304946672722], [-111.35894646945529, 25.93451875378953], [-111.35729411969014, 25.935200004812128]]]}}]}
