{"type": "FeatureCollection", "features": [{"type": "Feature", "properties": {"uga": "47", "politica": "conservacion", "procedencia": {"metodo": "digitalizacion-semiautomatica", "fuente": "Mapa de ubicación de la ficha UGA 47, Boletín Oficial No. 12 (12-mar-2014), p. 312 del PDF", "datum": "UTM 12N con desplazamiento de +30 m E y +165 m N ajustado contra la costa (INC-011)", "correccion_borde_px": 1.4, "precision_aprox_m": 50.0, "escala_por_superficie": false, "revisada_en_qgis": false}, "control": {"residuo_georreferencia_m": 40.2, "area_digitalizada_ha": 4000.9, "escala_por_superficie": false, "superficie_ficha_ha": 3993.61, "diferencia_area_pct": 0.2}}, "geometry": {"type": "Polygon", "coordinates": [[[-111.40862477313391, 25.862805705356816], [-111.40885638859726, 25.86301313362569], [-111.40887592732179, 25.868691158837375], [-111.40912875275072, 25.868917569533746], [-111.40913501031025, 25.87073453654625], [-111.40938784063259, 25.870960946669356], [-111.4094042799018, 25.875730482606254], [-111.40965712150563, 25.875956891970336], [-111.40966495609906, 25.878228098311244], [-111.4099178035811, 25.878454507073254], [-111.40993348541812, 25.88299691732982], [-111.41018634369473, 25.8832233253467], [-111.41019419094039, 25.885494529262207], [-111.41044705509755, 25.885720936676737], [-111.41046511033221, 25.89094229910811], [-111.40899750767603, 25.890946444449703], [-111.40860087471584, 25.891306022840748], [-111.40834800197757, 25.891079612482883], [-111.40773861549958, 25.891404233325687], [-111.40597397454978, 25.89140918275894], [-111.40496715804888, 25.891866241991973], [-111.40345460228349, 25.891870456849215], [-111.40169149092341, 25.892329595027498], [-111.39515444686181, 25.897571368848975], [-111.38609639949854, 25.90304670589556], [-111.38105989611394, 25.904877008146997], [-111.37828873800429, 25.905565631528837], [-111.37753381629506, 25.90602184403273], [-111.36543187802106, 25.906052848517444], [-111.35787500997239, 25.908342924152702], [-111.35359829689749, 25.911533135489623], [-111.35078466002098, 25.911312847810898], [-111.35053185311531, 25.911086336516657], [-111.34704757485127, 25.91132184168607], [-111.34704492305193, 25.91041576034483], [-111.34750302996223, 25.910000906696812], [-111.35077538133004, 25.90817604401713], [-111.35203467706353, 25.90771874630988], [-111.35329531611843, 25.907715680090064], [-111.35606326643105, 25.90589192678889], [-111.35757190110871, 25.904525477368644], [-111.35937621438813, 25.90452101688373], [-111.36063958068853, 25.905426371485458], [-111.36286921732255, 25.905420808971463], [-111.36488060883667, 25.903598779611514], [-111.36689474836959, 25.90268520656206], [-111.37016234342408, 25.899497183840555], [-111.37192355226823, 25.898357063866843], [-111.37372705342432, 25.898125304882022], [-111.37549611391269, 25.89948347195079], [-111.37621297739436, 25.899481614106517], [-111.37776611091198, 25.898074351260707], [-111.37774875815205, 25.8926234488116], [-111.37825150042606, 25.892167892893127], [-111.37824860499511, 25.89125940874803], [-111.37875133961987, 25.89080385109732], [-111.37874989006171, 25.890349608979903], [-111.37925261893247, 25.889894049599274], [-111.37924983781956, 25.88902365071425], [-111.37794216283181, 25.888305205062196], [-111.37722536700345, 25.888307070706915], [-111.37621846315969, 25.88876393156188], [-111.37119235099806, 25.8937735862299], [-111.36777604216681, 25.895957734076315], [-111.36752323630328, 25.895731251923156], [-111.36666160943868, 25.896056340101293], [-111.3651095290429, 25.896060255459396], [-111.36437161286058, 25.895625642133787], [-111.36399450521964, 25.89596727354383], [-111.3633835788565, 25.89583746689711], [-111.36137021892509, 25.896978112398042], [-111.35809491287013, 25.897667605314037], [-111.35683779662986, 25.898806319040087], [-111.35583072388191, 25.899263039499782], [-111.35431942178894, 25.899720985783954], [-111.35331097864191, 25.899723446055717], [-111.3529141458995, 25.90008287390915], [-111.35251518052247, 25.899725382592877], [-111.35074973305355, 25.899502540027147], [-111.35003645484268, 25.898863383301517], [-111.34978099789463, 25.897728383811543], [-111.34902200551092, 25.89682171947187], [-111.34901521313569, 25.894512417427702], [-111.35002026293907, 25.893374379076114], [-111.35052043277776, 25.89201043128802], [-111.35152544712875, 25.890872382482353], [-111.35152410176418, 25.890418138987577], [-111.3537881822698, 25.888822771243312], [-111.35403891503275, 25.888367912743476], [-111.35403281853827, 25.886323816641223], [-111.35629678743625, 25.884728410011675], [-111.35654681998729, 25.88404642528415], [-111.35654488812095, 25.88340314532708], [-111.35502496123233, 25.880908512951788], [-111.35108559216523, 25.87715151338654], [-111.35146267831189, 25.87680991488457], [-111.35097840163135, 25.876375882261467], [-111.35097236105456, 25.87433178210586], [-111.35057208042649, 25.8739730207725], [-111.35096967656312, 25.873423292962556], [-111.35056939903937, 25.873064531545253], [-111.35146896959752, 25.87179413115631], [-111.35146640140506, 25.870926130958146], [-111.35242966714597, 25.870923795150773], [-111.35282640503188, 25.8705643681774], [-111.3530791289865, 25.870790877584362], [-111.35423279349241, 25.87069228164019], [-111.35574780883799, 25.871597071856268], [-111.35747270942433, 25.87159283368601], [-111.35877434525499, 25.870413513048685], [-111.35902101766233, 25.86863399763697], [-111.35851487223411, 25.86795387678346], [-111.35850664841458, 25.86522840884767], [-111.35800052066685, 25.864548285697804], [-111.35799698462662, 25.863374587920518], [-111.35849968123875, 25.862919099118717], [-111.35849557027461, 25.861556364331552], [-111.35885151235685, 25.861233841657747], [-111.35859879808775, 25.861007341905097], [-111.3589968852028, 25.860646628801405], [-111.35899139693525, 25.85882964855857], [-111.36049802898411, 25.857008921374423], [-111.36049677414717, 25.856595165458344], [-111.36296926272608, 25.85568050858349], [-111.36502484987753, 25.855675355528756], [-111.36729721315336, 25.857032370394677], [-111.36826305384051, 25.857897930993968], [-111.36851718799097, 25.858578658560337], [-111.37210123108478, 25.86201686689935], [-111.37307061189823, 25.862241502959012], [-111.37361804747032, 25.86174535778021], [-111.37360817142665, 25.85860373337173], [-111.37259509577912, 25.857016468234054], [-111.3725901124206, 25.855426612171172], [-111.37208465810238, 25.854973659973037], [-111.37208323632257, 25.854519415265035], [-111.37107234316024, 25.85361350527008], [-111.37056265485896, 25.85179781274322], [-111.36929837895563, 25.85043828741923], [-111.36853602606827, 25.848396104495084], [-111.36712497373186, 25.847131450734924], [-111.3675224045392, 25.846581677333862], [-111.36701700734123, 25.846128706326546], [-111.36649761644162, 25.841133276452243], [-111.3660974025936, 25.84077455559391], [-111.36649481733457, 25.8402247847028], [-111.36598945133447, 25.839771809389788], [-111.36598595753435, 25.838636194407652], [-111.36265616107592, 25.835651432222225], [-111.3611823786012, 25.835200853767006], [-111.36038372443524, 25.83592470163142], [-111.36013381164119, 25.83660669617585], [-111.36014057179688, 25.838839842288312], [-111.36064660035325, 25.83951996141325], [-111.36090478503812, 25.84156344335069], [-111.36141013960774, 25.84201643636828], [-111.36167536623904, 25.846369230971007], [-111.35895848030614, 25.849742350475793], [-111.35639898504701, 25.849748654348836], [-111.3549279351038, 25.84842999892647], [-111.3536584690299, 25.845253349885045], [-111.35235075802056, 25.8443075393848], [-111.35188621878602, 25.84430866556054], [-111.35083612214422, 25.845260194741183], [-111.35059216179245, 25.847986280996157], [-111.35009016563532, 25.848668866113364], [-111.34887829056684, 25.849766916327866], [-111.34736758803835, 25.850224787101965], [-111.34621280375553, 25.851271052478157], [-111.34657194833099, 25.852046089122013], [-111.34762768814153, 25.85299255376781], [-111.34838505456723, 25.853444987888683], [-111.34964578602897, 25.853669082252658], [-111.35061147205238, 25.854534762308358], [-111.35061615417705, 25.856122218865938], [-111.34990569514301, 25.85635105716626], [-111.347638189534, 25.856583628305568], [-111.34713547730811, 25.857039080049258], [-111.34511931410414, 25.857043886321257], [-111.34472259726957, 25.85740329267555], [-111.34432380124436, 25.857045775018435], [-111.34386468812497, 25.857046863055754], [-111.34335551572559, 25.855271561034776], [-111.34133351251599, 25.85323220633391], [-111.341330794851, 25.852285627831165], [-111.34158215275167, 25.852057912064193], [-111.34132764396807, 25.851188097572923], [-111.33981040226053, 25.84937465733817], [-111.33637848684354, 25.84629741733101], [-111.34176324207401, 25.843012980938617], [-111.34553518545647, 25.840278556992107], [-111.35056952701643, 25.838449494661493], [-111.35132546962592, 25.83844766842963], [-111.353338617922, 25.83753428584516], [-111.35409455449042, 25.837532445264408], [-111.35459715824763, 25.83707696934335], [-111.35812142924523, 25.835932699501377], [-111.36092899793357, 25.832932637093887], [-111.36117889870889, 25.83225064096809], [-111.3639401214016, 25.82883687488142], [-111.36393664885289, 25.827701257930098], [-111.36443917346072, 25.827245748190116], [-111.36443500100852, 25.825883007604556], [-111.36479012526306, 25.825333346651078], [-111.36453747698134, 25.825106855418998], [-111.36493542715375, 25.824746125737253], [-111.36493264200739, 25.8238376317798], [-111.36543514664159, 25.82338211857074], [-111.3654302663453, 25.82179225386083], [-111.36593206242601, 25.82110961535708], [-111.36592939456845, 25.8202416104789], [-111.3668922483411, 25.82023918310617], [-111.36739473038108, 25.819783663142097], [-111.3681505530421, 25.81978175064079], [-111.36865302830283, 25.81932622637115], [-111.36940884795284, 25.819324307358052], [-111.36991131643428, 25.818868778783266], [-111.37091907193538, 25.81886621054374], [-111.37131558172034, 25.818506732958912], [-111.3727235044411, 25.819315845087914], [-111.37373126340353, 25.819313257309044], [-111.37423657059927, 25.81976620759749], [-111.37524433319902, 25.81976360928582], [-111.37574964801443, 25.820216554200805], [-111.37675741425073, 25.820213945355945], [-111.37751467916682, 25.820666230707396], [-111.37852244900402, 25.82066360958207], [-111.37923540381466, 25.82130263665437], [-111.38050310777668, 25.823797698714422], [-111.38100845968361, 25.82425062467839], [-111.38100991361006, 25.8247048708122], [-111.38257104432999, 25.82610400864826], [-111.38332836869563, 25.826556262670366], [-111.386353299789, 25.827002501409698], [-111.3886260912718, 25.82858631410165], [-111.39014007817008, 25.829263631124736], [-111.39060043963751, 25.82967615403784], [-111.39060789443771, 25.83194738015451], [-111.39141108477445, 25.83266708193013], [-111.3941849835292, 25.833340956152796], [-111.39590900164204, 25.834885649873776], [-111.3961624861293, 25.835339207661942], [-111.39616790685665, 25.836967149350887], [-111.39566773080881, 25.838104134081235], [-111.3959294099605, 25.84101795043988], [-111.3964364078429, 25.841925064380426], [-111.39871114198644, 25.843962955176927], [-111.39871875641481, 25.846234174602138], [-111.40099744226741, 25.849407635825518], [-111.40125327716441, 25.850542548372886], [-111.40175882211209, 25.85099539825169], [-111.40277607920846, 25.853718065214544], [-111.40408583364633, 25.855117657673244], [-111.40559792135068, 25.855113441794632], [-111.40635551784797, 25.855565570767865], [-111.40736357986916, 25.85556274612936], [-111.40832891626428, 25.85620091581771], [-111.40834062013032, 25.859607734901033], [-111.40859342497194, 25.859834147057374], [-111.40860045272163, 25.861878237609247], [-111.40885326294521, 25.862104649178356], [-111.40862477313391, 25.862805705356816]], [[-111.38392113153255, 25.86630144007261], [-111.38522318069217, 25.86534900661355], [-111.385221831503, 25.864932848785525], [-111.38441845744961, 25.864213118031007], [-111.38319773842463, 25.864216345509014], [-111.38265033210065, 25.86471252632511], [-111.38217098370384, 25.865830364565458], [-111.38295316202942, 25.86653112061013], [-111.38392113153255, 25.86630144007261]]]}}]}
