{"type": "FeatureCollection", "features": [{"type": "Feature", "properties": {"uga": "48", "politica": "preservacion", "procedencia": {"metodo": "digitalizacion-semiautomatica", "fuente": "Mapa de ubicación de la ficha UGA 48, Boletín Oficial No. 12 (12-mar-2014), p. 315 del PDF", "datum": "UTM 12N con desplazamiento de +30 m E y +170 m N ajustado contra la costa (INC-011)", "correccion_borde_px": 1.4, "precision_aprox_m": 23.0, "escala_por_superficie": false, "revisada_en_qgis": false}, "control": {"residuo_georreferencia_m": 16.9, "area_digitalizada_ha": 185.62, "escala_por_superficie": false, "superficie_ficha_ha": 182.95, "diferencia_area_pct": 1.5}}, "geometry": {"type": "Polygon", "coordinates": [[[-111.34713593294641, 25.91148998321401], [-111.34850455099796, 25.91107981861686], [-111.34942383402995, 25.91107760592924], [-111.34953843849522, 25.910973551266366], [-111.35059116880427, 25.91107478778789], [-111.35070638608804, 25.9111782875196], [-111.3519704009806, 25.911175224364154], [-111.3528906109407, 25.91148432256932], [-111.35323534310392, 25.911483483053424], [-111.35369591462194, 25.911793695259625], [-111.35427077972649, 25.911896070006684], [-111.355076711262, 25.912412990119876], [-111.35565126922249, 25.912411581761102], [-111.35691623373611, 25.912719808043917], [-111.35841322493266, 25.913753897937443], [-111.35862244358651, 25.913753380529318], [-111.35862301508746, 25.913942325399432], [-111.35943086700041, 25.915081885839108], [-111.35943149624408, 25.915289440831486], [-111.35972893510313, 25.915556583811753], [-111.35961433530554, 25.915660646417827], [-111.3598447946594, 25.915867631054454], [-111.35973019466753, 25.91597169374977], [-111.36001079496131, 25.916844677222393], [-111.35978731387155, 25.918937666966293], [-111.35887268383595, 25.92049660757116], [-111.3575176464881, 25.921622906211734], [-111.35682843593007, 25.921728382837614], [-111.35625476868807, 25.922041128641695], [-111.35568016409282, 25.922042539878223], [-111.35522110245064, 25.922251222115907], [-111.35324921012038, 25.922256041568637], [-111.35232922377902, 25.92205072445289], [-111.35094802097996, 25.92132762775341], [-111.35037188565036, 25.92081013034593], [-111.34993074547674, 25.920914974314925], [-111.34968096459144, 25.921141743975465], [-111.34922373025962, 25.921973072420457], [-111.34871972696565, 25.922534688479782], [-111.34738640370462, 25.92164754266601], [-111.34669627269628, 25.92144163856752], [-111.345680523974, 25.921547842966397], [-111.34543073354682, 25.921774605378957], [-111.34543254830851, 25.92239727070328], [-111.34520476720026, 25.923105650962597], [-111.34419345280351, 25.923108056206093], [-111.34419290407418, 25.92291911128178], [-111.34361648920805, 25.92229780934386], [-111.34349941362456, 25.921554768635396], [-111.3438221157569, 25.92105372231899], [-111.34474087290633, 25.920843983385808], [-111.34499066272886, 25.92061722213962], [-111.34499010772464, 25.920426537055153], [-111.34473900271593, 25.920200967580897], [-111.34315044050737, 25.920100958826552], [-111.34303137062585, 25.91866695437746], [-111.34278027307158, 25.91844138137996], [-111.34257104578892, 25.918441876008103], [-111.34257049975908, 25.91825293092993], [-111.3423883091789, 25.918089258763807], [-111.34256955130256, 25.917924727914226], [-111.34256810057877, 25.91742270976075], [-111.34157701091625, 25.915704270208582], [-111.34175825057275, 25.915539740344663], [-111.3417559059978, 25.914726388891467], [-111.34134329675597, 25.91435570148278], [-111.34243964634673, 25.912736115284194], [-111.34299215258845, 25.91223452736971], [-111.343910241132, 25.91181723868527], [-111.34420585763031, 25.911548858557047], [-111.34432106986965, 25.911652363408685], [-111.34448389241831, 25.91150454146828], [-111.3455177875744, 25.911398302722375], [-111.34563239581229, 25.911294251113688], [-111.34634009073098, 25.911292562239257], [-111.34713593294641, 25.91148998321401]], [[-111.35127992518761, 25.916988486541435], [-111.35175891018193, 25.9165536014598], [-111.35175834439138, 25.91636291640599], [-111.35139201250652, 25.9160338596067], [-111.35095058378458, 25.916034928978007], [-111.35058620655101, 25.916365755970595], [-111.35058738425725, 25.916763996197897], [-111.3508384929058, 25.91698955560794], [-111.35127992518761, 25.916988486541435]]]}}]}
