{"type": "FeatureCollection", "features": [{"type": "Feature", "properties": {"uga": "49a", "politica": "preservacion", "procedencia": {"metodo": "digitalizacion-semiautomatica", "fuente": "Mapa de ubicación de la ficha UGA 49a, Boletín Oficial No. 12 (12-mar-2014), p. 319 del PDF", "datum": "UTM 12N con desplazamiento de +30 m E y +170 m N ajustado contra la costa (INC-011)", "correccion_borde_px": 1.4, "precision_aprox_m": 69.0, "escala_por_superficie": false, "revisada_en_qgis": false}, "control": {"residuo_georreferencia_m": 54.0, "area_digitalizada_ha": 9952.26, "escala_por_superficie": false, "superficie_ficha_ha": 10012.47, "diferencia_area_pct": -0.6}, "georreferencia": {"a_x": 34.48221198643274, "b_x": 442218.5141681458, "a_y": -34.44683570356501, "b_y": 2873345.2782581937, "factor_render": 1, "pagina_mapa": 319, "ficha_mapa": "49a"}}, "geometry": {"type": "Polygon", "coordinates": [[[-111.54804355417, 25.798818169832117], [-111.54836099311841, 25.799102854166627], [-111.54838842309707, 25.80506303300532], [-111.54770333703974, 25.80568771442992], [-111.54771334738658, 25.807865023468], [-111.5415598697622, 25.816286411458673], [-111.54018949075407, 25.81753570808468], [-111.54019231298808, 25.818157796212244], [-111.53950710920016, 25.818782439788983], [-111.53950992802542, 25.81940452787995], [-111.53814370978458, 25.82158693764552], [-111.53814792789824, 25.822520069611578], [-111.5367788445592, 25.824080378689438], [-111.53678139804836, 25.824646641019395], [-111.53265870251572, 25.824350761389198], [-111.53231328201319, 25.824040977768714], [-111.52887299405575, 25.8240535385416], [-111.52789876236824, 25.82317975896308], [-111.52789440125704, 25.822196288625054], [-111.52926219872444, 25.820325016845885], [-111.52925390280397, 25.818458749521668], [-111.52993915948353, 25.817834153436554], [-111.52993384633372, 25.816640311903146], [-111.52924306656708, 25.8160207292691], [-111.52923339027514, 25.813843416047877], [-111.52715975607262, 25.811673601190197], [-111.52715700271945, 25.811051511183827], [-111.525713560002, 25.80975671112877], [-111.52330017907288, 25.808521217236468], [-111.52054558512184, 25.80790900523691], [-111.51647381755653, 25.808234577028003], [-111.5126980260194, 25.81011424421426], [-111.51058192272794, 25.812354871762988], [-111.50955791920073, 25.814224767429195], [-111.50922721856728, 25.817336429865698], [-111.50792502018456, 25.81852297732344], [-111.50791997822697, 25.81734100377922], [-111.50371408161901, 25.813567206844564], [-111.49647581468511, 25.81017054811289], [-111.49475069386813, 25.808932224949952], [-111.49308414964591, 25.808626835539197], [-111.48380788310509, 25.81145746242197], [-111.47555448290761, 25.8121067982735], [-111.46799387281806, 25.81399764438207], [-111.46661786045689, 25.814002067825992], [-111.46524427807013, 25.814628573847088], [-111.46421226295745, 25.814631873205837], [-111.4636708273079, 25.815124900621683], [-111.46332561060314, 25.81481494966061], [-111.45974499872632, 25.81589027777602], [-111.45699292673508, 25.81589895606779], [-111.45665011044295, 25.81621108529417], [-111.45286718223339, 25.816533972335435], [-111.45109384393864, 25.818772677020494], [-111.45109620083021, 25.819394773447716], [-111.44941558634382, 25.822485329062747], [-111.45014001965919, 25.823135848497774], [-111.45151614076269, 25.823131579625777], [-111.45252434176886, 25.82403687693037], [-111.45283994226524, 25.823749564036085], [-111.4718163560243, 25.823689194550997], [-111.47213417956378, 25.823974491697708], [-111.47244973185212, 25.823687136865914], [-111.47761019192359, 25.823670268909854], [-111.47863978209774, 25.823044779706965], [-111.48311215290936, 25.82302998124789], [-111.48379768147781, 25.822405599140577], [-111.48861405112916, 25.82238948607389], [-111.48895679984092, 25.822077282648166], [-111.49107691951713, 25.822381184918843], [-111.49590364891144, 25.82485319864289], [-111.49797044901902, 25.825468231701322], [-111.49866112449217, 25.826087963804373], [-111.50072795969865, 25.82670295701302], [-111.5014186565745, 25.827322675586544], [-111.50348552687736, 25.827937628939715], [-111.50604171700125, 25.83023096588238], [-111.50535626266843, 25.830855451208564], [-111.5060470077396, 25.831475146710748], [-111.50550517995696, 25.831968776387306], [-111.50605229882589, 25.832719327325034], [-111.50399718968463, 25.834903819051256], [-111.50434916106646, 25.835219583387982], [-111.50585721731227, 25.833845721749075], [-111.5057201417348, 25.835519931022027], [-111.51041705332091, 25.839733329617413], [-111.51145195370228, 25.84035178806477], [-111.512484184561, 25.84034814997369], [-111.5131750221628, 25.840967809388058], [-111.5162717293399, 25.840956836136765], [-111.51696258993331, 25.841576477131575], [-111.5238441900633, 25.841551822512802], [-111.52416218477403, 25.841837002579346], [-111.5255071466858, 25.840923718190854], [-111.52688345799696, 25.84091873250419], [-111.5275688544271, 25.840294147309564], [-111.52963053985036, 25.839664547450557], [-111.53237199530113, 25.8371661366989], [-111.53408953540435, 25.836537734978045], [-111.53683363154838, 25.83466132867751], [-111.5382645582163, 25.834656034206272], [-111.5388934899105, 25.835219973504124], [-111.53890780725523, 25.83838074339667], [-111.53822248222527, 25.839005381145906], [-111.53823514884775, 25.84180476993501], [-111.53755401820862, 25.843362533967063], [-111.53756667154983, 25.846161921384827], [-111.53688410390785, 25.84740863892494], [-111.53689646284728, 25.850145816521653], [-111.53606724776405, 25.849402364451656], [-111.53551892625572, 25.84990206442086], [-111.53621251678952, 25.851093359806207], [-111.53621835519195, 25.85238786769538], [-111.5336799187409, 25.855638054171813], [-111.5340254360905, 25.85594783170017], [-111.53348361681091, 25.856441564023683], [-111.53348780488162, 25.857374692225175], [-111.53280373764099, 25.858310347662723], [-111.5328285888948, 25.8638532889211], [-111.53185792360304, 25.86385684848256], [-111.53131001137793, 25.864356083870216], [-111.53220791467989, 25.865161071171904], [-111.53351666521043, 25.865156266954425], [-111.53249445264024, 25.866087674074684], [-111.5321572680797, 25.86764414802196], [-111.53147174120241, 25.86826875462078], [-111.53147730720752, 25.869512923910026], [-111.53079176609747, 25.87013752736186], [-111.53079593557227, 25.871070654211746], [-111.5301117700984, 25.872006296772454], [-111.52943452616753, 25.874497147248587], [-111.52464080960948, 25.88011340724151], [-111.52258387453257, 25.881987112956427], [-111.52121664502896, 25.884169360789997], [-111.51984527950779, 25.88541846932912], [-111.51025962569244, 25.897583336760505], [-111.495175246003, 25.91256587789211], [-111.48695451137019, 25.922858264253218], [-111.48427747760529, 25.924982350169476], [-111.48426375101269, 25.921623093650535], [-111.48357258489936, 25.92100330808183], [-111.48357004690216, 25.9203812232528], [-111.48079790037603, 25.916035789791128], [-111.48079159333408, 25.914480575915498], [-111.48024530253653, 25.913990647531353], [-111.48078760524012, 25.913497110799636], [-111.48078129904334, 25.911941896376995], [-111.48146734516797, 25.911317525436008], [-111.48146249789778, 25.910123690323537], [-111.48077141427912, 25.90950388926161], [-111.4807663703437, 25.908259717062016], [-111.4793804679006, 25.90608697448658], [-111.47937669643423, 25.90515384472657], [-111.46830981966211, 25.89243704099955], [-111.46830613752171, 25.891503907985438], [-111.46622244613538, 25.88684489291656], [-111.46621755975046, 25.885600714207186], [-111.46552669953722, 25.884980835326356], [-111.46515933714792, 25.879072086207728], [-111.46268073254106, 25.877157889788762], [-111.46170530341996, 25.87778309476226], [-111.46032855161128, 25.87778746867962], [-111.4503777668393, 25.88590597342745], [-111.44481565759918, 25.885923133561807], [-111.44343648444024, 25.885305257090973], [-111.4420596419328, 25.885309458817648], [-111.42998522204319, 25.8778805525269], [-111.42929684263775, 25.877882590655414], [-111.42343230670107, 25.874167219806843], [-111.42274394822977, 25.874169226583167], [-111.41949783981624, 25.871254324996254], [-111.41984091142083, 25.870942282537275], [-111.41934984896078, 25.870191244884143], [-111.41913830499183, 25.866900655820515], [-111.41879305024463, 25.866590601665063], [-111.42070541476438, 25.864227022617772], [-111.42084697786869, 25.863474154375716], [-111.41932130688032, 25.862104009532], [-111.41896948639776, 25.859927668913883], [-111.4180762824752, 25.8585053452465], [-111.41859084042738, 25.858037286089374], [-111.41758091267103, 25.856510107690685], [-111.4130312358335, 25.85242362681469], [-111.410278301626, 25.852431430915143], [-111.40889969451943, 25.85181321634406], [-111.40649088827, 25.85181997910442], [-111.40442196438066, 25.850581549002328], [-111.40275597988577, 25.84846464343334], [-111.40102391281529, 25.84504786504232], [-111.40067667315365, 25.844115667207404], [-111.40101535283895, 25.842509133892374], [-111.40170142887992, 25.84188513388087], [-111.40204025890576, 25.840328935596418], [-111.40306828955615, 25.839081877851097], [-111.40306618175282, 25.838459779205188], [-111.40614269714793, 25.83254121652515], [-111.42089324034797, 25.820057141173045], [-111.42329144697656, 25.817250703001083], [-111.42706333529063, 25.81381809064091], [-111.42706130470172, 25.813251818305947], [-111.42803157211542, 25.813248964653102], [-111.42871733825473, 25.812624838409338], [-111.43043734271568, 25.812619755762878], [-111.43112309249969, 25.811995618322428], [-111.4328430873284, 25.81199050732791], [-111.43524766929983, 25.81105017013245], [-111.44969548852441, 25.81100619693221], [-111.45003830855215, 25.81069408384094], [-111.45347825134226, 25.810683394423375], [-111.45401970992545, 25.810190404372996], [-111.45456491382092, 25.810680000766897], [-111.45519822200633, 25.810678019193556], [-111.4558838291405, 25.81005376664442], [-111.46138770259061, 25.81003640360953], [-111.4631052433638, 25.809408838749512], [-111.46860785772618, 25.809080154873307], [-111.4699825856015, 25.808764665558336], [-111.47650093283997, 25.80438872414855], [-111.4775328573851, 25.804385338795026], [-111.47821831003768, 25.803760982511555], [-111.48749284707691, 25.800619668601808], [-111.51604173905136, 25.800521161095894], [-111.52873794558461, 25.793632440360877], [-111.54212475462562, 25.78767320207143], [-111.54657864380007, 25.78392393004666], [-111.54760332214973, 25.783920076794214], [-111.54764878399564, 25.793817688424948], [-111.54799415449781, 25.794127437655643], [-111.54800559517653, 25.79661579462313], [-111.54855161220766, 25.797105479954727], [-111.54786657194718, 25.797730162073066], [-111.54855733893643, 25.79834965791966], [-111.54804355417, 25.798818169832117]], [[-111.45791728981241, 25.839728066749178], [-111.45826671298896, 25.839409977904594], [-111.45791484941911, 25.839094100551875], [-111.4575719697658, 25.839406231829948], [-111.45564674345641, 25.837987832522025], [-111.45481578548087, 25.83848173466646], [-111.45427045134153, 25.83799214280424], [-111.45343948749314, 25.838486037152595], [-111.45260477834364, 25.837997341932038], [-111.45136967628454, 25.838809470258074], [-111.4519215914119, 25.839304988692028], [-111.452555052141, 25.839303016606042], [-111.45343953274507, 25.838497909262113], [-111.45430268877669, 25.83927283980437], [-111.45481702007157, 25.838804653989307], [-111.45565174382016, 25.839293336245895], [-111.45619332148148, 25.838800338403065], [-111.45722913394583, 25.83973023441082], [-111.45757201543198, 25.83941810393112], [-111.45791728981241, 25.839728066749178]], [[-111.46188978639714, 25.842042433598976], [-111.46119261588811, 25.841416611453297], [-111.46013412845682, 25.841706297261577], [-111.45964364282649, 25.84126599587099], [-111.45915657202438, 25.8417093906361], [-111.45841371056622, 25.841711736943786], [-111.4579232311857, 25.841271429658107], [-111.45740235809235, 25.841745583018934], [-111.45809951091637, 25.842371423572967], [-111.45875803066853, 25.841771965588848], [-111.45950089246692, 25.841769617515208], [-111.45999137968451, 25.842209919336398], [-111.4608784325032, 25.842076303900658], [-111.46136892602667, 25.84251660096504], [-111.46188978639714, 25.842042433598976]], [[-111.48870147458463, 25.835422651402556], [-111.48797675782878, 25.834772329313], [-111.4873433244484, 25.83477445551383], [-111.48645910406636, 25.835579766097922], [-111.48556832272143, 25.834780398823344], [-111.48459788759097, 25.834783639000946], [-111.48459558129538, 25.834217372843685], [-111.4838429519055, 25.833541953872764], [-111.48073888250528, 25.8316859551474], [-111.47557310499475, 25.83045875259961], [-111.47356349213678, 25.830465316246624], [-111.47322067864393, 25.830777483918155], [-111.47150042198535, 25.83078307640112], [-111.46806602440337, 25.832349434955578], [-111.46492013989652, 25.835525870959643], [-111.46390007206146, 25.838639639350337], [-111.4625971852803, 25.839825786840198], [-111.46259258891165, 25.838643808806573], [-111.4620401366802, 25.8381478857888], [-111.46100498996687, 25.8390902628968], [-111.46293688660495, 25.840514504982615], [-111.46424537967073, 25.840510328985097], [-111.46322282424683, 25.84144125636864], [-111.46308276516729, 25.842505211015258], [-111.46915976964026, 25.847959747089387], [-111.47019453295172, 25.84857850086525], [-111.47122684161728, 25.848575154958134], [-111.47191751623791, 25.8491950123235], [-111.47467035252639, 25.849186040742037], [-111.4753610484221, 25.849805881377524], [-111.47805919966102, 25.849797024395126], [-111.47874490698177, 25.84917266586116], [-111.48080953187716, 25.849165845011353], [-111.48321320393809, 25.847913668160206], [-111.48635891506565, 25.844736843645805], [-111.48669664172023, 25.84318046321965], [-111.48738226543452, 25.842556064529322], [-111.48736462972431, 25.83825176208621], [-111.48667266797615, 25.837320931647646], [-111.4866676009219, 25.836082236973912], [-111.4879821122154, 25.83607782752166], [-111.48870147458463, 25.835422651402556]], [[-111.49730306616937, 25.835393462234375], [-111.49657830334141, 25.83474318373404], [-111.49594487093626, 25.83474534743448], [-111.4950607099172, 25.835550709526057], [-111.4941698719353, 25.83475139582517], [-111.49353643925535, 25.834753549025738], [-111.49230423000604, 25.836188112597775], [-111.49265617472165, 25.836503905608428], [-111.49314309773743, 25.8360604002721], [-111.49451935973825, 25.836055722043376], [-111.49540352817262, 25.835250363193865], [-111.49643961089215, 25.836179976158895], [-111.49730306616937, 25.835393462234375]], [[-111.49675530808575, 25.877106561205824], [-111.49818706004102, 25.875490586038545], [-111.49743299726266, 25.874554539293637], [-111.49315759763685, 25.874438328236266], [-111.4926089791104, 25.874937868854], [-111.49261393085987, 25.87613170777497], [-111.49371235983853, 25.87711694596336], [-111.49675530808575, 25.877106561205824]], [[-111.50020994818294, 25.8327454950767], [-111.50055923632671, 25.832427306110933], [-111.49899852984855, 25.831027013627608], [-111.4971107985646, 25.83212215961279], [-111.49624742079338, 25.831347485870122], [-111.49518911231476, 25.831637425007877], [-111.49469854115786, 25.83119724262006], [-111.49417786032544, 25.831671525791435], [-111.49504781790417, 25.832452125612743], [-111.49731097320148, 25.832313593486756], [-111.49762888027139, 25.832598833319807], [-111.4981430100122, 25.83213049651641], [-111.49868849454548, 25.83261992190011], [-111.50020994818294, 25.8327454950767]]]}}]}
