{"type": "FeatureCollection", "features": [{"type": "Feature", "properties": {"uga": "49b", "politica": "conservacion", "procedencia": {"metodo": "digitalizacion-semiautomatica", "fuente": "Mapa de ubicación de la ficha UGA 49b, Boletín Oficial No. 12 (12-mar-2014), p. 322 del PDF", "datum": "UTM 12N con desplazamiento de +30 m E y +170 m N ajustado contra la costa (INC-011)", "correccion_borde_px": 1.4, "precision_aprox_m": 28.0, "escala_por_superficie": false, "revisada_en_qgis": false}, "control": {"residuo_georreferencia_m": 26.8, "area_digitalizada_ha": 566.01, "escala_por_superficie": false, "superficie_ficha_ha": 568.19, "diferencia_area_pct": -0.4}, "georreferencia": {"a_x": 14.0449438133206, "b_x": 455369.43786421296, "a_y": -14.052542575091143, "b_y": 2866530.4598439867, "factor_render": 1, "pagina_mapa": 322, "ficha_mapa": "49b"}}, "geometry": {"type": "Polygon", "coordinates": [[[-111.41041939181648, 25.891193065964682], [-111.41040982666448, 25.888426838561557], [-111.41018769997605, 25.88822705748669], [-111.41040844083042, 25.888026023859208], [-111.41040763301928, 25.887792382585957], [-111.41012590996525, 25.887412501958966], [-111.41011232056937, 25.883478873322765], [-111.40983104690706, 25.883225883052937], [-111.40981484230436, 25.87853090380866], [-111.40953183075737, 25.877770347099208], [-111.40952307952892, 25.875232518855775], [-111.40930097932285, 25.875032735745286], [-111.4095216974989, 25.874831703379932], [-111.40951957936602, 25.874217387309116], [-111.40923701758042, 25.873583720895052], [-111.4092243401732, 25.869903867392743], [-111.40894266415037, 25.869523982976943], [-111.40892912471843, 25.8655903440602], [-111.40878851044182, 25.865463847268206], [-111.40878545460842, 25.864575605895425], [-111.40864484169948, 25.86444910893032], [-111.40863436930731, 25.861403709003554], [-111.40841229676923, 25.86120392382412], [-111.40855203309663, 25.861076637729873], [-111.40835053570815, 25.86038936419889], [-111.40833702136463, 25.856455720040906], [-111.40760781539787, 25.8555466617219], [-111.40368101470463, 25.85492316656986], [-111.40258071970146, 25.85368014641437], [-111.40243840818668, 25.853046075299847], [-111.40215679440345, 25.852666176102023], [-111.40215507749974, 25.852158608304315], [-111.40187389567102, 25.85190560043883], [-111.4018726089382, 25.851524924540755], [-111.4013093941123, 25.850765123076258], [-111.40130853753591, 25.850511339088964], [-111.4010273614314, 25.8502583294596], [-111.40074362052168, 25.849243967142055], [-111.39961638158928, 25.847470568059055], [-111.39891304500554, 25.846711142050488], [-111.39863060699015, 25.846077451150258], [-111.39876856690945, 25.84542246454284], [-111.4003601724581, 25.84359082255618], [-111.40069756308219, 25.84389443611528], [-111.40084070902863, 25.844782294183418], [-111.40366100390865, 25.84985021190277], [-111.40452987298484, 25.85063200922178], [-111.4064955854872, 25.851641665122436], [-111.40733655328704, 25.85163930861664], [-111.40789806911165, 25.85189151864822], [-111.40915952320215, 25.85188796984874], [-111.4094407202867, 25.852140963421842], [-111.41070217678003, 25.85213740119003], [-111.41112353981224, 25.852389994965378], [-111.41238499868086, 25.852386418083423], [-111.41280636610648, 25.852639006912824], [-111.41392766500066, 25.852635814980694], [-111.41502762456066, 25.85375185629334], [-111.41530972502827, 25.854258621653543], [-111.41657476033213, 25.85527014159851], [-111.41798266090944, 25.857042596426894], [-111.41912055669376, 25.86173435163091], [-111.41984944021429, 25.86251645832085], [-111.42010453976778, 25.862515720332187], [-111.42010535614082, 25.862746647506416], [-111.4206678495423, 25.863252589728646], [-111.4203902647508, 25.864034891781632], [-111.41871709946783, 25.86657758247641], [-111.41871971163587, 25.867318789904022], [-111.41900275584499, 25.86807932937381], [-111.41900633608314, 25.86909446055886], [-111.4192889386631, 25.869728107836817], [-111.41929207373019, 25.870616347397142], [-111.41957423337874, 25.871123102579258], [-111.42213189598262, 25.873676394054637], [-111.42255290845746, 25.87380206141842], [-111.42297482556565, 25.874181510022844], [-111.42325520076523, 25.874180692590812], [-111.42690828711311, 25.87645405740052], [-111.427188667534, 25.8764532323022], [-111.43145974664738, 25.879029105435446], [-111.42970060414957, 25.880249873736055], [-111.42635233527035, 25.8848278759628], [-111.42635316460554, 25.885058802240184], [-111.42553812494441, 25.885314979763724], [-111.4252586326354, 25.885569583935883], [-111.42497823061669, 25.88557040557362], [-111.42469873649738, 25.885825008680737], [-111.42441833385496, 25.88582582924387], [-111.4241388379253, 25.886080431285905], [-111.42315833107996, 25.886337079168882], [-111.42287883122385, 25.88659167881422], [-111.42259842670437, 25.886592495882454], [-111.42119910536408, 25.887357919339138], [-111.42091869897384, 25.88735873318319], [-111.41951935759877, 25.888124140602798], [-111.41909874520307, 25.888125356329045], [-111.41881923236853, 25.888379948250204], [-111.41797889931964, 25.888636156578553], [-111.41769938286424, 25.88889074636848], [-111.41629911224071, 25.88940234089855], [-111.41545965464962, 25.889912316917307], [-111.41475950988603, 25.890168105144827], [-111.41405847671436, 25.890170107823955], [-111.41377894817346, 25.890424690152923], [-111.41265729249926, 25.890427885261072], [-111.4120973457543, 25.890683261813724], [-111.41111589470336, 25.89068604665635], [-111.41041939181648, 25.891193065964682]], [[-111.41467331392721, 25.871921399771505], [-111.41539719094551, 25.87126201036475], [-111.41539593020077, 25.870901477283944], [-111.41508934578144, 25.87062571302372], [-111.41356978981102, 25.87063005086434], [-111.41312539244548, 25.871034850613313], [-111.41312620500119, 25.87126849234616], [-111.41385466684875, 25.871923736457124], [-111.41467331392721, 25.871921399771505]]]}}]}
