{"type": "FeatureCollection", "features": [{"type": "Feature", "properties": {"uga": "50", "politica": "aprovechamiento-sustentable", "procedencia": {"metodo": "digitalizacion-semiautomatica", "fuente": "Mapa de ubicación de la ficha UGA 50, Boletín Oficial No. 12 (12-mar-2014), p. 325 del PDF", "datum": "UTM 12N con desplazamiento de +30 m E y +165 m N ajustado contra la costa (INC-011)", "correccion_borde_px": 1.4, "precision_aprox_m": 19.0, "escala_por_superficie": true, "revisada_en_qgis": false}, "control": {"residuo_georreferencia_m": 0.0, "area_digitalizada_ha": 125.18, "escala_por_superficie": true, "superficie_ficha_ha": 125.2, "diferencia_area_pct": -0.0}}, "geometry": {"type": "Polygon", "coordinates": [[[-111.34529039069683, 25.91135893638477], [-111.34515813242615, 25.911479179005006], [-111.34431772215304, 25.911481177371098], [-111.34411469976793, 25.91166575211605], [-111.34411514583397, 25.911819458793065], [-111.34366692569716, 25.911820521983014], [-111.34366648021212, 25.91166681529877], [-111.34351668224768, 25.911532050124208], [-111.34338442196744, 25.91165229114361], [-111.34318274204277, 25.91165276868646], [-111.3429954953424, 25.911484311560873], [-111.34282365922677, 25.91148471799362], [-111.34262807588205, 25.91166252560441], [-111.34314439810552, 25.911958577401926], [-111.34355419047866, 25.91158602638299], [-111.34355560470277, 25.912074136164954], [-111.34327358948153, 25.91207480419032], [-111.34332976383583, 25.912125341238482], [-111.34206474515184, 25.913190705400453], [-111.34206523242034, 25.913359604463228], [-111.34150689577253, 25.914036521636152], [-111.34141444378203, 25.914359347307094], [-111.34094941472925, 25.914360441754358], [-111.34048153852565, 25.914023740979935], [-111.34031157573664, 25.914024140063393], [-111.34030798355984, 25.912772589269707], [-111.34012073911023, 25.91260412843388], [-111.34011924696728, 25.91208393620906], [-111.34038190276246, 25.911845161874727], [-111.34066204050546, 25.911844503890315], [-111.34085762712769, 25.91166669890371], [-111.34066102151262, 25.911489815727826], [-111.33993078852717, 25.911491529735613], [-111.33993034789154, 25.911337822984343], [-111.3387900640763, 25.910311897768253], [-111.33813545443905, 25.90997562528998], [-111.33702840242992, 25.90881109293899], [-111.33682432737764, 25.908627474288956], [-111.33665437225864, 25.908627869008487], [-111.33646646387751, 25.908221246731785], [-111.33646502633846, 25.907714548878005], [-111.33637141078364, 25.90763031588446], [-111.3364563486527, 25.907285570510112], [-111.33637021320158, 25.907208067636887], [-111.33636279360243, 25.90459182547607], [-111.33662611651793, 25.90459121442277], [-111.33690575750282, 25.904421664506895], [-111.3372950452674, 25.9040677660634], [-111.33766685507511, 25.90347574906047], [-111.33766569151665, 25.903066995516625], [-111.33719738934255, 25.90256138369007], [-111.33700848615915, 25.901801770454533], [-111.33672717348674, 25.90138017257396], [-111.33672597497045, 25.900957923977877], [-111.33653875440828, 25.900789458006443], [-111.33653775787334, 25.90043816420177], [-111.3367240190977, 25.90026883127714], [-111.33690932050833, 25.899761699186424], [-111.33746761740761, 25.89908479879508], [-111.33746617617557, 25.898578100355135], [-111.33772880779438, 25.898339330627113], [-111.33810204170584, 25.898254010709767], [-111.33858419215687, 25.897730991565382], [-111.3385835077042, 25.897491137230173], [-111.33839604921374, 25.89723822379824], [-111.33749929419099, 25.896431287774103], [-111.33790929193565, 25.89614320203878], [-111.3383758856645, 25.896057663908472], [-111.33988263784394, 25.894687743119643], [-111.33988118658134, 25.894181044499284], [-111.34033004960021, 25.893772932844957], [-111.34090540186865, 25.89385603209092], [-111.3412793479302, 25.894024053402283], [-111.34191825424074, 25.894767409142183], [-111.34182565711716, 25.895034473346136], [-111.341829510649, 25.896372174259383], [-111.34201721843358, 25.89670953294932], [-111.34201867898062, 25.89721623128011], [-111.34220614510039, 25.897469139953433], [-111.34239580536779, 25.89848209571441], [-111.34254370370097, 25.89861516937636], [-111.34245057863784, 25.898699839570387], [-111.34249063675472, 25.8989885734367], [-111.34258424971162, 25.899072802604724], [-111.34258546897715, 25.899495051053506], [-111.34277415993026, 25.900170207267536], [-111.34296163239361, 25.90042311479822], [-111.34333902384394, 25.901773425672005], [-111.34348692737204, 25.90190649825968], [-111.3433938004349, 25.9019911690403], [-111.34362085005307, 25.902363909749994], [-111.3437161793638, 25.903039285590417], [-111.34386408490612, 25.903172357749998], [-111.34377095725853, 25.9032570287654], [-111.34409260814886, 25.904051795367796], [-111.34409407803733, 25.904558493075175], [-111.34424198591427, 25.904691564798025], [-111.34410229303312, 25.904818571650317], [-111.34428254083711, 25.905149197081567], [-111.34428499214467, 25.90599369309609], [-111.34447296770968, 25.906415497527025], [-111.34447468465902, 25.90700664463244], [-111.34466290796698, 25.907512898311488], [-111.34466413508986, 25.90793514617649], [-111.34513273606412, 25.908525182540462], [-111.34513396491491, 25.90894743032557], [-111.34578883454024, 25.909368120654392], [-111.3463681607777, 25.910141981431117], [-111.34681963444928, 25.909972001921325], [-111.34756290212971, 25.909970222040904], [-111.34691335369854, 25.910730131192853], [-111.3467278317286, 25.911152825529637], [-111.346728775042, 25.91147543119876], [-111.34626375755957, 25.911476542578505], [-111.34617013211967, 25.91139231605551], [-111.34542334740327, 25.91147854735339], [-111.34529039069683, 25.91135893638477]], [[-111.34528990876385, 25.91119343237468], [-111.34553205354112, 25.91097328517931], [-111.34528842344716, 25.91068334015266], [-111.34504627879794, 25.910903486948495], [-111.34528990876385, 25.91119343237468]], [[-111.34121121929165, 25.904740953221594], [-111.3410707945684, 25.904614608267796], [-111.34121772741256, 25.904409884546226], [-111.34092003763637, 25.904142041577824], [-111.3403747193883, 25.904143322616967], [-111.34017170321978, 25.904327891962698], [-111.34017287547917, 25.904736645329248], [-111.3404705650957, 25.905004489811574], [-111.34092251344084, 25.905003427934904], [-111.34121121929165, 25.904740953221594]]]}}]}
