{"type": "FeatureCollection", "features": [{"type": "Feature", "properties": {"uga": "51", "politica": "conservacion", "procedencia": {"metodo": "digitalizacion-semiautomatica", "fuente": "Mapa de ubicación de la ficha UGA 51, Boletín Oficial No. 12 (12-mar-2014), p. 328 del PDF", "datum": "UTM 12N con desplazamiento de +30 m E y +170 m N ajustado contra la costa (INC-011)", "correccion_borde_px": 1.4, "precision_aprox_m": 36.0, "escala_por_superficie": false, "revisada_en_qgis": false}, "control": {"residuo_georreferencia_m": 14.9, "area_digitalizada_ha": 1418.13, "escala_por_superficie": false, "superficie_ficha_ha": 1422.41, "diferencia_area_pct": -0.3}}, "geometry": {"type": "Polygon", "coordinates": [[[-111.37264198908555, 25.897942117341877], [-111.3701385383543, 25.89956529121244], [-111.36708406894466, 25.902506655384702], [-111.36582408480896, 25.902998772757726], [-111.36456509189182, 25.903816832312042], [-111.36276792450879, 25.90545111722609], [-111.36111718147993, 25.905455237657407], [-111.36050010783474, 25.90522532154018], [-111.36032038554951, 25.905388746039158], [-111.35877139296183, 25.904483193751595], [-111.35753866233577, 25.90448623849829], [-111.35678743274843, 25.90516931311916], [-111.35678832506669, 25.905465953689944], [-111.35646030307062, 25.905466760437143], [-111.35556165673067, 25.906283855968233], [-111.35376286848016, 25.90742910054881], [-111.3523215855898, 25.907595587699976], [-111.35160215049856, 25.908086267571047], [-111.35106148476547, 25.9080875776602], [-111.34746277570243, 25.910051980550705], [-111.34602460585049, 25.910055420060072], [-111.34602374027546, 25.909758779333778], [-111.34512024594883, 25.908946043450353], [-111.34493291241797, 25.906501820614515], [-111.34453902715103, 25.90614748827076], [-111.34421100283924, 25.906148267327218], [-111.34420912033502, 25.90549959724481], [-111.34456860964349, 25.905172787508082], [-111.34456584474056, 25.904221001839847], [-111.3437378197683, 25.903313550139565], [-111.34418717454707, 25.90290503923518], [-111.3439125303308, 25.902657963817813], [-111.34348114977293, 25.903050133508998], [-111.34347794084402, 25.901941890430095], [-111.34311657260955, 25.901616789771726], [-111.34311468710504, 25.900964881944976], [-111.34275285200127, 25.90047680331828], [-111.34275002690978, 25.899498941365085], [-111.34238819784036, 25.899010861669897], [-111.34238490563513, 25.89787002243743], [-111.34202308310667, 25.89738194165674], [-111.34201744587337, 25.895426216634064], [-111.34183583454038, 25.89493771010102], [-111.34089998789328, 25.894095708437536], [-111.34037334569597, 25.893946982113114], [-111.33981617044648, 25.89445352114138], [-111.33981757056972, 25.89494245262444], [-111.33859173781097, 25.896056854150782], [-111.33805205478826, 25.896384069495813], [-111.33748266001419, 25.896385395503817], [-111.33588823984088, 25.894625648630296], [-111.33588731722739, 25.894299694165287], [-111.33552599309188, 25.893974573812738], [-111.33552322836393, 25.892996710249516], [-111.33516190922526, 25.89267158888271], [-111.33515999452516, 25.891993604179426], [-111.33623656386867, 25.890361329012762], [-111.33623571434188, 25.890061449906288], [-111.33587440230602, 25.889736330113866], [-111.33586656262209, 25.886965714821862], [-111.33568591161958, 25.88680315446188], [-111.33568307272078, 25.885799214392716], [-111.33622048975862, 25.88468643343844], [-111.33654845502133, 25.884685673042917], [-111.33801902454, 25.883512091778908], [-111.3387338028787, 25.88142101680021], [-111.33906175903633, 25.88142025081306], [-111.34050040793133, 25.88043901055764], [-111.34086076819133, 25.880438164481195], [-111.3412525143068, 25.88008197354224], [-111.34124979779679, 25.879136704183423], [-111.34168335081151, 25.87952683253742], [-111.34197088581435, 25.87926538947072], [-111.34160263429301, 25.876521696197752], [-111.34142058601476, 25.875870210011822], [-111.34113517320255, 25.87561337533902], [-111.3413148776344, 25.875449974131573], [-111.3412343256415, 25.873751925200068], [-111.34094530516398, 25.873491838528103], [-111.34076560314773, 25.87365523929728], [-111.34015143880808, 25.873102552387216], [-111.33942796842163, 25.872126373696457], [-111.33942703701615, 25.87180041833978], [-111.33870450998022, 25.87115019114939], [-111.3383418568713, 25.870336142970764], [-111.33725762892934, 25.869197814488185], [-111.33725670359964, 25.868871858926752], [-111.33653282136702, 25.867732686925123], [-111.33541660888042, 25.866728083949887], [-111.33508869316388, 25.866728841299313], [-111.335087856555, 25.86643219846318], [-111.33469413473767, 25.86607783581874], [-111.33436622079142, 25.86607859151847], [-111.33436538601043, 25.865781948633824], [-111.33400415370339, 25.86545682231968], [-111.33400140499762, 25.86447895476064], [-111.33327758105108, 25.863339765265028], [-111.33326342223208, 25.858290683560874], [-111.3335913147268, 25.858289930562712], [-111.3338751976558, 25.858031794110378], [-111.33416052710793, 25.85828862162002], [-111.33470096707214, 25.858287376776243], [-111.33614490569784, 25.859261915537346], [-111.33683672545604, 25.859260312147835], [-111.33740809958513, 25.858740735061026], [-111.33740493507942, 25.85762596455795], [-111.3365014387312, 25.856650186542275], [-111.33613792439002, 25.855510174448174], [-111.33541551527796, 25.854859928268382], [-111.33541229643347, 25.853719081269602], [-111.33523169714664, 25.85355651909509], [-111.33540946401318, 25.85271513659572], [-111.33573650335057, 25.852417735513644], [-111.3363056874894, 25.85241641843852], [-111.33702716236877, 25.852740704213616], [-111.33828812967351, 25.852737772135587], [-111.33882947314905, 25.853062468411842], [-111.34099113671198, 25.85305740840114], [-111.34135234982269, 25.85338251807062], [-111.3416802285054, 25.853381746940794], [-111.34168108107875, 25.853678390107728], [-111.34312596046875, 25.854978816059052], [-111.343308926031, 25.855956258157377], [-111.34385124064745, 25.856606891188562], [-111.34385265501713, 25.857095825015367], [-111.34432225863632, 25.85751845765069], [-111.34475756448596, 25.857285971342733], [-111.34583843406934, 25.857283400846818], [-111.34612228772905, 25.85702524070451], [-111.34630290707076, 25.857187789052453], [-111.34655806336356, 25.856955726933542], [-111.34709849656909, 25.856954436004997], [-111.34745783255248, 25.856627618505545], [-111.34943941513262, 25.85662286304346], [-111.34997888696003, 25.856295605715744], [-111.35055018890746, 25.85577597742838], [-111.35054690157833, 25.85466120801197], [-111.3492505567443, 25.85365714431048], [-111.34816924321672, 25.853496761928067], [-111.34744773401587, 25.853172531900498], [-111.34621545122302, 25.85190095526189], [-111.34621300238133, 25.851059989501074], [-111.34689932892576, 25.850435748119448], [-111.34869876210136, 25.849779521937972], [-111.35016782250403, 25.848279861511013], [-111.35052664361973, 25.84779005835517], [-111.3505199182195, 25.84550836557459], [-111.35138535319756, 25.844557712094023], [-111.35174512223927, 25.844393862025136], [-111.35267500081991, 25.844554586382795], [-111.35336495561543, 25.84517551318648], [-111.35354750457104, 25.845989964973743], [-111.35408982859002, 25.84664056055083], [-111.35409128442895, 25.847129494514213], [-111.35463313063237, 25.847617109913514], [-111.354635074822, 25.848269021731294], [-111.35593238090709, 25.849598994042736], [-111.3568335353511, 25.84975976168503], [-111.35737491494052, 25.85008438857667], [-111.35842694726404, 25.85008179585463], [-111.35917782300113, 25.849398711344925], [-111.35989588739794, 25.848582038329262], [-111.3598944075983, 25.848093104773675], [-111.36025318778745, 25.847603278000673], [-111.36168976614776, 25.846132895653934], [-111.36168885410564, 25.84583301553502], [-111.36132760923132, 25.84550795645182], [-111.36131820181747, 25.84241137588756], [-111.36059474891807, 25.841435298413657], [-111.3605912905056, 25.84029445236454], [-111.36022957207405, 25.83980641205775], [-111.36022562390815, 25.838502587642054], [-111.35986440550856, 25.838177524312943], [-111.35986284764675, 25.837662514394207], [-111.36022159706174, 25.837172687330014], [-111.3602176494454, 25.835868862440453], [-111.36072419787564, 25.835407980711494], [-111.3618336335259, 25.835405221826047], [-111.36219484872642, 25.835730280414904], [-111.36345712591593, 25.836216065913288], [-111.36559250347098, 25.83830012513575], [-111.36595624453557, 25.839440063799003], [-111.36596025567685, 25.84074388721634], [-111.36614087680194, 25.840906411229913], [-111.36633103553135, 25.84416551442185], [-111.36651166241487, 25.844328037836302], [-111.36669580737399, 25.845631405632744], [-111.36705757015682, 25.846119428969978], [-111.36706058843599, 25.84709729553491], [-111.3679637552458, 25.847909905111802], [-111.36886946231134, 25.849537397202354], [-111.3688709791111, 25.850026330171456], [-111.37013647947252, 25.851489920392137], [-111.37013800161425, 25.851978853159732], [-111.3706804433434, 25.85262938497739], [-111.37086312273286, 25.85344381276751], [-111.37176687367848, 25.8544193746772], [-111.37231188777749, 25.855884787296887], [-111.37231546107465, 25.85702562939751], [-111.37285742676767, 25.85751317483903], [-111.37285947176517, 25.858165084446057], [-111.3734045170746, 25.859630491873176], [-111.37323161655483, 25.861938713229573], [-111.37290464623433, 25.8622361976635], [-111.37197511351468, 25.862238582344812], [-111.37143312958848, 25.861751034122875], [-111.37110522888253, 25.86175187268435], [-111.37110430255791, 25.86145523079909], [-111.36821280130637, 25.858528976325392], [-111.36821179152507, 25.85820302137384], [-111.3651098117391, 25.855899838463795], [-111.36366767484614, 25.855577499868655], [-111.36207566486732, 25.855744457339597], [-111.360817142379, 25.85656248461379], [-111.3595272765695, 25.857735849476054], [-111.35934910214802, 25.858388206015313], [-111.35881013914887, 25.85887847553058], [-111.35863589352164, 25.86083465201566], [-111.35845623503583, 25.860998074520133], [-111.358460167738, 25.862301895150342], [-111.35774299300286, 25.863444515615875], [-111.35774634912325, 25.864559282814305], [-111.35792699576169, 25.864721816247194], [-111.35811353732979, 25.86684007933137], [-111.35847680606756, 25.867817054653056], [-111.35848123197071, 25.86928385146426], [-111.35866188686973, 25.86944638379052], [-111.35848573690623, 25.87077672352446], [-111.35761968035801, 25.87156443993726], [-111.3563594937196, 25.871893496753067], [-111.35579021749587, 25.871894893405678], [-111.35344416835052, 25.870596796535395], [-111.35275325171665, 25.870924434693674], [-111.35167225884486, 25.870927057947373], [-111.35110137155877, 25.871609667757717], [-111.35110281671287, 25.87209860019709], [-111.35038599358036, 25.87340416158337], [-111.35038832055149, 25.874192973268347], [-111.35067374969464, 25.874449789623405], [-111.35049405977959, 25.874613202295446], [-111.35057137730881, 25.875170402714918], [-111.35075203056547, 25.87533294477497], [-111.35111863877636, 25.87745077930803], [-111.35313790754189, 25.879104977241884], [-111.35346585680267, 25.879104178764827], [-111.35346673979178, 25.879400820508703], [-111.354551215943, 25.880539023746945], [-111.3550951677348, 25.881678542361694], [-111.35599900830738, 25.88265419775217], [-111.35618464808988, 25.88447257945171], [-111.35582663071924, 25.885259036463392], [-111.35549866454191, 25.88525984045312], [-111.35366884176464, 25.88676043023634], [-111.3536746687958, 25.888716155170442], [-111.3534958451601, 25.889176212762546], [-111.35244806330752, 25.889504718657317], [-111.3509780467113, 25.89084142157723], [-111.35097949259176, 25.891330352727053], [-111.35044082810592, 25.891983567896226], [-111.34972484091723, 25.893615077790514], [-111.34900595829129, 25.894268721975592], [-111.34882719455669, 25.89475808648594], [-111.34883286719965, 25.896687734801063], [-111.34973821385658, 25.898152357299644], [-111.34992082402934, 25.89896680712922], [-111.3508562908406, 25.899645772117054], [-111.3524651952627, 25.900117789703938], [-111.35461189859626, 25.899636637678775], [-111.35641203007127, 25.898980313004746], [-111.35767004663187, 25.89783637008341], [-111.35838988689291, 25.897508637104817], [-111.36001173804326, 25.897504620331667], [-111.36055086929397, 25.897014347152943], [-111.3612716888956, 25.89701255345118], [-111.36307024680784, 25.895867216523712], [-111.36418024682203, 25.895864433693912], [-111.3643609503537, 25.896026957815646], [-111.36577429784468, 25.89618637834599], [-111.36595399875345, 25.896022947110456], [-111.36757532337472, 25.895855869327274], [-111.36829512368918, 25.895528087519047], [-111.3691936007922, 25.894710913683067], [-111.37009359034896, 25.894382664237114], [-111.37300092373117, 25.891738257174637], [-111.37371863112737, 25.890758542136172], [-111.3756622706911, 25.88882709905853], [-111.37656219741805, 25.88849880989938], [-111.37821270168025, 25.888494516250518], [-111.37908323912902, 25.889114842932877], [-111.37908592500122, 25.889955801216875], [-111.37836774747066, 25.89077256581776], [-111.37801151001105, 25.892077317796996], [-111.37765215311553, 25.89240420960583], [-111.37765889552132, 25.894522904260292], [-111.37730212133191, 25.895664677569826], [-111.37731093157842, 25.898435277013416], [-111.37644480207622, 25.89922310364104], [-111.37497487133423, 25.899389889425404], [-111.37264198908555, 25.897942117341877]], [[-111.34809690477992, 25.884153214672942], [-111.34782591011329, 25.88390939698342], [-111.34810984733316, 25.883651210540865], [-111.34810896806994, 25.883351331529777], [-111.34771515112496, 25.882997005995353], [-111.34666282610529, 25.8829995240888], [-111.34627108688355, 25.883355729425286], [-111.34627338754353, 25.884144540374326], [-111.34666720408372, 25.884498869771335], [-111.34771954239247, 25.884496351510812], [-111.34809690477992, 25.884153214672942]]]}}]}
