{"type": "FeatureCollection", "features": [{"type": "Feature", "properties": {"uga": "52a", "politica": "preservacion", "procedencia": {"metodo": "digitalizacion-semiautomatica", "fuente": "Mapa de ubicación de la ficha UGA 52a, Boletín Oficial No. 12 (12-mar-2014), p. 331 del PDF", "datum": "UTM 12N con desplazamiento de +30 m E y +170 m N ajustado contra la costa (INC-011)", "correccion_borde_px": 1.4, "precision_aprox_m": 55.0, "escala_por_superficie": false, "revisada_en_qgis": false}, "control": {"residuo_georreferencia_m": 36.9, "area_digitalizada_ha": 1295.72, "escala_por_superficie": false, "superficie_ficha_ha": 1313.22, "diferencia_area_pct": -1.3}}, "geometry": {"type": "Polygon", "coordinates": [[[-111.61601745613918, 25.88476640695367], [-111.6129336109072, 25.88452845818139], [-111.6118252552406, 25.88378010614336], [-111.6113209019776, 25.88332587508246], [-111.61130649203096, 25.880527149359075], [-111.61185612412602, 25.88002281221929], [-111.61185353736282, 25.879520802622892], [-111.61405071211671, 25.87725242902669], [-111.61404422294154, 25.875997405007475], [-111.61459382263813, 25.87549305777282], [-111.61459122482363, 25.87499104812091], [-111.6167882644745, 25.872722634127733], [-111.61733392391805, 25.871465262319216], [-111.61732498874025, 25.869745901820973], [-111.61535686012195, 25.86822309531122], [-111.61290500315292, 25.870220991745953], [-111.61235283223984, 25.87022332244526], [-111.61180324673113, 25.870727661288537], [-111.61097498663258, 25.87073115032613], [-111.61042539285675, 25.871235484064208], [-111.60738842465413, 25.871248225498572], [-111.60667889770976, 25.871899282092247], [-111.60545975308929, 25.871050936749043], [-111.60518110779341, 25.87055007739293], [-111.6051440311431, 25.863270916274846], [-111.60458806052661, 25.862520199712275], [-111.60458167552612, 25.861265170931546], [-111.60397654079658, 25.860720004098148], [-111.6034746340675, 25.860722091298307], [-111.60346957641161, 25.85972605664048], [-111.60578204466428, 25.857099646122528], [-111.60566291116055, 25.856742463540623], [-111.60260976863347, 25.853492019700425], [-111.59955299650707, 25.849488488036705], [-111.59761063809823, 25.847488400260925], [-111.59733082210411, 25.846736516049354], [-111.59561664477835, 25.8451918213886], [-111.59478856012733, 25.84519521494721], [-111.59423399521918, 25.844695461060173], [-111.59146873001511, 25.843702700207086], [-111.58980760101456, 25.842705406627676], [-111.58814898201275, 25.842210107825334], [-111.58736763717188, 25.841505896399397], [-111.5873637326783, 25.84071520075065], [-111.58791328786035, 25.840210952962256], [-111.58790460411952, 25.838453901865105], [-111.58845290512109, 25.837698644768228], [-111.58844421438067, 25.835941593234047], [-111.58899374327245, 25.835437341490774], [-111.58898628792014, 25.83393129702274], [-111.58953580536665, 25.8334270432916], [-111.59006687483809, 25.829203337969158], [-111.5911658497092, 25.829198870950307], [-111.59476878951156, 25.832196316798754], [-111.59665555735403, 25.832188580815817], [-111.59775450556386, 25.831180014487458], [-111.6005068607629, 25.8296625914371], [-111.6024311802077, 25.82814855220659], [-111.60358035005338, 25.8281437833058], [-111.60413487479605, 25.82864350331622], [-111.60463664610694, 25.82864141623833], [-111.60492261030909, 25.830602659756845], [-111.6060821400706, 25.831647539530515], [-111.60990086772411, 25.831631559749848], [-111.61033543414867, 25.831232654620276], [-111.61077407366648, 25.831627891648356], [-111.61254727027651, 25.831976382227946], [-111.61348881434357, 25.831616454238752], [-111.61650916257085, 25.828591527911065], [-111.61870924173319, 25.827076105683165], [-111.6192612116647, 25.82707375444634], [-111.61981056728288, 25.826569388608547], [-111.62229442033998, 25.82655877290237], [-111.62284376051907, 25.82605439584094], [-111.62449702070072, 25.825545276861266], [-111.62784287111825, 25.822473055916543], [-111.62811222323894, 25.82121683327973], [-111.6289361578275, 25.820460234754083], [-111.62920706209873, 25.819500678594018], [-111.63108230594872, 25.81924153650861], [-111.63110089150366, 25.82274763046653], [-111.63082624731605, 25.822999834506234], [-111.63083289815505, 25.82425486367342], [-111.63028625884981, 25.825261281904577], [-111.62645160047381, 25.83080011824154], [-111.62040984694076, 25.836599308146234], [-111.61986567998358, 25.83810769986779], [-111.61987091169004, 25.83911172323697], [-111.6187812232011, 25.841877494400503], [-111.61853261774274, 25.847149789745036], [-111.61825789120228, 25.84740197070806], [-111.61829163211654, 25.853890440165703], [-111.62135570420078, 25.85914858688459], [-111.62196090889074, 25.85969368009154], [-111.63045843836638, 25.859406017273315], [-111.62552585606907, 25.864690584001803], [-111.62553755097244, 25.866911952219652], [-111.62609367334132, 25.86766258530454], [-111.6261097463878, 25.870712312593], [-111.62556154009508, 25.871467706910458], [-111.62556530736784, 25.872183046741124], [-111.62723244697848, 25.87418393140614], [-111.6272377493499, 25.875187948375377], [-111.62767470281324, 25.87558141113928], [-111.62587334031679, 25.878243632822254], [-111.62560384882003, 25.879499844325053], [-111.62482948054442, 25.880210547345495], [-111.62234713869667, 25.880723235464895], [-111.61822248701021, 25.884003997876835], [-111.61696070840806, 25.884657456057923], [-111.61668328574238, 25.88440762558622], [-111.61601745613918, 25.88476640695367]], [[-111.61166138875016, 25.85195609494255], [-111.61226087162376, 25.85140588273956], [-111.61225460278246, 25.850188527472003], [-111.61164949106487, 25.84964339141078], [-111.6086583001319, 25.849655959038603], [-111.60805880890496, 25.850206156641594], [-111.60806246731948, 25.850921500930287], [-111.60894489725715, 25.851716500633433], [-111.61166138875016, 25.85195609494255]]]}}]}
