{"type": "FeatureCollection", "features": [{"type": "Feature", "properties": {"uga": "52b", "politica": "conservacion", "procedencia": {"metodo": "digitalizacion-semiautomatica", "fuente": "Mapa de ubicación de la ficha UGA 52b, Boletín Oficial No. 12 (12-mar-2014), p. 334 del PDF", "datum": "UTM 12N con desplazamiento de +30 m E y +165 m N ajustado contra la costa (INC-011)", "correccion_borde_px": 1.4, "precision_aprox_m": 55.0, "escala_por_superficie": false, "revisada_en_qgis": false}, "control": {"residuo_georreferencia_m": 27.7, "area_digitalizada_ha": 1258.82, "escala_por_superficie": false, "superficie_ficha_ha": 1272.35, "diferencia_area_pct": -1.1}}, "geometry": {"type": "Polygon", "coordinates": [[[-111.66211102695672, 25.818894403901673], [-111.66236626025267, 25.81912371647999], [-111.66241233711844, 25.82740436335556], [-111.66213967521665, 25.827866556576986], [-111.66242067785416, 25.82890291993099], [-111.66214936545781, 25.82960824487736], [-111.66109964556146, 25.829862790527308], [-111.64685137472055, 25.841665921943562], [-111.64630085444634, 25.84166837252717], [-111.64575304606386, 25.84217034060247], [-111.64492726194467, 25.842174009518086], [-111.644379445365, 25.84267597253256], [-111.6435536575117, 25.842679633705696], [-111.64273056889022, 25.843182809990502], [-111.64053114771154, 25.843692057853275], [-111.63916019082085, 25.844697161095958], [-111.63860965568355, 25.844699582793936], [-111.63614026270389, 25.846209015443595], [-111.63335126752233, 25.848764073706604], [-111.63335368744758, 25.849218386125727], [-111.63285295756995, 25.849220569076927], [-111.63115965509901, 25.850771743155807], [-111.62869532349224, 25.853280092966614], [-111.62897437165232, 25.85398960119802], [-111.63008082518269, 25.854983867649974], [-111.63146789867199, 25.856975968127035], [-111.63147739221516, 25.858762867859877], [-111.63097903387714, 25.859219357089277], [-111.62822601687647, 25.859231295882886], [-111.62795203470799, 25.859482246946982], [-111.62185077620553, 25.85950850841346], [-111.62129886499156, 25.85926110538284], [-111.61801803217912, 25.8540752282533], [-111.6182654656207, 25.852806053082592], [-111.61801024179732, 25.85257666383652], [-111.61798797188972, 25.848292149308826], [-111.61824078971041, 25.848060597420282], [-111.61782592849109, 25.84768771323375], [-111.61825805449266, 25.847291933992018], [-111.61824117464539, 25.84404504114323], [-111.61876145341516, 25.84231375010338], [-111.61834661104575, 25.841940866774898], [-111.61877871482415, 25.841545086085173], [-111.61958628564598, 25.83804491012963], [-111.62024609817807, 25.836687667982606], [-111.61996954661296, 25.836439081688912], [-111.62642816013425, 25.83052256760097], [-111.63079750726735, 25.824009728117584], [-111.63078691961064, 25.82201163876803], [-111.63130825011268, 25.820530063970153], [-111.63089344671285, 25.82015721467852], [-111.63132543045748, 25.819761397727817], [-111.6313229862948, 25.819300455579114], [-111.63088682942366, 25.81890840826104], [-111.63131880875406, 25.818512591346515], [-111.63130159437117, 25.8152656937435], [-111.63184404311929, 25.813764733817163], [-111.6315569265347, 25.811518076341805], [-111.63221420364691, 25.810915777944135], [-111.63348093484892, 25.812054448575598], [-111.63591308146758, 25.81204382971145], [-111.63646213116667, 25.81179165978644], [-111.6378796322096, 25.810241635048957], [-111.63786492004473, 25.807494260623198], [-111.63840749463155, 25.80603848493765], [-111.63918188045993, 25.80578531542706], [-111.64115270470384, 25.80577663804871], [-111.64364009648553, 25.807763784731343], [-111.64414065092247, 25.807761567891394], [-111.64414310758785, 25.80821588191614], [-111.6455758446048, 25.80950357086318], [-111.64718237628702, 25.809496428060818], [-111.65185506375809, 25.808476484921226], [-111.65272519551662, 25.80847258095615], [-111.65377998235508, 25.80917193253693], [-111.65378704855517, 25.810459315262545], [-111.65269587890937, 25.812212584838598], [-111.65270409175568, 25.813711147476027], [-111.65243300152648, 25.814461664121183], [-111.65166107563472, 25.81516921737372], [-111.648314106287, 25.815184183760266], [-111.64776099150507, 25.814687116318375], [-111.64450320295425, 25.81470159731232], [-111.64308304022101, 25.815752163446426], [-111.64310057622755, 25.818999053373833], [-111.6422911214198, 25.82199983252251], [-111.64230573704967, 25.824708618817517], [-111.64330139241719, 25.82560337393997], [-111.64451703529613, 25.82549333650612], [-111.64533999549617, 25.824990151353447], [-111.6467147464423, 25.82473427342506], [-111.64840747916654, 25.82318292335898], [-111.64840500459145, 25.822728610652806], [-111.64890562146105, 25.822726376206912], [-111.65000103126086, 25.821722415535945], [-111.65274495217794, 25.82021151950898], [-111.65494525906499, 25.81995185452286], [-111.65604059187955, 25.81894784942275], [-111.65823672485372, 25.817938855153635], [-111.66168577672514, 25.815530183390397], [-111.66234958806372, 25.816126598951545], [-111.66208015716172, 25.81716547224659], [-111.66236369599397, 25.818662777122693], [-111.66211102695672, 25.818894403901673]], [[-111.64235569349566, 25.832995897055294], [-111.64350217789155, 25.832196316011345], [-111.64349698396423, 25.831235855228645], [-111.64289374951419, 25.83069378410979], [-111.6396355197865, 25.830708164287437], [-111.63903815565959, 25.83125553462604], [-111.63904197229596, 25.831966235790176], [-111.64019836230477, 25.833005419210213], [-111.64235569349566, 25.832995897055294]]]}}]}
