{"type": "FeatureCollection", "features": [{"type": "Feature", "properties": {"uga": "53", "politica": "conservacion", "procedencia": {"metodo": "digitalizacion-semiautomatica", "fuente": "Mapa de ubicación de la ficha UGA 53, Boletín Oficial No. 12 (12-mar-2014), p. 337 del PDF", "datum": "UTM 12N con desplazamiento de +30 m E y +165 m N ajustado contra la costa (INC-011)", "correccion_borde_px": 1.4, "precision_aprox_m": 28.0, "escala_por_superficie": true, "revisada_en_qgis": false}, "control": {"residuo_georreferencia_m": 0.0, "area_digitalizada_ha": 646.98, "escala_por_superficie": true, "superficie_ficha_ha": 646.84, "diferencia_area_pct": 0.0}}, "geometry": {"type": "Polygon", "coordinates": [[[-111.55225755035232, 25.847567489882213], [-111.55252168503185, 25.847326464449612], [-111.55282004693713, 25.847325329049298], [-111.5530974966153, 25.847574281164135], [-111.55420264617925, 25.847570068096104], [-111.55448009928068, 25.84781901750452], [-111.5551708190466, 25.847816378723756], [-111.55697254509919, 25.84905952181101], [-111.55724883578227, 25.849058461904157], [-111.55794190864148, 25.849555817410682], [-111.55819334812601, 25.849554851167927], [-111.55819441621661, 25.849782367219284], [-111.56041830587132, 25.852648896006325], [-111.56042007362952, 25.853023901344827], [-111.56069755246799, 25.85327283826386], [-111.56070285863721, 25.854397854070367], [-111.56098034132219, 25.854646790339288], [-111.5609844706489, 25.855521802440354], [-111.56126195658406, 25.85577073807957], [-111.56126795325824, 25.85704073009713], [-111.56099282415148, 25.85729180134125], [-111.5610004941249, 25.858916823134756], [-111.56072594992243, 25.859292895551455], [-111.56072830893117, 25.859792902181194], [-111.56045317240998, 25.86004397243208], [-111.56018156996271, 25.861045052070637], [-111.55908276509331, 25.862424330897873], [-111.55908394129713, 25.862674334179612], [-111.55800868455499, 25.86378101835806], [-111.55649475182665, 25.865036869012744], [-111.55621842396575, 25.865037928091873], [-111.55412762648268, 25.866443455586612], [-111.55413229052549, 25.867443468951805], [-111.55385770516422, 25.867819528618654], [-111.55386120168305, 25.86856953854767], [-111.55358603043813, 25.868820596051282], [-111.55358836039552, 25.86932060263334], [-111.55331318685555, 25.869571659631575], [-111.55331435129123, 25.86982166291261], [-111.55248940336963, 25.870699832489535], [-111.55249056613, 25.87094983576655], [-111.55194020575247, 25.87145194517494], [-111.55166618489629, 25.87195300238915], [-111.5499010661049, 25.873312255378256], [-111.54962471868689, 25.873313302216594], [-111.54810942237465, 25.874319063855875], [-111.54714219785548, 25.874322713679636], [-111.54686699906934, 25.874573758691156], [-111.54616455385181, 25.87446138782649], [-111.54562457023671, 25.874828442966226], [-111.54325350484696, 25.87483733824207], [-111.54297601063696, 25.87458836893762], [-111.54187060771886, 25.87459250057879], [-111.5414549418399, 25.874344044160534], [-111.54048771604556, 25.874347649637958], [-111.5378555953086, 25.872857380694146], [-111.5362162651649, 25.87151089050978], [-111.53621513662598, 25.871260886574433], [-111.53538159973115, 25.870263931143985], [-111.53538047301124, 25.870013927131474], [-111.53454751443665, 25.869141968530045], [-111.53454582707938, 25.868766962398855], [-111.53426836522632, 25.86851797572381], [-111.53398753349961, 25.867518976051244], [-111.53371007576112, 25.867269988202054], [-111.53370614514078, 25.866394973520222], [-111.53342869065187, 25.866145985044206], [-111.53342588466766, 25.86552097444251], [-111.53314843283195, 25.865271985359634], [-111.53314506756168, 25.8645219725065], [-111.5328676186771, 25.864272982806852], [-111.53286033159031, 25.86264795456187], [-111.53258232752178, 25.862273961978158], [-111.53257047422193, 25.859628940219448], [-111.5328456697388, 25.859377921869516], [-111.5328411864633, 25.85837790385338], [-111.53311637855246, 25.858126885001713], [-111.53311245389864, 25.85725186913301], [-111.53338764284352, 25.85700084977838], [-111.53338427730014, 25.856250836100006], [-111.53365946338407, 25.85599981624119], [-111.5336572186301, 25.855499807084165], [-111.53585414896098, 25.8524916114934], [-111.53720581215686, 25.851384066148015], [-111.53803300608412, 25.851005990576276], [-111.53844575190426, 25.850629447630876], [-111.53872204709339, 25.850628422912585], [-111.53968567579919, 25.84987481869814], [-111.54010011586216, 25.84987327792678], [-111.54092672117518, 25.849370183854628], [-111.5414793054597, 25.84936812454511], [-111.54175445850358, 25.849117089632408], [-111.54216889578363, 25.849115542999296], [-111.54244404677195, 25.848864506803917], [-111.54272033767725, 25.84886347454403], [-111.54299548690797, 25.84861243732312], [-111.54340992234377, 25.84861088717658], [-111.54368506951894, 25.848359848673116], [-111.54404170950757, 25.848411027542006], [-111.54437464914652, 25.848107256786896], [-111.54493879193906, 25.84822015767537], [-111.54514514929987, 25.84803187671287], [-111.54542258487669, 25.848280843699747], [-111.5456179497844, 25.84810259107735], [-111.54591631398317, 25.848101469828325], [-111.54611330837868, 25.8482782479527], [-111.54633342096045, 25.848077413167374], [-111.54633237564406, 25.847849896606604], [-111.54674403135385, 25.847848347434454], [-111.54707974601263, 25.84814960624668], [-111.54755024559786, 25.847720305741788], [-111.54784860874099, 25.847719180538526], [-111.54804560531302, 25.84789595601486], [-111.54837853312608, 25.8475921762471], [-111.54893110846164, 25.847590088717066], [-111.54920624145453, 25.847339039943904], [-111.55017324605876, 25.847335379908962], [-111.55044837580385, 25.84708432882587], [-111.55157559630857, 25.84708005215327], [-111.55225755035232, 25.847567489882213]], [[-111.54672337367604, 25.860776373088203], [-111.54713889036809, 25.860397282708586], [-111.54700015627976, 25.860272801388053], [-111.54721752359475, 25.860074488387724], [-111.54721646445947, 25.859844459570972], [-111.54691403979226, 25.859573102808362], [-111.54583085462862, 25.85957717920449], [-111.54553093527949, 25.859850802855586], [-111.5455331387298, 25.860330835671903], [-111.54637826300812, 25.86084017437569], [-111.54658463956477, 25.860651891377163], [-111.54672337367604, 25.860776373088203]]]}}]}
