{"type": "FeatureCollection", "features": [{"type": "Feature", "properties": {"uga": "55", "politica": "preservacion", "procedencia": {"metodo": "digitalizacion-semiautomatica", "fuente": "Mapa de ubicación de la ficha UGA 55, Boletín Oficial No. 12 (12-mar-2014), p. 343 del PDF", "datum": "UTM 12N con desplazamiento de +30 m E y +165 m N ajustado contra la costa (INC-011)", "correccion_borde_px": 1.4, "precision_aprox_m": 22.0, "escala_por_superficie": false, "revisada_en_qgis": false}, "control": {"residuo_georreferencia_m": 5.6, "area_digitalizada_ha": 394.46, "escala_por_superficie": false, "superficie_ficha_ha": 392.89, "diferencia_area_pct": 0.4}}, "geometry": {"type": "Polygon", "coordinates": [[[-111.48708761791647, 25.83898228269615], [-111.487301287879, 25.83917421222919], [-111.48730834072256, 25.840895852388762], [-111.48719788028018, 25.840996554145562], [-111.48720034594189, 25.8415985332213], [-111.48676301667493, 25.84310496761454], [-111.486765069746, 25.84360661673469], [-111.48632526637462, 25.844511070724813], [-111.48544236347539, 25.845517336194128], [-111.4845606721355, 25.846824585804274], [-111.48380726397382, 25.847511366270393], [-111.4831436288761, 25.847914900200387], [-111.48093053228101, 25.849025888761048], [-111.47937903418708, 25.84923168079852], [-111.47882544581675, 25.84943416948716], [-111.47827104840809, 25.84943599635758], [-111.47782833681661, 25.849638116072086], [-111.47636918240732, 25.849642909793058], [-111.47626679211032, 25.8495509307739], [-111.47616514133526, 25.849643578955327], [-111.47559302437931, 25.849645453710856], [-111.4751487036057, 25.84944624569586], [-111.47359599012367, 25.849350986367558], [-111.47282752783774, 25.84906051300982], [-111.47266180722907, 25.84921154934466], [-111.47248599916217, 25.849053608194748], [-111.47193160301667, 25.849055410840094], [-111.47115425568842, 25.848756941057793], [-111.47082161877344, 25.8487580198372], [-111.4699333973776, 25.848459902862007], [-111.4674877543141, 25.84686249488101], [-111.46715472838959, 25.84676323512647], [-111.46639624467609, 25.846181734292138], [-111.46528276772445, 25.844981329320596], [-111.4643898869492, 25.843479216048383], [-111.46438792826088, 25.842977565286127], [-111.46416539779466, 25.84277761375728], [-111.46416304858434, 25.842175632761055], [-111.46371329858222, 25.8405717662771], [-111.4637077605876, 25.83915111079225], [-111.46392754447699, 25.838648751703243], [-111.46392519690131, 25.83804677034451], [-111.46414536933868, 25.83764474112466], [-111.46414302076559, 25.837042759701337], [-111.46436358226228, 25.83674106037462], [-111.46436162427139, 25.83623940914514], [-111.46524267859064, 25.834731617731133], [-111.46612567596728, 25.833725472280694], [-111.46732137726246, 25.832736365562774], [-111.46886952116458, 25.831728062630308], [-111.46909124742717, 25.831727346947154], [-111.47075141585269, 25.831019656964852], [-111.47108400317359, 25.831018579033], [-111.47230189708075, 25.83061329926288], [-111.47318879333395, 25.83061041366449], [-111.47329925632681, 25.83050972238491], [-111.47542334807403, 25.830502787853227], [-111.4755346108733, 25.83060275523605], [-111.47786392058886, 25.830896107592064], [-111.4780775611595, 25.831088051321938], [-111.47841863498353, 25.830994613609622], [-111.47941801236011, 25.8313926452876], [-111.4803057234063, 25.831590376339598], [-111.48230491365511, 25.832486736399087], [-111.48375021939883, 25.833485245136238], [-111.48495420919886, 25.83456682663175], [-111.48562308775348, 25.835467574311267], [-111.486739139434, 25.837269802761494], [-111.48696539293643, 25.8383726885339], [-111.48718836364482, 25.838672934712342], [-111.48708761791647, 25.83898228269615]], [[-111.4702376507998, 25.839039821441805], [-111.4705160541498, 25.838786074673777], [-111.47012438594845, 25.838434166026857], [-111.46984820318715, 25.838685888111215], [-111.46957926185223, 25.838528244205953], [-111.46929203031463, 25.838790034101432], [-111.46962766814097, 25.838991629017336], [-111.46978455191807, 25.838848641000972], [-111.47002400818269, 25.83884786641491], [-111.4702376507998, 25.839039821441805]], [[-111.47588840573577, 25.840333743504836], [-111.47612921797761, 25.84011424219201], [-111.47623814462565, 25.839628261140675], [-111.47555130035539, 25.839211136360017], [-111.47523640715085, 25.83921216687782], [-111.47488552587079, 25.839632689328717], [-111.47488746453175, 25.840118307027446], [-111.47513002537407, 25.840336226055285], [-111.47588840573577, 25.840333743504836]]]}}]}
