{"type": "FeatureCollection", "features": [{"type": "Feature", "properties": {"uga": "56a", "politica": "aprovechamiento-sustentable", "procedencia": {"metodo": "digitalizacion-semiautomatica", "fuente": "Mapa de ubicación de la ficha UGA 56a, Boletín Oficial No. 12 (12-mar-2014), p. 346 del PDF", "datum": "UTM 12N con desplazamiento de +30 m E y +165 m N ajustado contra la costa (INC-011)", "correccion_borde_px": 1.4, "precision_aprox_m": 5.0, "escala_por_superficie": true, "revisada_en_qgis": false}, "control": {"residuo_georreferencia_m": 0.0, "area_digitalizada_ha": 26.85, "escala_por_superficie": true, "superficie_ficha_ha": 26.85, "diferencia_area_pct": 0.0}}, "geometry": {"type": "Polygon", "coordinates": [[[-111.33126682835122, 25.849436930597584], [-111.33119581178669, 25.84943709257205], [-111.33119510182043, 25.84918219932293], [-111.33114725801725, 25.849117614846687], [-111.33114287418013, 25.847543414273478], [-111.33109497103392, 25.84745726536467], [-111.33111855273076, 25.847367507509958], [-111.33111796187733, 25.84715530951007], [-111.33109407042438, 25.84713379944571], [-111.3310912486142, 25.846120272806136], [-111.33102961165116, 25.84606477897997], [-111.33105338281567, 25.846043160263623], [-111.33104274581427, 25.845818479869727], [-111.33099490346838, 25.845753895299403], [-111.33099430328721, 25.845538251302266], [-111.33089855892891, 25.84538751770451], [-111.3308982589297, 25.845279695700253], [-111.33085041688194, 25.845215111074662], [-111.33085023690977, 25.84515041787045], [-111.33080245492256, 25.845107397628908], [-111.33080209503275, 25.84497801121736], [-111.33075401327037, 25.84482716894555], [-111.33075203422135, 25.844115543622486], [-111.3307142892216, 25.84408155977198], [-111.33073806005196, 25.844059941104653], [-111.33070395288398, 25.84396470131221], [-111.33070358353802, 25.843831868930646], [-111.33081816103345, 25.843727664741888], [-111.3309847360737, 25.843641027086477], [-111.3312707045752, 25.843640375157822], [-111.3312944752161, 25.84361875639998], [-111.33167957456388, 25.843617877528455], [-111.33172348801575, 25.84363934178605], [-111.33186635191345, 25.843595886357228], [-111.33293873324017, 25.843593432216863], [-111.33296250356531, 25.843571813188962], [-111.33329619365146, 25.843592612410717], [-111.33331996391077, 25.843570993324953], [-111.33372502510929, 25.84354849868238], [-111.3346757038862, 25.84264060065454], [-111.33481844406869, 25.842554013537576], [-111.33496106258501, 25.84242429748037], [-111.33503636200949, 25.842424123817604], [-111.33582447179714, 25.84302611093969], [-111.33586784584871, 25.84302601065156], [-111.33589239625947, 25.84328084888876], [-111.33594048386969, 25.84343168943358], [-111.33594097114337, 25.843604204594772], [-111.33598893711363, 25.843711916326072], [-111.33598954630187, 25.843927560267538], [-111.33603745152175, 25.84401370758286], [-111.33603812173493, 25.84425091590707], [-111.33608602712289, 25.8443370632009], [-111.3360865146273, 25.84450957833802], [-111.33613454205121, 25.84463885439435], [-111.3361350905805, 25.84483293391428], [-111.33618299627786, 25.84491908116621], [-111.33618360585064, 25.84513472506753], [-111.3362453056741, 25.845211781084036], [-111.33619776557325, 25.845255020195427], [-111.33623169460711, 25.845285565466384], [-111.33623206040888, 25.845414951800763], [-111.33628002739177, 25.845522663399276], [-111.33628063715685, 25.845738307280524], [-111.3363286653034, 25.845867583243816], [-111.33632988380967, 25.846298437511237], [-111.3362865085667, 25.84629853794913], [-111.33607245409314, 25.8464499851067], [-111.3360010212429, 25.84647171490802], [-111.33590593983081, 25.846558192952173], [-111.33576313479684, 25.846623216743662], [-111.3349305578115, 25.84716425231565], [-111.33485912431834, 25.847185981559498], [-111.33469266860575, 25.84731575241069], [-111.33462123497704, 25.847337481538407], [-111.33416928597146, 25.84764042550339], [-111.33409785204965, 25.847662154375566], [-111.33348936812722, 25.84806421959719], [-111.33346547606541, 25.848042709931626], [-111.33342744227467, 25.848077300497497], [-111.33342755232862, 25.8481165498603], [-111.33333657365905, 25.848138323230078], [-111.33302736673274, 25.84835467785702], [-111.33126682835122, 25.849436930597584]], [[-111.33382847507187, 25.845594735407225], [-111.33375441107503, 25.845528055567726], [-111.33349607734642, 25.845528648969662], [-111.33344425979801, 25.845575776445713], [-111.33346832309239, 25.84565853336347], [-111.33359195816855, 25.84572682248522], [-111.33375496784558, 25.845726447989936], [-111.33380678533445, 25.84567932040457], [-111.33382847507187, 25.845594735407225]]]}}]}
