{"type": "FeatureCollection", "features": [{"type": "Feature", "properties": {"uga": "56b", "politica": "aprovechamiento-sustentable", "procedencia": {"metodo": "digitalizacion-semiautomatica", "fuente": "Mapa de ubicación de la ficha UGA 56b, Boletín Oficial No. 12 (12-mar-2014), p. 349 del PDF", "datum": "UTM 12N con desplazamiento de +30 m E y +165 m N ajustado contra la costa (INC-011)", "correccion_borde_px": 1.4, "precision_aprox_m": 19.0, "escala_por_superficie": false, "revisada_en_qgis": false}, "control": {"residuo_georreferencia_m": 11.2, "area_digitalizada_ha": 133.05, "escala_por_superficie": false, "superficie_ficha_ha": 134.94, "diferencia_area_pct": -1.4}}, "geometry": {"type": "Polygon", "coordinates": [[[-111.31990618538686, 25.81588557717352], [-111.32078843068088, 25.814825406314544], [-111.3207880012693, 25.81466599100568], [-111.32115759793982, 25.81466517491946], [-111.32115854032982, 25.815014624621636], [-111.32077090348214, 25.81554022097334], [-111.32077137463125, 25.815715133407], [-111.31952743238828, 25.81692677017498], [-111.31849855124824, 25.816892051455692], [-111.3184015209718, 25.816979720765616], [-111.31727324231142, 25.816144597245547], [-111.31709595024788, 25.816144984109922], [-111.31709552575414, 25.815985568772557], [-111.31668826566724, 25.815621132355748], [-111.31641172593346, 25.815709191329212], [-111.3158131296318, 25.815710493079617], [-111.31563338867822, 25.815623426712524], [-111.31543932576609, 25.815798761493383], [-111.31514753598236, 25.815799394397864], [-111.31466214402002, 25.816150272995458], [-111.3143553360773, 25.816150936825135], [-111.31338062910703, 25.81536593050099], [-111.31269909967482, 25.815105027831887], [-111.31250411524091, 25.814930533567406], [-111.3122123275023, 25.814931160560384], [-111.31201734406183, 25.81475666562958], [-111.31114152506817, 25.814583629288983], [-111.31047682405554, 25.814163263719486], [-111.31047587264307, 25.813798316452512], [-111.31086332138226, 25.813185290729145], [-111.31086244776643, 25.812850587375326], [-111.31066746972405, 25.812676090534485], [-111.3106667853552, 25.812413721516645], [-111.31035704521139, 25.812136515357974], [-111.30948170232347, 25.812138381463253], [-111.30939174074197, 25.812057867681222], [-111.30930219844718, 25.812138763488488], [-111.30881589679568, 25.812139797335824], [-111.30803917124611, 25.812666186284492], [-111.307360563485, 25.81266762263891], [-111.30716472859353, 25.812158792734966], [-111.30696975705737, 25.81198429085832], [-111.3069654356297, 25.81030749752775], [-111.30735311704687, 25.809781937205564], [-111.30735248005276, 25.809535065177908], [-111.30752976244223, 25.809534690286444], [-111.30793485886618, 25.809081051175202], [-111.30793259810017, 25.8082064870868], [-111.30812665993075, 25.80803116215611], [-111.30812349306414, 25.806806772248137], [-111.30831755235371, 25.806631447052286], [-111.30835541484267, 25.80572063018818], [-111.30825793346106, 25.805633379964917], [-111.30850889340161, 25.805406644357834], [-111.3085084404712, 25.805231731469647], [-111.30908969975407, 25.804355927743625], [-111.30928284557325, 25.803830775434694], [-111.30967072323816, 25.80339266520968], [-111.30961314018602, 25.803181706510703], [-111.31005768774946, 25.802604728102505], [-111.31005677745873, 25.802254902238392], [-111.31044419149022, 25.801641876984785], [-111.3104421408945, 25.800854768691455], [-111.31063618714143, 25.800679440377873], [-111.31063436333629, 25.799979788485953], [-111.31082840788716, 25.799804459910504], [-111.3108277639764, 25.799557587625195], [-111.31111729669185, 25.79955696850023], [-111.31140950388074, 25.799731257027183], [-111.3123669904146, 25.799729203537968], [-111.3140179386498, 25.798851078315035], [-111.31665868814767, 25.798845352277088], [-111.31800617315685, 25.8000513119603], [-111.31800710669432, 25.800401137663233], [-111.3182023086138, 25.80066308146207], [-111.31820347628985, 25.801100363542965], [-111.31839867980105, 25.801362307038204], [-111.31841106656563, 25.805997495220744], [-111.31856572855273, 25.806135902771913], [-111.31832364175983, 25.806529988850894], [-111.31841367820206, 25.806974637014214], [-111.31736361707523, 25.80792346095614], [-111.3170568304036, 25.807924130289784], [-111.3167244643384, 25.807626691942154], [-111.31682148832148, 25.807539023698887], [-111.31672267875697, 25.807450597468204], [-111.31600202161898, 25.807926426685956], [-111.31541848064388, 25.807927693809688], [-111.31522442982192, 25.80810302837505], [-111.31483540190362, 25.808103871309196], [-111.31464134993055, 25.80827920510274], [-111.31415506428348, 25.808280256664247], [-111.31396101101436, 25.80845558955747], [-111.31337746733249, 25.8084568485135], [-111.31268130962174, 25.809173499509477], [-111.31180961204971, 25.810559559222128], [-111.31200481733565, 25.81082151094776], [-111.31200550460336, 25.811083879989642], [-111.31259250414031, 25.812394471415885], [-111.31300020035557, 25.81293383232049], [-111.31338924411762, 25.812932994151257], [-111.31368148760994, 25.81310727745788], [-111.31436254597173, 25.813193263079768], [-111.31475205279004, 25.813367333849346], [-111.31514109790263, 25.813366490978726], [-111.31566908806063, 25.813577235824305], [-111.31576611762584, 25.81348956830446], [-111.31591988404443, 25.813627170965507], [-111.31660094688029, 25.813713146051423], [-111.31952372031903, 25.815543342986114], [-111.31990618538686, 25.81588557717352]], [[-111.31461528944608, 25.8040972035939], [-111.31492331822841, 25.80373121189317], [-111.31492266472911, 25.803483964647384], [-111.31471042221868, 25.80329401305938], [-111.31383514466587, 25.803295904775908], [-111.31374518691709, 25.803215393555327], [-111.31334716259153, 25.803487368266687], [-111.31334781282163, 25.803734615549796], [-111.31375502174241, 25.804099062392726], [-111.31461528944608, 25.8040972035939]]]}}]}
