{"type": "FeatureCollection", "features": [{"type": "Feature", "properties": {"uga": "56c", "politica": "aprovechamiento-sustentable", "procedencia": {"metodo": "digitalizacion-semiautomatica", "fuente": "Mapa de ubicación de la ficha UGA 56c, Boletín Oficial No. 12 (12-mar-2014), p. 352 del PDF", "datum": "UTM 12N con desplazamiento de +30 m E y +165 m N ajustado contra la costa (INC-011)", "correccion_borde_px": 1.4, "precision_aprox_m": 11.0, "escala_por_superficie": false, "revisada_en_qgis": false}, "control": {"residuo_georreferencia_m": 13.0, "area_digitalizada_ha": 56.33, "escala_por_superficie": false, "superficie_ficha_ha": 56.48, "diferencia_area_pct": -0.3}}, "geometry": {"type": "Polygon", "coordinates": [[[-111.28417202322147, 25.748511087299043], [-111.28431021129688, 25.74838609067613], [-111.28456432866959, 25.748613976144032], [-111.28511874533383, 25.748812454790784], [-111.2853961927711, 25.749011474362025], [-111.28589521833638, 25.749210058563335], [-111.28617266798265, 25.749409076625586], [-111.28644987924365, 25.74950831311607], [-111.28661642172179, 25.749657657679432], [-111.28689363392182, 25.749756893313773], [-111.28706017729945, 25.74990623735687], [-111.28733739043854, 25.75000547213503], [-111.28778126900761, 25.750303940083963], [-111.28789205860473, 25.75030372110005], [-111.28805860398859, 25.750453063972927], [-111.28922334594037, 25.75104944414529], [-111.28938989402272, 25.751198785457134], [-111.29011100121747, 25.75159647644385], [-111.29037872287329, 25.751836534020278], [-111.29037910751278, 25.751994725381483], [-111.29004746110726, 25.752294730685367], [-111.2900479215609, 25.75248431450824], [-111.289914680962, 25.752364842115693], [-111.28982624149789, 25.752444843322625], [-111.28982648365812, 25.75254462428255], [-111.28960538429682, 25.75274462706471], [-111.28960598924655, 25.75299407945658], [-111.28949543905995, 25.753094080721112], [-111.28949580189669, 25.753243752151523], [-111.28900826287894, 25.75373476536286], [-111.2888975908086, 25.753784875698557], [-111.28828823030032, 25.753786083426014], [-111.28801148889639, 25.753886412507597], [-111.28762371367198, 25.75388717899953], [-111.28695931577823, 25.754038162030724], [-111.28683894321311, 25.754147043069917], [-111.28683916160729, 25.754237961647117], [-111.28673820883023, 25.75423816048295], [-111.28618555779099, 25.754788045628526], [-111.28585353476404, 25.754938369981637], [-111.28540137444986, 25.755297354397637], [-111.28540161294332, 25.755397135357327], [-111.28529105699872, 25.75549713344568], [-111.28529139342953, 25.75563794249684], [-111.2851904394552, 25.755638140269557], [-111.28458225836187, 25.756138237359764], [-111.28416301958086, 25.75636743772969], [-111.28385348879054, 25.756139659946506], [-111.28241161902992, 25.75549388444507], [-111.28230082456464, 25.75549409929973], [-111.28218979428738, 25.755394533083894], [-111.28202360272411, 25.755394855079928], [-111.28177833104293, 25.75527447649483], [-111.28172305161874, 25.755324474186992], [-111.2814457130493, 25.75517533835956], [-111.28139043353002, 25.7552253359269], [-111.28124733699417, 25.755097012229015], [-111.28113654288605, 25.75509722619468], [-111.28047107510228, 25.754799165195074], [-111.27997168399497, 25.754450891150814], [-111.2798707309778, 25.754451085226822], [-111.2798705178872, 25.754360166597362], [-111.27942605994782, 25.75381222208436], [-111.27942559298192, 25.75361266001713], [-111.27931456684516, 25.753513091548616], [-111.27931419683672, 25.753354900067848], [-111.27975573060134, 25.752655582016], [-111.28030840172966, 25.752105720948055], [-111.28075027694659, 25.75155607142784], [-111.28075004238012, 25.75145629037531], [-111.2808605984562, 25.751356295678836], [-111.28086024647182, 25.751206624096845], [-111.28097080222578, 25.75110662931597], [-111.28097033273498, 25.750907067201016], [-111.28119120839604, 25.750607296325917], [-111.28119085600909, 25.750457624732782], [-111.28130129328937, 25.750307739166796], [-111.28240683052724, 25.749307784217653], [-111.28240647663739, 25.74915811261349], [-111.28251702920605, 25.749058116657334], [-111.2826268732705, 25.748658777397374], [-111.28273742519502, 25.74855878127247], [-111.28273695280592, 25.748359219118097], [-111.28295770117202, 25.74800955499478], [-111.28295701569257, 25.747720189852842], [-111.28417202322147, 25.748511087299043]], [[-111.28551111208748, 25.752199654376792], [-111.28528393132554, 25.751995934239336], [-111.2847385768262, 25.75199700164204], [-111.28461820425554, 25.752105880875618], [-111.28461865956173, 25.7522969229741], [-111.28479506516543, 25.752455112705167], [-111.28528514512871, 25.752504044113568], [-111.28551111208748, 25.752199654376792]]]}}]}
