{"type": "FeatureCollection", "features": [{"type": "Feature", "properties": {"uga": "56d", "politica": "aprovechamiento-sustentable", "procedencia": {"metodo": "digitalizacion-semiautomatica", "fuente": "Mapa de ubicación de la ficha UGA 56d, Boletín Oficial No. 12 (12-mar-2014), p. 355 del PDF", "datum": "UTM 12N con desplazamiento de +30 m E y +165 m N ajustado contra la costa (INC-011)", "correccion_borde_px": 1.4, "precision_aprox_m": 23.0, "escala_por_superficie": false, "revisada_en_qgis": false}, "control": {"residuo_georreferencia_m": 18.8, "area_digitalizada_ha": 319.22, "escala_por_superficie": false, "superficie_ficha_ha": 320.25, "diferencia_area_pct": -0.3}}, "geometry": {"type": "Polygon", "coordinates": [[[-111.23376168163126, 25.706591425218], [-111.23434043185166, 25.70827565846714], [-111.2354160234004, 25.70913979038663], [-111.2356290136657, 25.709139446304103], [-111.23562939319389, 25.709332171751203], [-111.2361192145998, 25.709773807605977], [-111.23635319510026, 25.709773428461965], [-111.23658759423206, 25.709984766378387], [-111.23703697582079, 25.70998403641658], [-111.23740826849995, 25.70964686301142], [-111.2374078484181, 25.70943514557824], [-111.2379707939876, 25.70892392454886], [-111.23904227863132, 25.708922171661076], [-111.23927668079489, 25.70913350525679], [-111.23962764958499, 25.709132928812025], [-111.23995844045727, 25.709536828853334], [-111.23995928965583, 25.709960263628744], [-111.24007649246235, 25.710065929709963], [-111.24007989112224, 25.71175966852625], [-111.2401975208743, 25.712077051790537], [-111.24066762026885, 25.713134866440562], [-111.24195797440271, 25.714826473962653], [-111.24631567051169, 25.718649088374278], [-111.2481898485796, 25.719704497691744], [-111.24877484786012, 25.71970350033879], [-111.25029806134035, 25.720759480827866], [-111.25203516663123, 25.722219518538147], [-111.25215373142714, 25.722960325021333], [-111.2525033896544, 25.723275470606538], [-111.25180579648638, 25.723276677614713], [-111.24969708396954, 25.722010000207558], [-111.24946307976441, 25.72201040094451], [-111.24876018629877, 25.721588167104407], [-111.2481751777985, 25.721589164466337], [-111.24782373393775, 25.721378044833795], [-111.24688772190068, 25.7213796334594], [-111.24665328220956, 25.72116831272912], [-111.24571727173137, 25.721169893825657], [-111.2454828345062, 25.720958571188376], [-111.24478082782434, 25.720959751927634], [-111.24442939174261, 25.7207486240343], [-111.24304396257034, 25.72075094097922], [-111.24281039056905, 25.72096304803641], [-111.24234238600849, 25.72096382699013], [-111.24204114482926, 25.721237380916115], [-111.24173879836471, 25.72096482939136], [-111.24150479606479, 25.72096521733557], [-111.24080193653415, 25.720542944804244], [-111.24033393354816, 25.720543717296806], [-111.24009950699687, 25.720332385904523], [-111.23963150481067, 25.720333156135663], [-111.23939707990681, 25.720121823595655], [-111.23881207817095, 25.72012278332303], [-111.23857765511924, 25.71991144944569], [-111.23520323216815, 25.719916934075783], [-111.23496964776832, 25.720129028678397], [-111.23403405892925, 25.72034225185611], [-111.23321588039589, 25.72076699904507], [-111.23237715319715, 25.721422484290127], [-111.23191037821292, 25.72205838124064], [-111.23202899040291, 25.722887896939945], [-111.23275327373534, 25.723540887331556], [-111.23322128870815, 25.72354013910031], [-111.23345570953556, 25.723751481504806], [-111.2336687258504, 25.723751140106092], [-111.23413877726435, 25.724789982220482], [-111.23409091855626, 25.725380866113156], [-111.23420813144719, 25.725486536620018], [-111.23355668091762, 25.72629010680903], [-111.23355705739577, 25.726482831831284], [-111.23285742693852, 25.726483951501315], [-111.23156789370788, 25.725215700236472], [-111.23121687752007, 25.725216257602153], [-111.23098245772604, 25.725004911631196], [-111.23016342134841, 25.72500620753568], [-111.22653144644148, 25.722471284999987], [-111.2258282304667, 25.721837222793532], [-111.22561521744386, 25.72183755270904], [-111.22549705345634, 25.721221574003184], [-111.22526245218805, 25.720904359952662], [-111.22526105644005, 25.72016334941706], [-111.2249583553839, 25.719784727223228], [-111.22507515629741, 25.719678687928123], [-111.22502546201643, 25.71931684160505], [-111.22472276386651, 25.718938218858668], [-111.22483956416984, 25.718832179744176], [-111.22479006993072, 25.71857619197225], [-111.22408609288124, 25.71751868602119], [-111.22396787350198, 25.71686654696134], [-111.22429731507839, 25.716567455407898], [-111.2246483060512, 25.716566914878403], [-111.22488190198673, 25.716354836636114], [-111.22523289232153, 25.7163542947031], [-111.2255834833675, 25.716142034509236], [-111.22653880629748, 25.715274688674416], [-111.22758834387422, 25.71347345018869], [-111.22826834401175, 25.71296208378868], [-111.2287363177399, 25.71296135024082], [-111.22915636586382, 25.71247391607875], [-111.22899007505926, 25.712323972154937], [-111.22898966982451, 25.712112254672345], [-111.22838287271837, 25.711670778218547], [-111.22769990310917, 25.711883564718004], [-111.22604342909229, 25.711886142630817], [-111.22580904469123, 25.71167478771392], [-111.22545806809983, 25.711675330942516], [-111.22452133584477, 25.711253340280877], [-111.2241703604586, 25.711253880401014], [-111.22337145452734, 25.710744803269424], [-111.22337086163314, 25.710427226850946], [-111.22313628737744, 25.710110008730325], [-111.22325150380823, 25.70915892560301], [-111.22416643279335, 25.709157521686794], [-111.22440001522918, 25.708945444092183], [-111.2249849629056, 25.708944542576187], [-111.2255892671269, 25.708077743638615], [-111.22558710426904, 25.706930463126692], [-111.2242976616775, 25.705556283322437], [-111.22429686805994, 25.705132847820227], [-111.22406230185385, 25.70481563090653], [-111.22406170728321, 25.704498054244784], [-111.223592382107, 25.703757760278297], [-111.22359060566001, 25.702806855453435], [-111.22429009810806, 25.702805781193913], [-111.22499279530473, 25.703228135479414], [-111.22637802337324, 25.703225991484732], [-111.22789720184764, 25.702376751428375], [-111.22824815110815, 25.702376202511832], [-111.22848171311972, 25.702164118319217], [-111.2289496446144, 25.702163384372735], [-111.2301182521386, 25.701526389636005], [-111.23060475999841, 25.7015256210751], [-111.23081810843841, 25.70171800982871], [-111.23082096650222, 25.703200033999973], [-111.23117314492032, 25.703834631138374], [-111.23142854809815, 25.704064936430004], [-111.23224785188934, 25.704275352067956], [-111.23248223297479, 25.704486696869253], [-111.23341852677355, 25.704696919311893], [-111.23374907765576, 25.704994975109773], [-111.23375155888098, 25.706265280725194], [-111.23393685195671, 25.706432355584692], [-111.23376168163126, 25.706591425218]], [[-111.23494029423547, 25.714645227685402], [-111.23531139899353, 25.71420220102868], [-111.23531101630462, 25.714007650339436], [-111.234938382255, 25.71367168229285], [-111.23367002817618, 25.713673720956724], [-111.23341550034822, 25.713904838842282], [-111.23341649961077, 25.714416965596282], [-111.23367192983476, 25.71464726643753], [-111.23494029423547, 25.714645227685402]]]}}]}
