{"type": "FeatureCollection", "features": [{"type": "Feature", "properties": {"uga": "57", "politica": "aprovechamiento-sustentable", "procedencia": {"metodo": "digitalizacion-semiautomatica", "fuente": "Mapa de ubicación de la ficha UGA 57, Boletín Oficial No. 12 (12-mar-2014), p. 358 del PDF", "datum": "UTM 12N con desplazamiento de +30 m E y +170 m N ajustado contra la costa (INC-011)", "correccion_borde_px": 1.4, "precision_aprox_m": 24.0, "escala_por_superficie": true, "revisada_en_qgis": false}, "control": {"residuo_georreferencia_m": 0.0, "area_digitalizada_ha": 39.55, "escala_por_superficie": true, "superficie_ficha_ha": 39.74, "diferencia_area_pct": -0.5}, "georreferencia": {"a_x": 11.793034553661332, "b_x": 464984.526108982, "a_y": -11.793034553661332, "b_y": 2860307.543619305, "factor_render": 1, "pagina_mapa": 358, "ficha_mapa": "57"}}, "geometry": {"type": "Polygon", "coordinates": [[[-111.32021421998228, 25.81590269396479], [-111.31661053916358, 25.81371901043045], [-111.312982250491, 25.812874937804832], [-111.31298174114471, 25.812681114127805], [-111.31274587967964, 25.812468639290586], [-111.3127447611718, 25.812042676788497], [-111.31250890140232, 25.811830201532562], [-111.31250806317854, 25.81151072962304], [-111.31203551051652, 25.810766305931516], [-111.31203407108877, 25.81021683564698], [-111.3132066376781, 25.80872343654301], [-111.31320612806076, 25.808529612759465], [-111.31365555145885, 25.80852864389387], [-111.3147132489565, 25.808100393142183], [-111.31530148171345, 25.80809911866828], [-111.31553621066705, 25.807885626893565], [-111.31600679598999, 25.80788460484908], [-111.31677959998774, 25.80739520387016], [-111.31765228040716, 25.80818133521913], [-111.31765317768016, 25.808517824103514], [-111.31671398408047, 25.809265311812272], [-111.31648260463488, 25.810739675892613], [-111.31754513763046, 25.81212174467033], [-111.31803809339631, 25.812565789490655], [-111.31825459486946, 25.812565315682694], [-111.31884170915662, 25.81213806442868], [-111.32001706953892, 25.81170951709799], [-111.32031985594296, 25.811434113752373], [-111.32192114881464, 25.81277022487834], [-111.32213528567118, 25.81276975052445], [-111.32201964430725, 25.813513304232316], [-111.32166755171191, 25.81383355720015], [-111.32119924082619, 25.814686521859656], [-111.32021421998228, 25.81590269396479]], [[-111.31520064367935, 25.810005530836822], [-111.31483477952892, 25.809569709466963], [-111.31426533939783, 25.809570941483287], [-111.31400949056214, 25.809803634483035], [-111.3137758323667, 25.810426069387045], [-111.31403290702083, 25.810657654474795], [-111.31483765051871, 25.81065591394941], [-111.31509349953177, 25.810423219517475], [-111.31520064367935, 25.810005530836822]]]}}]}
