{"type": "FeatureCollection", "features": [{"type": "Feature", "properties": {"uga": "58", "politica": "aprovechamiento-sustentable", "procedencia": {"metodo": "digitalizacion-semiautomatica", "fuente": "Mapa de ubicación de la ficha UGA 58, Boletín Oficial No. 12 (12-mar-2014), p. 361 del PDF", "datum": "UTM 12N con desplazamiento de +30 m E y +165 m N ajustado contra la costa (INC-011)", "correccion_borde_px": 1.4, "precision_aprox_m": 23.0, "escala_por_superficie": true, "revisada_en_qgis": false}, "control": {"residuo_georreferencia_m": 0.0, "area_digitalizada_ha": 151.55, "escala_por_superficie": true, "superficie_ficha_ha": 151.51, "diferencia_area_pct": 0.0}}, "geometry": {"type": "Polygon", "coordinates": [[[-111.33249983891045, 25.831439000295337], [-111.33074789418536, 25.831442998884814], [-111.33051618284956, 25.83123435317735], [-111.32947609788758, 25.83123671537272], [-111.32924438916349, 25.831028067605523], [-111.32866656512816, 25.8310293757881], [-111.32843485821617, 25.830820726706268], [-111.32808816437559, 25.83082150995414], [-111.32669909197377, 25.829987947622488], [-111.32405655399357, 25.8280255353404], [-111.32405394572866, 25.827067549166504], [-111.32428449786897, 25.8268578616676], [-111.32428335810528, 25.826439517824998], [-111.32451390863362, 25.82622982995955], [-111.32451248296488, 25.825706900119233], [-111.32474303168141, 25.825497211886645], [-111.32474189037517, 25.825078867984747], [-111.32497215195733, 25.824764593405785], [-111.32497129539927, 25.82445083545715], [-111.3256617849875, 25.823403423508456], [-111.3263531226126, 25.822669766241237], [-111.32635226249474, 25.82235600824531], [-111.32658251461316, 25.822041731088888], [-111.32621390578593, 25.82162211000972], [-111.32586723865967, 25.821622887701345], [-111.32563555510716, 25.821414233662225], [-111.32496011661406, 25.821206572101307], [-111.32334461442409, 25.822046868585954], [-111.32311350211774, 25.822047382584135], [-111.32288295711103, 25.82225706829456], [-111.32265184438609, 25.822257581562504], [-111.32242129815496, 25.822467266546163], [-111.32159393641754, 25.82246909968218], [-111.32136225861119, 25.822260438799255], [-111.32055336390248, 25.82226222516571], [-111.32009057591944, 25.82205407178825], [-111.31962835112456, 25.822055089068346], [-111.31872194036214, 25.821030027648984], [-111.31872105567756, 25.82069955669849], [-111.3206806999405, 25.81891727194309], [-111.32102594947392, 25.818393576150367], [-111.32102510355679, 25.818079817804282], [-111.3217172871926, 25.817659940434552], [-111.32171672205027, 25.817450768198448], [-111.32296365025728, 25.816211777081893], [-111.32330973382545, 25.816001834220973], [-111.32608294022234, 25.815995639590493], [-111.32679554237262, 25.81545229054322], [-111.3277170619318, 25.814404348483457], [-111.32771648633349, 25.81419517627835], [-111.32896360669999, 25.813060720179244], [-111.32965573293593, 25.812640805269403], [-111.3305985726609, 25.812638664179442], [-111.33115663144326, 25.813036925954478], [-111.33127974283741, 25.815755900346094], [-111.33174398215233, 25.816486948486087], [-111.33186366006592, 25.817967601590915], [-111.33107756637328, 25.81868268591978], [-111.33049980236795, 25.818684000809217], [-111.32934629927007, 25.81941872581777], [-111.32874923944985, 25.819961825869083], [-111.32863455142184, 25.820275845219257], [-111.32748188437303, 25.821324313543748], [-111.3273669041352, 25.821533745878785], [-111.32737117212118, 25.823085823113235], [-111.32807811693931, 25.82382679392647], [-111.3281841765164, 25.82373032421085], [-111.32887752286742, 25.823728756829144], [-111.3291080600228, 25.823519061726014], [-111.32935764090408, 25.823518496320087], [-111.32958933504905, 25.823727144262307], [-111.33028268128339, 25.823725570177], [-111.33051437743953, 25.823934216618756], [-111.3313232827054, 25.82393237470186], [-111.3315549810725, 25.824141019456853], [-111.33224832957939, 25.824139435970245], [-111.33269118201122, 25.82464254069257], [-111.33280995711016, 25.825792720907547], [-111.33329420895687, 25.826228772277794], [-111.33396910323393, 25.826227222814122], [-111.33419963610923, 25.826017519746266], [-111.33572038064156, 25.826014014446805], [-111.33627940599234, 25.826726012541435], [-111.33628004417751, 25.826951896807685], [-111.33581957162049, 25.82758048074378], [-111.33582016180202, 25.82778965239157], [-111.33535938891569, 25.828313649035188], [-111.33536027300617, 25.82862740648778], [-111.33512973719836, 25.828837111351525], [-111.33513120971591, 25.829360040406268], [-111.334785991401, 25.829883768625415], [-111.33342377410487, 25.83122771008475], [-111.33273038438787, 25.831229299583857], [-111.33249983891045, 25.831439000295337]], [[-111.33039022347609, 25.827490442310115], [-111.3306415022114, 25.827261882674193], [-111.33075594724909, 25.826859988751707], [-111.33027170200444, 25.82642392889486], [-111.32971265639657, 25.826529784955056], [-111.32934610612269, 25.826863190868227], [-111.32934721745691, 25.827264821859856], [-111.32959976042638, 25.827492237383943], [-111.33039022347609, 25.827490442310115]]]}}]}
