{"type": "FeatureCollection", "features": [{"type": "Feature", "properties": {"uga": "59", "politica": "conservacion", "procedencia": {"metodo": "digitalizacion-semiautomatica", "fuente": "Mapa de ubicación de la ficha UGA 59, Boletín Oficial No. 12 (12-mar-2014), p. 364 del PDF", "datum": "UTM 12N con desplazamiento de +30 m E y +165 m N ajustado contra la costa (INC-011)", "correccion_borde_px": 1.4, "precision_aprox_m": 23.0, "escala_por_superficie": false, "revisada_en_qgis": false}, "control": {"residuo_georreferencia_m": 0.0, "area_digitalizada_ha": 772.73, "escala_por_superficie": false, "superficie_ficha_ha": 778.11, "diferencia_area_pct": -0.7}}, "geometry": {"type": "Polygon", "coordinates": [[[-111.5246009058833, 25.84085582956128], [-111.52426455982678, 25.841162634311537], [-111.52322375867004, 25.84116638707407], [-111.52299338974976, 25.841376517981107], [-111.52218387613651, 25.84137943037918], [-111.5219535049425, 25.841589559665483], [-111.51869696355622, 25.841601225091413], [-111.51846476107379, 25.84139275271419], [-111.5177708916751, 25.8413952277009], [-111.51753869119707, 25.84118675380637], [-111.516729178173, 25.84118963578647], [-111.51649697989785, 25.840981160186786], [-111.51545617904328, 25.84098485727], [-111.51522398336796, 25.8407763795894], [-111.51406753972026, 25.840780476834727], [-111.5138353468433, 25.840571996885455], [-111.51291019333269, 25.84057526655016], [-111.51267800285727, 25.84036678470817], [-111.51186849479376, 25.840369639516414], [-111.51163630652145, 25.840161155969717], [-111.51094154455969, 25.839954299824235], [-111.51036153043687, 25.839537735622578], [-111.51013024395927, 25.839538548029914], [-111.50966587751759, 25.839121574801872], [-111.5092024102208, 25.838913898515756], [-111.50817848733152, 25.837994453141587], [-111.50747972618477, 25.836845736423765], [-111.50678276170746, 25.836115613285], [-111.50620010937956, 25.835071135673534], [-111.50608046435153, 25.83412969429728], [-111.50589706493345, 25.83396499514396], [-111.50601225778992, 25.83385994306484], [-111.50584696374884, 25.83360725285569], [-111.50596037636967, 25.833083603288664], [-111.50572776796109, 25.832770460329737], [-111.505492938023, 25.831934069941074], [-111.50560405654893, 25.830870450673107], [-111.50583443669247, 25.830660346882315], [-111.50582998860152, 25.82961385258936], [-111.50605071751862, 25.829307492570514], [-111.50587660021294, 25.829151122378562], [-111.50605858598625, 25.82898515068968], [-111.5065162190358, 25.82783239520929], [-111.50720644285109, 25.826992779592665], [-111.50720555094571, 25.82678348068505], [-111.50766495008294, 25.82604931938342], [-111.50960232510839, 25.824282297688942], [-111.51041037788221, 25.82396550882702], [-111.51135342592272, 25.823315460907086], [-111.51112044552912, 25.822914399411594], [-111.51054006614642, 25.822393184244667], [-111.50954057556294, 25.820661587886327], [-111.5096557524904, 25.82055653296874], [-111.50930663971376, 25.82003450135424], [-111.50942181625457, 25.81992944661904], [-111.50925698254618, 25.819781409147698], [-111.50925384930558, 25.819048862451215], [-111.50902126043127, 25.818735723880422], [-111.50901544461618, 25.817375279710774], [-111.50883206744328, 25.817210583557156], [-111.50901403107932, 25.8170446082312], [-111.50901000506124, 25.816102762074646], [-111.50923990347151, 25.81578800339824], [-111.50923498090162, 25.814636857920625], [-111.50946487595182, 25.814322098876715], [-111.5094630852177, 25.813903500472673], [-111.50969342615382, 25.81369339067083], [-111.50969208253461, 25.813379441854103], [-111.50992242206341, 25.81316933169566], [-111.51003624703422, 25.81275032765486], [-111.51038175330231, 25.81243516147871], [-111.51038085639424, 25.81222586225533], [-111.51187667731052, 25.81054618400909], [-111.51187585875655, 25.810355711140158], [-111.51208628948044, 25.810354970071643], [-111.51381509501398, 25.809093055990463], [-111.51404632221225, 25.809092238610912], [-111.51473819489276, 25.808671185906597], [-111.51508503440768, 25.80866995751585], [-111.51531535531073, 25.808459838959294], [-111.51612464596764, 25.808456968236378], [-111.51635496460135, 25.80824684806095], [-111.5172798663936, 25.808243560278786], [-111.51762579505436, 25.80803302673807], [-111.51855069500036, 25.808029730896955], [-111.51878100847081, 25.807819606944], [-111.51972438119437, 25.807816237739697], [-111.52007213170377, 25.808024296522817], [-111.52122825607675, 25.80802015635091], [-111.52146039712586, 25.808228626191877], [-111.52215407281628, 25.80822613655009], [-111.52238621586606, 25.808434604875668], [-111.52319550544225, 25.808431694796965], [-111.52389102311395, 25.80884779462324], [-111.52412224946617, 25.808846961226244], [-111.52470215917783, 25.8092634738112], [-111.52493338630684, 25.809262639111708], [-111.52632537295298, 25.810304117030608], [-111.52653580310266, 25.810303355049086], [-111.52653664509714, 25.810493827475792], [-111.5287463325983, 25.813416035642632], [-111.52886659739117, 25.81446210787023], [-111.52933558381507, 25.815925514112973], [-111.52933744456531, 25.816344111078557], [-111.52945492611597, 25.81676228691514], [-111.52963833062222, 25.816926956631022], [-111.52945639639736, 25.817092957333703], [-111.52934635803608, 25.818349169065854], [-111.52918328827802, 25.81860302862098], [-111.52929937603396, 25.818707256818215], [-111.52911743865549, 25.81887325710606], [-111.52911976394601, 25.81939650311552], [-111.52889037676252, 25.819815941575502], [-111.52889223626948, 25.82023453834719], [-111.52843392007104, 25.82117806335202], [-111.52723670514511, 25.822900789326898], [-111.52788634962504, 25.823379824962476], [-111.5291610399505, 25.824003094178657], [-111.53099673455435, 25.825442682975083], [-111.53309071401874, 25.82826058654297], [-111.53309212024855, 25.828574533544938], [-111.533324791431, 25.828887631889742], [-111.53355980972579, 25.829723974717396], [-111.53356403247221, 25.830665815420602], [-111.53379858676466, 25.831397508630747], [-111.5338019478355, 25.83214677390107], [-111.53368678155985, 25.832251847634282], [-111.53368912832612, 25.832775092291655], [-111.53352557952839, 25.83292430745586], [-111.53357865408793, 25.833926655143166], [-111.53334878663672, 25.834241451088342], [-111.53335066302151, 25.834660046725734], [-111.53312032467602, 25.834870193403866], [-111.5331222003095, 25.835288789020623], [-111.5328918603576, 25.835498935343917], [-111.532548222597, 25.83623274975826], [-111.53220270812362, 25.83654796776985], [-111.53197376793435, 25.83707205935476], [-111.53151401139856, 25.837701645861063], [-111.53026781045253, 25.83883853027306], [-111.529806173816, 25.839049515874326], [-111.52876911343434, 25.839890499374704], [-111.52842218370023, 25.8398917618249], [-111.52784582491064, 25.84031245975324], [-111.52749889389416, 25.840313720017487], [-111.5272685342778, 25.840523857586643], [-111.52657467092403, 25.84052637454827], [-111.52634430924236, 25.840736510677335], [-111.52588173278761, 25.84073818608967], [-111.52565136945778, 25.840948321139056], [-111.52470773502432, 25.840951732857786], [-111.5246009058833, 25.84085582956128]], [[-111.50929215977207, 25.83286476414393], [-111.50947646169404, 25.83269667653931], [-111.50917464224531, 25.832425642222095], [-111.5080367571273, 25.832429625482636], [-111.50785476897842, 25.832595599608457], [-111.50757421162936, 25.83243124211369], [-111.50738990738024, 25.83259932734547], [-111.50762440672402, 25.832809913666065], [-111.50792255018192, 25.83276490773025], [-111.5080386336804, 25.832869152783335], [-111.50831778011158, 25.832702838543412], [-111.50850118084713, 25.832867534648354], [-111.50929215977207, 25.83286476414393]], [[-111.51647360717655, 25.832933598924054], [-111.51622981667343, 25.83271469859238], [-111.51590138564718, 25.83271586516544], [-111.51571940822019, 25.832881848976726], [-111.51554527310627, 25.832725490719433], [-111.51525731467382, 25.832988139326904], [-111.51514122483957, 25.83288390014074], [-111.51502372579388, 25.83299107113148], [-111.51514214915868, 25.833097405724036], [-111.51537251642104, 25.83288728706237], [-111.51572078714162, 25.83320000376482], [-111.51588435901766, 25.833050808299173], [-111.51624092651015, 25.83314583111644], [-111.51647360717655, 25.832933598924054]], [[-111.51978127261918, 25.825083454445327], [-111.52014750706495, 25.824749364732728], [-111.52026137930301, 25.824347076471426], [-111.51989223961353, 25.824015618175398], [-111.51944774813755, 25.823912556710397], [-111.5189658860054, 25.82424705765297], [-111.51885200945931, 25.82464934497034], [-111.51922160477909, 25.82508545517736], [-111.51978127261918, 25.825083454445327]]]}}]}
