{"type": "FeatureCollection", "features": [{"type": "Feature", "properties": {"uga": "5a", "politica": "preservacion", "procedencia": {"metodo": "digitalizacion-semiautomatica", "fuente": "Mapa de ubicación de la ficha UGA 5a, Boletín Oficial No. 12 (12-mar-2014), p. 160 del PDF", "datum": "UTM 12N con desplazamiento de +30 m E y +165 m N ajustado contra la costa (INC-011)", "correccion_borde_px": 1.4, "precision_aprox_m": 166.0, "escala_por_superficie": false, "revisada_en_qgis": false}, "control": {"residuo_georreferencia_m": 47.5, "area_digitalizada_ha": 1429.81, "escala_por_superficie": false, "superficie_ficha_ha": 1422.74, "diferencia_area_pct": 0.5}}, "geometry": {"type": "Polygon", "coordinates": [[[-111.70622876931036, 26.363923190390043], [-111.70142802181415, 26.37055932100871], [-111.68632234520317, 26.37063251862543], [-111.68464991127037, 26.36914105665722], [-111.68313617113405, 26.369148285980064], [-111.6831281501391, 26.36778391214067], [-111.68130517218138, 26.366158070680314], [-111.67847193379804, 26.368105941871523], [-111.67062115630857, 26.362594876929858], [-111.66309268449703, 26.355132557504323], [-111.66304566205086, 26.346885656825567], [-111.66220976024049, 26.34613978393252], [-111.66302789013308, 26.343767847221006], [-111.66297730205484, 26.334890147843616], [-111.66165729078578, 26.333712168905695], [-111.66296021877413, 26.33189126743478], [-111.66212442746806, 26.33114539044035], [-111.66246322640006, 26.329210005688676], [-111.66127586931029, 26.328150345925675], [-111.66124606085997, 26.32290229763663], [-111.65955765665638, 26.318411625676635], [-111.65773579086398, 26.316785452164115], [-111.65607295217119, 26.316793069549714], [-111.65440168790333, 26.3153012212373], [-111.64622084552252, 26.315338319676037], [-111.64456632187932, 26.316845252503235], [-111.6420720557814, 26.316856442317494], [-111.64041745624587, 26.31836332834225], [-111.63875458931483, 26.318370745325957], [-111.62964124088114, 26.324409004478753], [-111.62300592391122, 26.324437991286928], [-111.62296662226885, 26.317091893153467], [-111.62447970342551, 26.3170853118894], [-111.62944395120802, 26.31256513860486], [-111.63110673826698, 26.312557831079843], [-111.63241402390265, 26.31136737111905], [-111.63443231046828, 26.31254315820187], [-111.63608690800696, 26.311036340116857], [-111.64190657601866, 26.311010411284744], [-111.64784189856759, 26.304850714680413], [-111.64783431337653, 26.30348631879524], [-111.65431865057356, 26.30345688832384], [-111.65435157386506, 26.309319627402047], [-111.65617327421224, 26.310945848679694], [-111.66103679454777, 26.312422999462836], [-111.66284003430538, 26.310780134345762], [-111.66282723778707, 26.308530966531386], [-111.66441580190889, 26.307083600846763], [-111.66182473362302, 26.30477076216926], [-111.65700436427456, 26.304792921369266], [-111.66277180365466, 26.298784564451417], [-111.66276404573179, 26.29742017149654], [-111.66939777188409, 26.297389374032452], [-111.6717540456275, 26.299492530919178], [-111.67177201649486, 26.302610354223386], [-111.66929959911161, 26.30637062218557], [-111.6693118361006, 26.308500853020707], [-111.67098318764702, 26.309992527194947], [-111.67183185082702, 26.312987519546496], [-111.67103570135039, 26.3191081118521], [-111.66938576286898, 26.321365045583235], [-111.67024673874678, 26.326490266951], [-111.67275419520689, 26.32872774076359], [-111.67277654969222, 26.332595269437128], [-111.67112646044913, 26.33485222201336], [-111.6711863218908, 26.345229342042384], [-111.67203093675225, 26.347474596324496], [-111.6755298476412, 26.35134188500844], [-111.67802483606512, 26.35133009898696], [-111.67969692509719, 26.352821648648817], [-111.68136027061091, 26.35281374734046], [-111.68470461885953, 26.355796745021863], [-111.68803139082705, 26.355780805152364], [-111.68955304740906, 26.357137901788686], [-111.68956638827808, 26.35938704191314], [-111.69222556490271, 26.361758474912577], [-111.69472076813115, 26.36174639373391], [-111.69639321972303, 26.363237739163047], [-111.6980567084127, 26.36322964105126], [-111.70091661909456, 26.365779656006456], [-111.703001793544, 26.36387959838372], [-111.70221754204195, 26.360825045009467], [-111.70303648235301, 26.35870688409034], [-111.706196982563, 26.358691337037225], [-111.70622876931036, 26.363923190390043]]]}}]}
