{"type": "FeatureCollection", "features": [{"type": "Feature", "properties": {"uga": "5b", "politica": "conservacion", "procedencia": {"metodo": "digitalizacion-semiautomatica", "fuente": "Mapa de ubicación de la ficha UGA 5b, Boletín Oficial No. 12 (12-mar-2014), p. 163 del PDF", "datum": "UTM 12N con desplazamiento de +30 m E y +165 m N ajustado contra la costa (INC-011)", "correccion_borde_px": 1.4, "precision_aprox_m": 166.0, "escala_por_superficie": false, "revisada_en_qgis": false}, "control": {"residuo_georreferencia_m": 47.5, "area_digitalizada_ha": 31602.4, "escala_por_superficie": false, "superficie_ficha_ha": 32132.16, "diferencia_area_pct": -1.6}}, "geometry": {"type": "MultiPolygon", "coordinates": [[[[-111.78110170524432, 26.47968137264727], [-111.78188384143027, 26.481985696475515], [-111.78022879757545, 26.48349417600456], [-111.78028952335757, 26.492490389804694], [-111.77863431150733, 26.493998852434927], [-111.77872021171721, 26.506743471353815], [-111.77706477971046, 26.50825191775081], [-111.77716065570911, 26.522495878951073], [-111.77550498252208, 26.524004309362397], [-111.77558056818964, 26.535249523607455], [-111.77392469532855, 26.536757937463225], [-111.77396403600977, 26.54262033204091], [-111.77161503572042, 26.542633066758945], [-111.76865059717403, 26.54533314035946], [-111.75911246959613, 26.539086703379017], [-111.75906728594927, 26.532220625894077], [-111.75982961879338, 26.53152632210026], [-111.7590582036502, 26.530840187244248], [-111.75902861390497, 26.52634208347026], [-111.75685027658598, 26.524404413063433], [-111.75386459878875, 26.52636947554642], [-111.75388908870822, 26.530117900022898], [-111.75271270459768, 26.531189214235468], [-111.75355054232905, 26.531934499396666], [-111.75156387059532, 26.533743675413707], [-111.74741561176855, 26.53376548132664], [-111.74739705941737, 26.53090178681004], [-111.74557057174744, 26.529276873398885], [-111.74321494321114, 26.53078859385195], [-111.74141555998234, 26.53079796128676], [-111.73974006530545, 26.529307239230132], [-111.73724127400297, 26.5293201801923], [-111.7339623763512, 26.527148037725812], [-111.72973540748873, 26.527859362474214], [-111.72737335851427, 26.525757342102715], [-111.7273639083132, 26.524257962625526], [-111.72568868807437, 26.522767068382194], [-111.72567454772481, 26.52051799726174], [-111.72391564828065, 26.51895253446751], [-111.72052011387515, 26.522043558827846], [-111.7205567165006, 26.52790603708273], [-111.71640863867913, 26.527926936664382], [-111.71396770897277, 26.526499830303756], [-111.71272528233568, 26.527630617758195], [-111.70771747565627, 26.52317276888504], [-111.70854576494916, 26.522418940355166], [-111.70475985729699, 26.519048469341428], [-111.70316964452607, 26.52049566950454], [-111.69983814996031, 26.52051205495125], [-111.69485895589207, 26.523535268661234], [-111.68986157253283, 26.523559529058602], [-111.68820471774224, 26.525066969290755], [-111.6840567131495, 26.525086925874326], [-111.68403529682772, 26.52147349105671], [-111.67899860565527, 26.517613908633503], [-111.67767239680347, 26.518820381248688], [-111.68103482147767, 26.52405239765996], [-111.67972637531017, 26.52524268468902], [-111.6797432438143, 26.528106423786475], [-111.67822742266569, 26.52811364121486], [-111.67608967376194, 26.530058170350358], [-111.67392925592063, 26.52813401887856], [-111.6674158264184, 26.528164652216113], [-111.66740291164602, 26.525931674006483], [-111.67070408779209, 26.520668150167694], [-111.67068735534707, 26.517788283590114], [-111.6693651391355, 26.51661044683385], [-111.67060788363028, 26.515480029439345], [-111.66849327020726, 26.512850427701252], [-111.66220508213948, 26.520077076643915], [-111.66223441747783, 26.52518992877262], [-111.66071862919611, 26.525196959381272], [-111.65897781878677, 26.526780041226452], [-111.65976139172203, 26.52969971139731], [-111.65576324300561, 26.529718153861833], [-111.65575548915142, 26.528353803033767], [-111.65441598502413, 26.527160403636056], [-111.6531558174987, 26.528306266707897], [-111.6539357713396, 26.53061132057607], [-111.65311478380876, 26.532729189934944], [-111.64813350287706, 26.53275191976806], [-111.64645915844055, 26.531260079216054], [-111.64494328564068, 26.53126694361231], [-111.64575955317832, 26.528280484519666], [-111.6456973032044, 26.5171538736815], [-111.6431024933858, 26.51484145532333], [-111.63888444995774, 26.520183441774236], [-111.63889615146172, 26.522297502650098], [-111.63571459866854, 26.52231171914163], [-111.63142131647979, 26.526214459959398], [-111.63144921416917, 26.531312449153784], [-111.62310380636964, 26.525366265950154], [-111.62060503977483, 26.525377161624576], [-111.6180982412512, 26.52388860024789], [-111.61475061906343, 26.52090417102968], [-111.60822098018464, 26.520932164971605], [-111.60309779739225, 26.52558732753237], [-111.60310492776873, 26.526951692724964], [-111.59577508040456, 26.526982503119196], [-111.59408674345924, 26.522626245396467], [-111.58556130930509, 26.513529717962616], [-111.58138199694154, 26.510547897753554], [-111.5797163537284, 26.51055467557292], [-111.57386424599373, 26.50607995843257], [-111.57219866500566, 26.506086647444945], [-111.57052567722242, 26.50459388671552], [-111.56719455558013, 26.50460716667272], [-111.56552165311092, 26.50311434557632], [-111.56142118646031, 26.502440889080198], [-111.56017749072493, 26.503570373215165], [-111.5580194727634, 26.50164441762441], [-111.53983217847893, 26.501714377369687], [-111.5381736360796, 26.50322010731409], [-111.53484253584038, 26.503232631440305], [-111.53318390588436, 26.504738304387732], [-111.5306855460375, 26.504747617907416], [-111.52854569116113, 26.506689976023576], [-111.52687324892983, 26.50519669501448], [-111.52569564694322, 26.506265555269145], [-111.52238099215033, 26.506277728864852], [-111.52236811386068, 26.503430017748105], [-111.52388365442552, 26.503424461790942], [-111.52569178854425, 26.501783288383418], [-111.52852525300659, 26.498458488956793], [-111.52816609520245, 26.496526015282804], [-111.52892961217466, 26.495832921983702], [-111.52765810062245, 26.494697521964177], [-111.52633122034652, 26.495901996122967], [-111.52633743508727, 26.497266385089496], [-111.52317304690283, 26.497278019963066], [-111.52316293683957, 26.495044973423216], [-111.52434113024012, 26.493975516444287], [-111.52397919777218, 26.49141224215852], [-111.52147097482214, 26.489172221645205], [-111.52095960353506, 26.48274186669708], [-111.52010631226868, 26.48197973637777], [-111.51344814101087, 26.48651775912607], [-111.51562243091189, 26.488459850842887], [-111.51797044792865, 26.48845135052633], [-111.5179765619613, 26.489815742739612], [-111.51964866485083, 26.491309136213637], [-111.52133772194479, 26.496551121313548], [-111.52135449632489, 26.50026872183692], [-111.51892973874868, 26.498103329523406], [-111.5163586294087, 26.50043683256943], [-111.51637136337942, 26.503285777189323], [-111.51436468374636, 26.501493661775346], [-111.51351809738794, 26.502261950394733], [-111.51387703041509, 26.504194462731252], [-111.51188631969704, 26.50600098038128], [-111.5105651456864, 26.50482102911548], [-111.50571842156765, 26.504838288829323], [-111.50605759623734, 26.50228860233732], [-111.5052042550081, 26.50152638567717], [-111.50311334523279, 26.503423615898516], [-111.50389014128932, 26.505729548378138], [-111.50306655181741, 26.507846602205536], [-111.49988532196474, 26.507857783179094], [-111.49822616366764, 26.509363056356847], [-111.49642703082513, 26.50936932764027], [-111.49475495777243, 26.507875665286353], [-111.49075881467877, 26.50788946621035], [-111.49322981590035, 26.50564785908402], [-111.49481355234006, 26.50195316578756], [-111.49305732728506, 26.50038418397731], [-111.49139180649203, 26.50038992861252], [-111.48971992951049, 26.498896202660987], [-111.48603796525566, 26.498594004640637], [-111.48138894269259, 26.502058551866728], [-111.48140081513377, 26.504907511045136], [-111.47556316229849, 26.498944078984344], [-111.47319837791625, 26.498951939491793], [-111.46973009775193, 26.502097405178663], [-111.46973619486643, 26.50359686005562], [-111.46855739168181, 26.5046658731518], [-111.46974485774221, 26.505727106230353], [-111.46975143974525, 26.507345495863515], [-111.46576844780284, 26.510957291298595], [-111.46575393446146, 26.5073586007318], [-111.4619264823891, 26.503937754980914], [-111.46358604404851, 26.50243289743067], [-111.46275026221309, 26.501685872130754], [-111.46406072085264, 26.50049754099132], [-111.4640552406555, 26.499133139769608], [-111.46557073821438, 26.499128203860725], [-111.46820935171634, 26.496735300092983], [-111.46820327624002, 26.495235843445627], [-111.47316586829656, 26.4869723547599], [-111.47316021790144, 26.485591832957926], [-111.47100159903803, 26.48291541448667], [-111.47231176194589, 26.481727008432745], [-111.47229951304237, 26.478728090285763], [-111.4743075446484, 26.476906553620296], [-111.47227550659943, 26.472849186250635], [-111.47225971738007, 26.46898159757193], [-111.47473271784955, 26.462975471189342], [-111.47552578360063, 26.453376138931027], [-111.47968684114502, 26.457096048739164], [-111.48378526147056, 26.45777188718601], [-111.48703915595044, 26.455571691986805], [-111.48870403250666, 26.45556600705184], [-111.49134118168443, 26.453172681392573], [-111.49250649791493, 26.449104560962738], [-111.49123585981238, 26.447968816749867], [-111.48964388614489, 26.449413680120273], [-111.48633084191066, 26.449424993790156], [-111.4863251115277, 26.448060587226454], [-111.4845705156135, 26.44649208877338], [-111.48282909558536, 26.448072441866735], [-111.48284729088506, 26.452435774965824], [-111.4795341568411, 26.452446932241763], [-111.47285032435349, 26.44647126413564], [-111.47133551809092, 26.446476268142916], [-111.47132642993485, 26.44424318810648], [-111.47449112052824, 26.440619057333883], [-111.47782044939296, 26.44060796629309], [-111.48113732062613, 26.43759786615897], [-111.48376765123808, 26.437588988526368], [-111.48577205376533, 26.439380959652283], [-111.4849428701129, 26.44013351826114], [-111.4857956201629, 26.44089587072361], [-111.48946041391227, 26.437569609140663], [-111.49195733948562, 26.43756103754198], [-111.4966041616834, 26.434095538479657], [-111.49533365122294, 26.432959826569565], [-111.49210019646232, 26.435894991411644], [-111.49207854553002, 26.430796811982432], [-111.49075912733926, 26.42961726255421], [-111.4915881985505, 26.428864670678013], [-111.49075277791667, 26.428117796776178], [-111.49323992770351, 26.42586000702832], [-111.49238724178905, 26.425097696514207], [-111.49155820237026, 26.425850292969187], [-111.48621498303777, 26.42181994081344], [-111.4870252014871, 26.416585088570532], [-111.49186824505838, 26.416568515007825], [-111.49367550571316, 26.41492773989523], [-111.4936696975615, 26.413563328249182], [-111.4968483396376, 26.41355232219183], [-111.50182817350934, 26.41053595838454], [-111.50362576920557, 26.41052964084987], [-111.50481188649609, 26.4115899929693], [-111.5097914249939, 26.40857335528248], [-111.51146223229243, 26.410066880126454], [-111.51230816950154, 26.409298603435325], [-111.50845812156476, 26.404363408993245], [-111.50596191713717, 26.40437225853845], [-111.50429126283144, 26.40287866606138], [-111.50179508873974, 26.40288744245116], [-111.50060908896545, 26.401827062365168], [-111.49943227461196, 26.402895709833686], [-111.49680273712725, 26.40290486459275], [-111.49513222031241, 26.401411162878166], [-111.49195391006624, 26.4014221261423], [-111.49193548126092, 26.39707488776506], [-111.49607904418195, 26.397060583157124], [-111.49768257363904, 26.398494424137347], [-111.49975457005836, 26.396612836535247], [-111.50190964613527, 26.398539743768602], [-111.50393503069466, 26.39733241660847], [-111.50057351582942, 26.39357997694953], [-111.49525010975618, 26.393913287619434], [-111.4952373839844, 26.390930462744475], [-111.49973620447297, 26.388350178834717], [-111.49773248502024, 26.38655838129811], [-111.5035216634048, 26.38653813341832], [-111.5051920690349, 26.388031741807453], [-111.50935182391831, 26.388016999206343], [-111.5151954380094, 26.392494561197314], [-111.51769807087327, 26.393985021321388], [-111.52019404728341, 26.393975970310255], [-111.52221551413507, 26.3957828868334], [-111.52422065500585, 26.393961277098978], [-111.52684997856052, 26.39395162147433], [-111.53170860159518, 26.397547315339846], [-111.53256470287296, 26.40279233828227], [-111.53390150819655, 26.403986945462588], [-111.53522727334443, 26.40278240268748], [-111.53685731878039, 26.39541391793964], [-111.54169944063648, 26.395395670563367], [-111.54350566064612, 26.39375427655954], [-111.54349927217692, 26.39238987166208], [-111.54584533208633, 26.392380942890412], [-111.54758573605882, 26.390799218022146], [-111.54680599254073, 26.387878813025832], [-111.55261307852446, 26.387856510335098], [-111.55578673172532, 26.390692016468165], [-111.55262663377064, 26.390704253349266], [-111.5513005085569, 26.391909571834454], [-111.5534736171302, 26.393851130794665], [-111.55879471274542, 26.389646783904823], [-111.56295538710528, 26.39336368572636], [-111.5612986745073, 26.39486967766019], [-111.56415712094125, 26.397423064816103], [-111.5641832143567, 26.402790089500048], [-111.5633548054597, 26.40354309489132], [-111.56420873662714, 26.408038174736458], [-111.56262118427027, 26.410234180136204], [-111.56389208939925, 26.411369291518447], [-111.56521762060814, 26.41016447561982], [-111.56520373872347, 26.407315516887024], [-111.57020173806016, 26.411779232291998], [-111.57171606699649, 26.411773187713568], [-111.57256231784812, 26.41463370284131], [-111.57431759380738, 26.41620111742879], [-111.57590804535978, 26.41475532784007], [-111.57853781725072, 26.414744714868785], [-111.57972465131121, 26.415804433711862], [-111.58090084183695, 26.414735137165703], [-111.58669134611259, 26.414711502310766], [-111.58339571760948, 26.417707815459583], [-111.58174645747823, 26.420713485621764], [-111.58175714719233, 26.42284371813681], [-111.58608764332796, 26.426709777420463], [-111.58775207799934, 26.42670294525639], [-111.589424137506, 26.428195535349875], [-111.59509981072145, 26.42817202488868], [-111.59511066658807, 26.430286130481253], [-111.59776960941606, 26.43265930102849], [-111.59943412600713, 26.43265233143235], [-111.60848163706507, 26.44072612646842], [-111.61018181417087, 26.447466476090586], [-111.61653810720398, 26.453137156821036], [-111.61786354955495, 26.451931860972394], [-111.6178562685916, 26.45056748520036], [-111.61937109133065, 26.45056092724336], [-111.62117703471723, 26.44891856879892], [-111.62199402373474, 26.44605114430994], [-111.62682165629579, 26.446030051306714], [-111.62768578570844, 26.45188905107863], [-111.63019928510911, 26.454876909140737], [-111.63369604245892, 26.457995417769705], [-111.6377082608914, 26.457977564769593], [-111.63689974867678, 26.46232837061523], [-111.63538477703635, 26.46233511715898], [-111.63372805639223, 26.463841934702852], [-111.63039814731236, 26.463856669104114], [-111.62907202487453, 26.465062697149783], [-111.63242245885573, 26.468796546285894], [-111.63111411440008, 26.46998639445647], [-111.63112982677276, 26.472866303020606], [-111.63295382869575, 26.474492741957288], [-111.63448549538721, 26.474485944873685], [-111.63779917209351, 26.471472272774665], [-111.64709044192111, 26.47143047646809], [-111.6487639098457, 26.472922337808726], [-111.65029555098795, 26.472915371540136], [-111.65195217877029, 26.47140836528879], [-111.6552657564491, 26.471393200294994], [-111.65527348526778, 26.472757562148498], [-111.65709781796178, 26.474383686510286], [-111.658612940863, 26.474376706764538], [-111.6586207101725, 26.47574106713009], [-111.66029438737498, 26.47723278852208], [-111.65997229281129, 26.4821669576752], [-111.66215320734631, 26.48485648242088], [-111.66548651309598, 26.482456756333665], [-111.66546571688146, 26.478843286074284], [-111.67029467603975, 26.478820698751196], [-111.67114387601681, 26.481680550702222], [-111.67882325272384, 26.48777708221675], [-111.68118772256771, 26.487765819025068], [-111.68284414754011, 26.48625846105755], [-111.68700729570564, 26.486238487125444], [-111.68881280431063, 26.484595289183616], [-111.6887957431849, 26.48173153805871], [-111.69197614431907, 26.4817161593158], [-111.696592424331, 26.47676043879791], [-111.69742950465096, 26.47750607454895], [-111.69875054907716, 26.475669274434658], [-111.69692562275564, 26.474043694240947], [-111.69541051623743, 26.474051080373517], [-111.69539780651321, 26.471937029590688], [-111.69288226972384, 26.468950364918815], [-111.69203182859462, 26.465955595102], [-111.68867958808897, 26.46222317769079], [-111.6869650222035, 26.45386552630539], [-111.68896918708703, 26.45204103120898], [-111.6889513427929, 26.449042216014778], [-111.68690790793381, 26.44423830266258], [-111.68515070710227, 26.442672312174707], [-111.68356127057983, 26.444119293496524], [-111.67858383742185, 26.444143013577214], [-111.67857584367898, 26.442778652747876], [-111.67522471839763, 26.43904588619955], [-111.67520217773058, 26.435178416997644], [-111.67836454253444, 26.432299588364167], [-111.68182690274975, 26.43228311720377], [-111.68350023111458, 26.433774582058376], [-111.68682923961637, 26.433758626610665], [-111.688351927274, 26.435115701549023], [-111.69088447813495, 26.44110129534773], [-111.69270879085076, 26.442726972075945], [-111.69521245559388, 26.441080309238703], [-111.69516827774922, 26.433718318508276], [-111.69931299655445, 26.433698103360094], [-111.70168543208382, 26.435185929627107], [-111.7038210264908, 26.43324103452182], [-111.70598012001815, 26.435164784151436], [-111.71014141018193, 26.435144172398996], [-111.71181513712894, 26.436635297116318], [-111.7133462781344, 26.436627664335106], [-111.71467118543656, 26.43542087271577], [-111.71165318497061, 26.431986580267136], [-111.70998871534829, 26.431994856190627], [-111.70664148750996, 26.429012537637778], [-111.70094937012328, 26.429040557520118], [-111.69597408450264, 26.43206376993057], [-111.6908472633275, 26.432088636676223], [-111.68917386733713, 26.430597258846213], [-111.68516263904806, 26.430616538690963], [-111.68596913824884, 26.42626547921951], [-111.68748362265161, 26.42625820541113], [-111.68963641766871, 26.42429793107495], [-111.68662388411416, 26.421612791611565], [-111.68329522430356, 26.42162873550666], [-111.68162207762072, 26.42013726227974], [-111.67829345669823, 26.420153088935873], [-111.67677108502257, 26.418795897957057], [-111.67675726345337, 26.416427837771867], [-111.6817235912899, 26.41190587296285], [-111.68171116551662, 26.409791797700805], [-111.68821028600273, 26.411260136370345], [-111.68905939067936, 26.41411990973406], [-111.69165279392938, 26.416431551188943], [-111.69339084509393, 26.414848705525785], [-111.69337810867192, 26.41271851701568], [-111.69170496648691, 26.41122715992963], [-111.69165579446587, 26.402980372775453], [-111.68998281743565, 26.401488990325415], [-111.68994734243603, 26.39552232669016], [-111.69244007876915, 26.397744587814106], [-111.69563469645693, 26.397729092915593], [-111.69728967056353, 26.39622157764404], [-111.70060106778202, 26.396205403387636], [-111.70060930417256, 26.397569766763127], [-111.70236601076857, 26.399135586499344], [-111.70560946763239, 26.39618079465859], [-111.70892085775803, 26.396164427907333], [-111.70894365855793, 26.399896839135092], [-111.70818186012161, 26.40059087239627], [-111.70993939939414, 26.402157206913298], [-111.71396614663259, 26.40213716938127], [-111.71570435570686, 26.400553441705007], [-111.7149340888494, 26.39986703246731], [-111.7149110954272, 26.396134626094042], [-111.71739050135193, 26.396122217515355], [-111.72142297166313, 26.399715527081472], [-111.72143695514615, 26.40196463835586], [-111.7232610570823, 26.403589937907135], [-111.72562378619993, 26.403577973980152], [-111.72727844347456, 26.40207011928293], [-111.73142200213708, 26.402048996632995], [-111.7314399543971, 26.404896633977216], [-111.72742965178207, 26.404917081234487], [-111.72314846210578, 26.409572199311558], [-111.7231569685295, 26.410936553437526], [-111.72164269587853, 26.41094420097892], [-111.71983878566029, 26.412587798074973], [-111.71578096821575, 26.41854650469193], [-111.72340134631926, 26.426080997193132], [-111.72506572610982, 26.426072566862047], [-111.7299269866963, 26.428911672884087], [-111.729941153093, 26.43116077072998], [-111.73496303342354, 26.435633377242677], [-111.73500184072142, 26.441749888302013], [-111.73336022151113, 26.445387994603095], [-111.74006674604156, 26.452850625972232], [-111.74009147110431, 26.456718031296028], [-111.7393294985354, 26.457412228932224], [-111.74010509172783, 26.45884818487222], [-111.74360486699307, 26.461963940198505], [-111.74680121936022, 26.461947265641847], [-111.75011155490553, 26.458931048338673], [-111.75342470535377, 26.458913613581416], [-111.75344412293613, 26.461896262988795], [-111.7501476038706, 26.467042702497235], [-111.7534970509988, 26.470023939687543], [-111.75518162819192, 26.47301390807898], [-111.75443019938993, 26.475326495626266], [-111.75618950981101, 26.476892208240447], [-111.75951970500785, 26.47687453355211], [-111.76453481742071, 26.479846629058486], [-111.7677316484443, 26.47982947549273], [-111.77071158338394, 26.477113835557034], [-111.76870219530754, 26.47532596681984], [-111.77269699795, 26.47530440627981], [-111.77932696059534, 26.470770094013876], [-111.78180792741989, 26.470756534025025], [-111.78186356426916, 26.478986956546084], [-111.78110170524432, 26.47968137264727]], [[-111.55877709490784, 26.468728790314977], [-111.55618080928515, 26.46566439562805], [-111.54632420986022, 26.465702435060287], [-111.5445169281433, 26.467343864980503], [-111.54452695419931, 26.46947409725845], [-111.54718579491178, 26.471848198364494], [-111.55134853103081, 26.4718321884504], [-111.55302079312263, 26.4733251922133], [-111.55538502365539, 26.473316017294376], [-111.55877709490784, 26.468728790314977]], [[-111.62619072557403, 26.464700492745614], [-111.62450036427207, 26.463192928459105], [-111.62282635409494, 26.464715202024326], [-111.62451671669284, 26.466222785795047], [-111.62619072557403, 26.464700492745614]], [[-111.62202830191825, 26.46471867953907], [-111.6199197480846, 26.462838015605076], [-111.61783144140286, 26.46473689399173], [-111.61958877790629, 26.466304330034674], [-111.62202830191825, 26.46471867953907]]], [[[-111.66893031598076, 26.375288821272935], [-111.67638979448668, 26.381941912909316], [-111.67640289492485, 26.38419105142852], [-111.67772363787584, 26.385368872345705], [-111.67689610208286, 26.38612252127524], [-111.67726531012701, 26.389418984775737], [-111.67575130336844, 26.38942614112409], [-111.67278841226278, 26.39212424826018], [-111.67111583226557, 26.390632635238507], [-111.66862015333348, 26.393658754408992], [-111.66995891019825, 26.39485268073167], [-111.67147298954008, 26.394845584305262], [-111.67148088304162, 26.396209956281695], [-111.67363806170634, 26.398133616392098], [-111.67233093019361, 26.39932383065346], [-111.67233883532991, 26.400688201535296], [-111.66750523529156, 26.402210297901586], [-111.66404517458086, 26.405360384903727], [-111.66405736829333, 26.407490588580725], [-111.6662189467807, 26.410164067570264], [-111.66491590297007, 26.412103927688186], [-111.65994463087216, 26.415875609482104], [-111.65912878176967, 26.418743241748793], [-111.65498456319789, 26.418762281929247], [-111.65379702417289, 26.417703200881864], [-111.65214117300675, 26.419210225087078], [-111.64845705616018, 26.415178421892236], [-111.64844457002728, 26.41294539983027], [-111.6517564779963, 26.412930347028283], [-111.65294394889118, 26.413989446978185], [-111.65461683746973, 26.412466830563588], [-111.65507950092196, 26.40903144755792], [-111.66170260078209, 26.403122041120284], [-111.65668068033337, 26.39789704476624], [-111.65743360849942, 26.395584917652123], [-111.65490767477583, 26.393331792114164], [-111.65316940299223, 26.394914178810357], [-111.65318552040205, 26.397777985668398], [-111.65070604579971, 26.39778928248629], [-111.64618244478442, 26.395245793096517], [-111.64087194958049, 26.400832604998705], [-111.6383924036828, 26.400843689642794], [-111.63833888518222, 26.39111348528651], [-111.64165012494215, 26.38809973409172], [-111.64164183843982, 26.386600298803575], [-111.64323171599185, 26.385153158918218], [-111.63994559762901, 26.380728935721066], [-111.64069048682462, 26.3769174494453], [-111.63692043320904, 26.372060974009525], [-111.6382276346302, 26.37087107758917], [-111.638211163103, 26.36787219746941], [-111.64303620159318, 26.364986717098166], [-111.6456648134063, 26.364974890590076], [-111.64810566047686, 26.367152995751308], [-111.64984359585542, 26.36557067088722], [-111.64982339203848, 26.361957130183658], [-111.65298401552178, 26.361942755561035], [-111.65299168063075, 26.363307138919794], [-111.65731799668204, 26.366421354258375], [-111.66383886833432, 26.36639127582044], [-111.66564288650252, 26.364748372591073], [-111.66639181923107, 26.361805412441104], [-111.6637951873867, 26.358742933657336], [-111.65561130577503, 26.358780625316033], [-111.65229704664068, 26.36104497071796], [-111.65050026399052, 26.36105314228804], [-111.64813891392544, 26.35819995050234], [-111.64812989155656, 26.356581576471264], [-111.64971509505267, 26.35438464773333], [-111.64795908846735, 26.35281753404538], [-111.64130565714862, 26.35284747226672], [-111.63963404986332, 26.351355465288535], [-111.63812052752162, 26.35136221456478], [-111.63811304089005, 26.349997824923243], [-111.63461948532296, 26.34687932078162], [-111.63129293214317, 26.34689401570232], [-111.62544727080056, 26.342421199214467], [-111.62143903626455, 26.342438637237798], [-111.62224739432632, 26.338087850868916], [-111.62376074860555, 26.338081272341405], [-111.62639244329148, 26.335685507888826], [-111.6263648379202, 26.330556364396397], [-111.62468972157905, 26.328314443028997], [-111.62466969333404, 26.324581930338635], [-111.6278458309107, 26.324568056580198], [-111.63364170447461, 26.320044096213184], [-111.63862215705994, 26.31852251355966], [-111.64027678250989, 26.31701564781718], [-111.64277105289882, 26.317004489165893], [-111.64442560245844, 26.31549757661581], [-111.65786143360678, 26.315436569662403], [-111.66021787619444, 26.317539907835158], [-111.6610876064964, 26.324283572685026], [-111.66240750296978, 26.32546156054522], [-111.66158028299327, 26.326215121006395], [-111.66277615973857, 26.32877422024007], [-111.66291284459241, 26.352765239407738], [-111.66626532106226, 26.357248111282487], [-111.67477650830138, 26.364840686855935], [-111.6787942303641, 26.36632117072493], [-111.67799298675845, 26.37155698981953], [-111.67483658717678, 26.375185516732113], [-111.67303959408537, 26.375193975232456], [-111.6706687595489, 26.373705630513864], [-111.66893031598076, 26.375288821272935]]], [[[-111.69230505908995, 26.375102116846698], [-111.68651769225747, 26.381127847797575], [-111.68320671517385, 26.381143687801526], [-111.68313705959963, 26.369299458218684], [-111.68811127791652, 26.369275642109226], [-111.68978375728373, 26.370767062709287], [-111.69462471202358, 26.370743661278937], [-111.69465070363623, 26.37509075570708], [-111.69230505908995, 26.375102116846698]]], [[[-111.71289654094787, 26.366139351078562], [-111.7121007059095, 26.3720061061735], [-111.70879000687741, 26.372022532600937], [-111.70461279259493, 26.369044220908318], [-111.70309906013307, 26.369051661220027], [-111.70308101343574, 26.366068939633617], [-111.70638528281005, 26.362304016819742], [-111.70635421387728, 26.357191095418457], [-111.71299128584874, 26.357158213530184], [-111.71466389906696, 26.35864934315483], [-111.71617749225803, 26.358641783359452], [-111.71703601517949, 26.36298470326327], [-111.71552236572421, 26.362992273283048], [-111.71289654094787, 26.366139351078562]]], [[[-111.72716571584341, 26.384077232654274], [-111.72896282550892, 26.3840680920132], [-111.7346685307157, 26.389151957929563], [-111.73470164308581, 26.394383756187015], [-111.73222228381154, 26.394396463922494], [-111.73054892388504, 26.39290556213882], [-111.72888502195062, 26.392914046439554], [-111.7255384725281, 26.389932140771638], [-111.72400795197584, 26.389939891468256], [-111.72235342017954, 26.39144770818613], [-111.71223676211443, 26.391498413272203], [-111.70987786739514, 26.389396000592516], [-111.70984047232021, 26.38327941079499], [-111.71217330844534, 26.381153689058067], [-111.71631613442986, 26.381133019006192], [-111.7163245500039, 26.382497380607635], [-111.71814826917905, 26.384122757461228], [-111.72599120560557, 26.38514770440673], [-111.72716571584341, 26.384077232654274]]]]}}]}
