{"type": "FeatureCollection", "features": [{"type": "Feature", "properties": {"uga": "60", "politica": "aprovechamiento-sustentable", "procedencia": {"metodo": "digitalizacion-semiautomatica", "fuente": "Mapa de ubicación de la ficha UGA 60, Boletín Oficial No. 12 (12-mar-2014), p. 367 del PDF", "datum": "UTM 12N con desplazamiento de +30 m E y +165 m N ajustado contra la costa (INC-011)", "correccion_borde_px": 1.4, "precision_aprox_m": 21.0, "escala_por_superficie": false, "revisada_en_qgis": false}, "control": {"residuo_georreferencia_m": 15.7, "area_digitalizada_ha": 116.03, "escala_por_superficie": false, "superficie_ficha_ha": 117.93, "diferencia_area_pct": -1.6}}, "geometry": {"type": "MultiPolygon", "coordinates": [[[[-111.30652383302959, 25.829119770115472], [-111.30742004411455, 25.830211456291366], [-111.30711062362597, 25.83049338106801], [-111.30600605041548, 25.829496311317193], [-111.30550673329607, 25.829497361992853], [-111.3057558101743, 25.829270422374943], [-111.30550246845672, 25.828853262078358], [-111.30550101374071, 25.8282865377776], [-111.30523190784007, 25.8280436145473], [-111.30533581509407, 25.82794894168147], [-111.30528883779448, 25.826775710508983], [-111.30487389366148, 25.82640113161752], [-111.30508218993063, 25.826400694468294], [-111.30453923800908, 25.826099028232818], [-111.30433094225728, 25.826099464599064], [-111.30412216383971, 25.82591099247554], [-111.30380972069165, 25.825911646011814], [-111.30360094342387, 25.825723173124207], [-111.30339264831161, 25.825723608139675], [-111.30215910848827, 25.8247042503733], [-111.30205424278752, 25.824421104479686], [-111.30168076708256, 25.82408393668655], [-111.30178467376665, 25.823989266314047], [-111.30147151798211, 25.823706552339388], [-111.30157542450809, 25.82361188211304], [-111.30100919586378, 25.82300645309692], [-111.30090409568722, 25.822628852102785], [-111.30069532878854, 25.82244037486351], [-111.30069318167797, 25.821590287266574], [-111.30048370176978, 25.82111844711104], [-111.30048250982823, 25.820646176141057], [-111.29985598574808, 25.819986287199743], [-111.29975112978453, 25.819703139375147], [-111.29922923124649, 25.81923194121064], [-111.29922852507521, 25.818950946838665], [-111.2996430873848, 25.818950092787343], [-111.30360673217284, 25.821397689132873], [-111.30379619537015, 25.821397293227363], [-111.30390101887697, 25.821663365057614], [-111.30390438382388, 25.822981536863264], [-111.30338446356099, 25.822512167835615], [-111.30215154659162, 25.82251473631998], [-111.3019249549441, 25.822721189545884], [-111.30192563631091, 25.822989847412735], [-111.30225765924892, 25.82328959420347], [-111.3025700955599, 25.82328894406539], [-111.30277886690021, 25.823477418549835], [-111.30317862905841, 25.82347658514025], [-111.30338643880579, 25.823287242194283], [-111.30371569527476, 25.82328655447933], [-111.30390560015123, 25.823457993761576], [-111.30411533908926, 25.82402428279705], [-111.3041163043134, 25.824402099272916], [-111.30432508004907, 25.824590571467812], [-111.3045348230307, 25.82515685977386], [-111.30476246943557, 25.825362364753428], [-111.30495193892249, 25.825361967284692], [-111.30537119332537, 25.82640008744535], [-111.30574488548967, 25.82681462666289], [-111.30564097954463, 25.826909299824127], [-111.30579138195182, 25.82779894952825], [-111.30652383302959, 25.829119770115472]]], [[[-111.31612503381375, 25.83638689634606], [-111.31602208615455, 25.836842319352666], [-111.3151908334739, 25.836844125210906], [-111.31468767035051, 25.836390016933187], [-111.31468717069383, 25.836201109198456], [-111.31447835813859, 25.836012652530435], [-111.31447785882263, 25.835823744782086], [-111.31406023636805, 25.835446830495194], [-111.3140597377285, 25.835257922724544], [-111.31331003460555, 25.834581287432755], [-111.31310172417966, 25.83458173650741], [-111.3126841104437, 25.834204818119723], [-111.31247580066442, 25.834205266290873], [-111.31092889271004, 25.832903295519543], [-111.31071984525411, 25.832620379305816], [-111.31071886489501, 25.832244931797582], [-111.31267919747846, 25.832335180796278], [-111.31278310245742, 25.832240502680538], [-111.31372048091993, 25.832238481718363], [-111.31382438497843, 25.832143802865144], [-111.314657609523, 25.832142000787808], [-111.31476151274488, 25.832047321270867], [-111.31559448603801, 25.831951059910736], [-111.31653035452496, 25.831382297367675], [-111.31779593646083, 25.830229008291933], [-111.31821102654992, 25.82966137301932], [-111.31820727773821, 25.828259268626923], [-111.31757985963702, 25.827316096194014], [-111.31703898687637, 25.826827931696414], [-111.31641409652177, 25.82682929368469], [-111.31620529787315, 25.826640839128025], [-111.31476604763556, 25.826643963759327], [-111.31466119542087, 25.826377900211128], [-111.3147641008172, 25.825907772973057], [-111.3149535709926, 25.825907362456412], [-111.3151613660221, 25.82571800286867], [-111.31630698774757, 25.82571551381302], [-111.31715642994384, 25.82475204406723], [-111.31714992640092, 25.822310944364705], [-111.31673083574807, 25.821367312459724], [-111.31652204628219, 25.821178858131827], [-111.31631250463819, 25.820707041332877], [-111.31631124993143, 25.820234771041537], [-111.31610221235955, 25.819951861990464], [-111.31609895875265, 25.818726327325255], [-111.31649469572466, 25.818725466153733], [-111.31670544530483, 25.819652480290323], [-111.31691473518049, 25.82002984253605], [-111.31691574084927, 25.820407658760146], [-111.31714339923471, 25.820613144366867], [-111.3185825762294, 25.820609996872484], [-111.31858303603573, 25.820781832052262], [-111.31889622426988, 25.82106450896554], [-111.31900112684522, 25.821347642494604], [-111.31964638000768, 25.82193002521284], [-111.3204795325843, 25.821928190421993], [-111.32068832957712, 25.82211663897369], [-111.32152148337454, 25.822114798197475], [-111.3217302823301, 25.82230324522863], [-111.32202589544299, 25.822302590522746], [-111.32223367287943, 25.82211322089433], [-111.32244196129872, 25.82211275893339], [-111.32306580126058, 25.82173355535157], [-111.32410621134937, 25.821353420741875], [-111.32473004197611, 25.820974210065632], [-111.32495514818696, 25.82097370694077], [-111.3251639504977, 25.821162149035562], [-111.32547638053813, 25.821161449706846], [-111.32568518399786, 25.821349891036842], [-111.32629173846613, 25.821537439625995], [-111.32629380298377, 25.822290702895256], [-111.3256715209346, 25.823236643868714], [-111.32484093706579, 25.82418304788197], [-111.324841968077, 25.82456086359613], [-111.32463419060659, 25.82475023689116], [-111.3246352209876, 25.82512805258359], [-111.32422094914011, 25.825979067865276], [-111.32422172098241, 25.826262429600156], [-111.32401393957628, 25.826451802001987], [-111.32401496806645, 25.8268296176292], [-111.32380744231133, 25.827113443636485], [-111.32380868069754, 25.82756864026978], [-111.32339408932869, 25.827569563531362], [-111.32318527843202, 25.82738111914027], [-111.32288965274084, 25.82738177632421], [-111.32214387716975, 25.82815614031112], [-111.3219994454451, 25.82951869782792], [-111.32210385177677, 25.829612920877814], [-111.32193992168516, 25.82976231817785], [-111.32194401003682, 25.831273580189777], [-111.32163329421918, 25.831918376370165], [-111.32050643935533, 25.83192086645178], [-111.3201762174309, 25.83231648519435], [-111.3201771831753, 25.832675409886715], [-111.31976156349624, 25.832300325387997], [-111.31946793007847, 25.832300971314123], [-111.31946721518324, 25.832034682543256], [-111.31871750214688, 25.831358074952544], [-111.31769280003937, 25.831360319062377], [-111.31694671413692, 25.83204020260506], [-111.31715699480185, 25.83278067466176], [-111.31736580582556, 25.832969127576913], [-111.31736786042515, 25.833739463183775], [-111.31716005508171, 25.83392882581631], [-111.31695325549492, 25.834496003643057], [-111.3163303337974, 25.835252996604545], [-111.31622693114791, 25.835536584945036], [-111.31633284506991, 25.836197535202423], [-111.31612503381375, 25.83638689634606]], [[-111.31933713984216, 25.827115983767456], [-111.31966159847686, 25.8275972635184], [-111.32068626798787, 25.82759500582926], [-111.32091283594704, 25.827388523703743], [-111.3209118569244, 25.827025412555464], [-111.320684179711, 25.826819933210224], [-111.31965951687226, 25.82682219082181], [-111.31933713984216, 25.827115983767456]]]]}}]}
