{"type": "FeatureCollection", "features": [{"type": "Feature", "properties": {"uga": "61", "politica": "preservacion", "procedencia": {"metodo": "digitalizacion-semiautomatica", "fuente": "Mapa de ubicación de la ficha UGA 61, Boletín Oficial No. 12 (12-mar-2014), p. 370 del PDF", "datum": "UTM 12N con desplazamiento de +30 m E y +165 m N ajustado contra la costa (INC-011)", "correccion_borde_px": 1.4, "precision_aprox_m": 21.0, "escala_por_superficie": false, "revisada_en_qgis": false}, "control": {"residuo_georreferencia_m": 8.1, "area_digitalizada_ha": 64.18, "escala_por_superficie": false, "superficie_ficha_ha": 63.68, "diferencia_area_pct": 0.8}}, "geometry": {"type": "MultiPolygon", "coordinates": [[[[-111.30508021908383, 25.824912573030137], [-111.30508211181119, 25.825651061410955], [-111.30457894504566, 25.82519766003157], [-111.30394805801247, 25.823873481601645], [-111.30394245979275, 25.82168080733946], [-111.30409017538977, 25.821356663093855], [-111.30398535326236, 25.821262203809678], [-111.30415016987612, 25.821112301433395], [-111.30414730601974, 25.81999124396671], [-111.30398172726018, 25.819842032776997], [-111.30413823306789, 25.81969968749216], [-111.30393545062613, 25.818935143239333], [-111.30414344146733, 25.818478358122295], [-111.30433377227948, 25.818477959732387], [-111.30496026942976, 25.818097932228927], [-111.30664912074803, 25.81684651431556], [-111.3070659614762, 25.816277562680614], [-111.30706474080027, 25.815804172178932], [-111.30727340315926, 25.815614374005474], [-111.30727169311746, 25.81495162724692], [-111.30748010921393, 25.814667150656803], [-111.30747937586943, 25.814383116307628], [-111.30777358430706, 25.814115500745995], [-111.30860591683707, 25.814113736139486], [-111.30835556660234, 25.814341460746505], [-111.30860975882493, 25.814759435429877], [-111.30861294846684, 25.81599025066781], [-111.30888359448214, 25.81632859063797], [-111.30877926406242, 25.81642349090242], [-111.30892888591956, 25.81684168696687], [-111.30893064445054, 25.81751951279114], [-111.30861838587879, 25.818088247627973], [-111.30861912206113, 25.81837228180186], [-111.30801166109198, 25.818829920285534], [-111.30665214535227, 25.818832794909863], [-111.30644347641, 25.81902259216765], [-111.305397693244, 25.819024793278025], [-111.30485698992409, 25.819421685663183], [-111.30517214331182, 25.819974016352422], [-111.30611603339321, 25.82101349564332], [-111.30611676370147, 25.82129752976973], [-111.30632665514108, 25.821581123188604], [-111.30622474837664, 25.822620838384267], [-111.30582524802165, 25.822621679602292], [-111.30486668752968, 25.82320880770948], [-111.30507775397314, 25.823950713611072], [-111.30528764770175, 25.824234308407235], [-111.30508021908383, 25.824912573030137]]], [[[-111.31617410469534, 25.823177108111], [-111.31607661432199, 25.822711467497484], [-111.31523645284275, 25.82138779339925], [-111.315234447353, 25.82063036970346], [-111.31502478705275, 25.820441467263713], [-111.3150232441033, 25.819858320085764], [-111.3154400549292, 25.819289344942323], [-111.31543955327223, 25.819099988974834], [-111.31573375517328, 25.818832357532337], [-111.31604539864146, 25.818831680229682], [-111.31615068560826, 25.819098443903655], [-111.31604761520698, 25.819666739192662], [-111.31625777870934, 25.820044996107473], [-111.31625903616717, 25.820518385917946], [-111.31709995924146, 25.822126088010553], [-111.3171012201645, 25.822599477646836], [-111.31720605378152, 25.82269392734701], [-111.3172108873643, 25.82450788695655], [-111.31689890265291, 25.825171316733833], [-111.31658590724864, 25.825456034256558], [-111.31658636554268, 25.825628347218927], [-111.31587310343157, 25.82562989932928], [-111.31555985335656, 25.82581993676311], [-111.31503693238587, 25.82582107133185], [-111.31470514976812, 25.826122868467856], [-111.31470586086884, 25.82639182284801], [-111.31529243803601, 25.826731393713654], [-111.31539677215204, 25.826636488872573], [-111.31556241378786, 25.826785721986866], [-111.3161896724934, 25.82668968008364], [-111.31629450903397, 25.82678413036139], [-111.31681743417202, 25.826782991228015], [-111.3170271085716, 25.826971890786016], [-111.31734086413086, 25.826971205945433], [-111.31795152680645, 25.827710255449208], [-111.31795203265192, 25.827899611146243], [-111.31826680333297, 25.828277635653468], [-111.31826962870063, 25.829334171116273], [-111.31816529455872, 25.82942907798562], [-111.31816630701228, 25.829807789277286], [-111.31785380834773, 25.830281865071225], [-111.31733213018808, 25.830756397171843], [-111.31733258967061, 25.830928709996055], [-111.31714223918509, 25.830929125593137], [-111.31578509882264, 25.831878865120657], [-111.31547133027775, 25.831879546722316], [-111.31515806321497, 25.83206958328601], [-111.31411216628196, 25.83207184815849], [-111.31390348638169, 25.832261655887017], [-111.31053987380363, 25.832268883900515], [-111.31024423505384, 25.832002523211756], [-111.31024374138092, 25.831813167481382], [-111.30949101982169, 25.831134981050447], [-111.3092818419747, 25.831135426453613], [-111.30907217233306, 25.830946515781672], [-111.30844463974628, 25.830947849269815], [-111.30741591087924, 25.830304323367486], [-111.30731058921411, 25.830020510863932], [-111.30647144735657, 25.829075498746985], [-111.30647095975046, 25.828886142872925], [-111.30605115104552, 25.82831895693739], [-111.30584076161877, 25.827846007572315], [-111.30577780978733, 25.826939154831358], [-111.30541877312706, 25.82642671790807], [-111.30541780642193, 25.826049969486434], [-111.30572946909028, 25.826049314132163], [-111.306253365925, 25.826426924944865], [-111.3065498973619, 25.82623694274153], [-111.30698497124716, 25.826236024303196], [-111.30769990681173, 25.826880218657042], [-111.30812045346912, 25.827731433737576], [-111.3083345309581, 25.82962454854878], [-111.30854468801311, 25.83000281616433], [-111.30919256248885, 25.830586552422982], [-111.31065902497646, 25.831435530096943], [-111.31205998399385, 25.830430829765632], [-111.31222562682336, 25.830580066595694], [-111.3125393920399, 25.830579392034583], [-111.31274906647604, 25.830768297668115], [-111.31306283217312, 25.83076762197212], [-111.31327250776668, 25.830956526834658], [-111.31358627394431, 25.830955850003775], [-111.31379595069527, 25.8311447540953], [-111.31419782022576, 25.83123856402024], [-111.31484288337768, 25.830746732890425], [-111.31484213193592, 25.83046269936882], [-111.31505080720164, 25.830272890288462], [-111.31505030591893, 25.830083534600078], [-111.31555320890442, 25.829626094287708], [-111.31577911974233, 25.829625603511403], [-111.31618983648227, 25.8299011704471], [-111.31670417562275, 25.82981294699358], [-111.31693162801028, 25.829606051389483], [-111.31692889479562, 25.82857967444306], [-111.31659550762375, 25.82827932308303], [-111.31617716224753, 25.828280233950338], [-111.31596748685436, 25.828091333208814], [-111.31554914211351, 25.828092242261945], [-111.3153394680414, 25.827903340596954], [-111.3150257099642, 25.8279040211391], [-111.3147114511849, 25.827715345247523], [-111.31420614347364, 25.827260089517235], [-111.31420564360184, 25.827070733734935], [-111.31378580478835, 25.8265035702834], [-111.31378430724446, 25.825935502839577], [-111.313513874626, 25.825691850688766], [-111.31361820927276, 25.825596947106387], [-111.31357260475512, 25.82497409582885], [-111.31378127254241, 25.824784288498947], [-111.31378077340149, 25.8245949326444], [-111.3140311734746, 25.824367163453246], [-111.31419681022577, 25.824516398215916], [-111.31564423788485, 25.82451326164427], [-111.31608009364453, 25.82402187910806], [-111.31607808255215, 25.82326445574852], [-111.31617410469534, 25.823177108111]]]]}}]}
