{"type": "FeatureCollection", "features": [{"type": "Feature", "properties": {"uga": "62", "politica": "aprovechamiento-sustentable", "procedencia": {"metodo": "digitalizacion-semiautomatica", "fuente": "Mapa de ubicación de la ficha UGA 62, Boletín Oficial No. 12 (12-mar-2014), p. 373 del PDF", "datum": "UTM 12N con desplazamiento de +30 m E y +170 m N ajustado contra la costa (INC-011)", "correccion_borde_px": 1.4, "precision_aprox_m": 21.0, "escala_por_superficie": false, "revisada_en_qgis": false}, "control": {"residuo_georreferencia_m": 14.5, "area_digitalizada_ha": 88.31, "escala_por_superficie": false, "superficie_ficha_ha": 88.04, "diferencia_area_pct": 0.3}, "georreferencia": {"a_x": 10.416666665581534, "b_x": 466041.66666161036, "a_y": -10.427414873079284, "b_y": 2859842.375605176, "factor_render": 1, "pagina_mapa": 373, "ficha_mapa": "62"}}, "geometry": {"type": "Polygon", "coordinates": [[[-111.30404621287211, 25.82148451064906], [-111.30373647462054, 25.821485158289587], [-111.2996771280249, 25.819045434564856], [-111.29938342344748, 25.8187805399129], [-111.2993815294709, 25.818027266527587], [-111.29873801691872, 25.817540813133363], [-111.29821792331839, 25.81735356176494], [-111.29750758914862, 25.816712878627982], [-111.29740295997985, 25.816430613653342], [-111.29646553927687, 25.815585091226925], [-111.29625675688642, 25.815208878023913], [-111.29488395336546, 25.813970613771414], [-111.29446826811075, 25.81397145640794], [-111.29425996017717, 25.81378355872927], [-111.29390448575822, 25.81374476107286], [-111.29380079691965, 25.813839130422124], [-111.29363620107756, 25.81369066027068], [-111.29230373510664, 25.813599185896], [-111.29234648179536, 25.81318493285878], [-111.29167771399143, 25.812581664924476], [-111.29167629406757, 25.81200185466013], [-111.29177998302133, 25.811907486801672], [-111.29188209819998, 25.811170982573564], [-111.29291924218414, 25.81116889657226], [-111.29312754340616, 25.811356796297638], [-111.29352652563232, 25.811355991280625], [-111.29416734152787, 25.810772758257013], [-111.29541039393938, 25.80916952127454], [-111.29613617516685, 25.808508926147187], [-111.29613574922412, 25.808337586477425], [-111.29653063147875, 25.808336781634228], [-111.2965334019382, 25.809449714495088], [-111.29669784514118, 25.809598045899996], [-111.29659416211202, 25.809692417244502], [-111.2967424094783, 25.809920086985652], [-111.29674381692433, 25.81048504279807], [-111.2971618390484, 25.811425786648535], [-111.29768331704959, 25.812177997823127], [-111.29822287598945, 25.812664669760345], [-111.29947181167302, 25.813415380131573], [-111.29999141557592, 25.813414308787014], [-111.30019973181176, 25.813602198188246], [-111.30092717836, 25.813600694133193], [-111.30102297104025, 25.813687092427656], [-111.30111832596405, 25.81360029831601], [-111.3019496933594, 25.813598573845535], [-111.30226097817024, 25.813409607519965], [-111.30267666116795, 25.813408742617575], [-111.30361050763499, 25.812841837012442], [-111.30674480853864, 25.812835257239747], [-111.30736930177764, 25.813210576928043], [-111.3081399661213, 25.813905591131384], [-111.30745812391915, 25.814620659580093], [-111.3072085622251, 25.815414117127858], [-111.30731272766376, 25.815508056603008], [-111.30714903001521, 25.815657069275037], [-111.30715000146093, 25.816033705828836], [-111.30694336898262, 25.816504940539588], [-111.3062367804591, 25.81733688861939], [-111.30436903394184, 25.818470727319276], [-111.30403952359327, 25.818865034528173], [-111.30404381367777, 25.820545044287975], [-111.30414798117793, 25.820638985946964], [-111.30404621287211, 25.82148451064906]]]}}]}
