{"type": "FeatureCollection", "features": [{"type": "Feature", "properties": {"uga": "63", "politica": "preservacion", "procedencia": {"metodo": "digitalizacion-semiautomatica", "fuente": "Mapa de ubicación de la ficha UGA 63, Boletín Oficial No. 12 (12-mar-2014), p. 376 del PDF", "datum": "UTM 12N con desplazamiento de +30 m E y +165 m N ajustado contra la costa (INC-011)", "correccion_borde_px": 1.4, "precision_aprox_m": 21.0, "escala_por_superficie": false, "revisada_en_qgis": false}, "control": {"residuo_georreferencia_m": 10.9, "area_digitalizada_ha": 22.54, "escala_por_superficie": false, "superficie_ficha_ha": 23.06, "diferencia_area_pct": -2.3}}, "geometry": {"type": "Polygon", "coordinates": [[[-111.3014077423683, 25.813717167499945], [-111.300659644178, 25.813718716678896], [-111.3004501762367, 25.813530136288833], [-111.29982320387823, 25.813531430762133], [-111.29961373758096, 25.81334284914728], [-111.29919575663865, 25.813343710019137], [-111.29814891152728, 25.812589806770728], [-111.29785419181997, 25.81259041091687], [-111.29764382799068, 25.812040771718046], [-111.29732963788965, 25.811757894329894], [-111.29680481355183, 25.810813898914862], [-111.29680316512126, 25.810152354708688], [-111.29659347424183, 25.80986926223604], [-111.29648612134461, 25.808720147065667], [-111.29659037724988, 25.808625427602983], [-111.29658873017061, 25.807963883184783], [-111.29740428195697, 25.80731763998721], [-111.29792673178571, 25.807316570380067], [-111.29819566069641, 25.807072232118497], [-111.29846581004459, 25.80731546476178], [-111.29976372016216, 25.807352528159317], [-111.29986797225081, 25.807257806362127], [-111.30013812540483, 25.807501035857996], [-111.30139200656025, 25.80749844205358], [-111.3016014652671, 25.807687021324043], [-111.30179168249147, 25.807686626616032], [-111.30210678789199, 25.808330549255295], [-111.302003490696, 25.80880157964864], [-111.30139578500409, 25.808991854296288], [-111.30075154760246, 25.809577199694512], [-111.30064777127737, 25.80986093468946], [-111.29981373688845, 25.81061871130053], [-111.2998142126498, 25.810807723872966], [-111.29918986588609, 25.81184858459691], [-111.2992962213646, 25.812589167383077], [-111.30004791869905, 25.81317162886885], [-111.30222568581982, 25.81316711762206], [-111.30243419595523, 25.812977670517753], [-111.30286880473155, 25.812976765701528], [-111.30326703537025, 25.813335273672337], [-111.30276522333325, 25.813336319668707], [-111.3025567131079, 25.8135257672394], [-111.30161625477108, 25.813527721562977], [-111.3014077423683, 25.813717167499945]], [[-111.29866526986352, 25.81015025943416], [-111.29899675657978, 25.80984908715057], [-111.29899560876312, 25.80939180791234], [-111.29876734502758, 25.80918629301521], [-111.29815702415897, 25.80918754592881], [-111.2978255371219, 25.809488716327582], [-111.29782620786239, 25.8097569829794], [-111.29815943649787, 25.810151297701974], [-111.29866526986352, 25.81015025943416]]]}}]}
