{"type": "FeatureCollection", "features": [{"type": "Feature", "properties": {"uga": "64", "politica": "aprovechamiento-sustentable", "procedencia": {"metodo": "digitalizacion-semiautomatica", "fuente": "Mapa de ubicación de la ficha UGA 64, Boletín Oficial No. 12 (12-mar-2014), p. 379 del PDF", "datum": "UTM 12N con desplazamiento de +30 m E y +170 m N ajustado contra la costa (INC-011)", "correccion_borde_px": 1.4, "precision_aprox_m": 33.0, "escala_por_superficie": false, "revisada_en_qgis": false}, "control": {"residuo_georreferencia_m": 30.4, "area_digitalizada_ha": 1500.73, "escala_por_superficie": false, "superficie_ficha_ha": 1500.72, "diferencia_area_pct": 0.0}}, "geometry": {"type": "Polygon", "coordinates": [[[-111.34402567963173, 25.82808802440966], [-111.34304707527455, 25.828378296801475], [-111.34221975454751, 25.828380247580174], [-111.34136433828569, 25.829009489597023], [-111.33971653997033, 25.831413846290076], [-111.33971825317866, 25.832013965895637], [-111.33938988208422, 25.8329149186384], [-111.33905979605822, 25.83321575107965], [-111.33906100133949, 25.83363873475436], [-111.33842943775254, 25.83379023813547], [-111.33694274104349, 25.83469387884948], [-111.33542831663252, 25.836374828842736], [-111.33542916260379, 25.836674888579722], [-111.33509905613816, 25.836975712069854], [-111.33510279351867, 25.838302564161914], [-111.3364300123306, 25.83949974282851], [-111.33643432177276, 25.841023457137915], [-111.3359391474011, 25.841474695391515], [-111.33577570601835, 25.842198120845687], [-111.33547463701214, 25.842198816494133], [-111.33365852715403, 25.84370330684936], [-111.331480514341, 25.84370829374208], [-111.33108278287354, 25.843349521786333], [-111.33183846420509, 25.84266095061704], [-111.33183601815803, 25.841784188337854], [-111.33150421594216, 25.841484884400476], [-111.33150254345304, 25.84088476507115], [-111.3308389474229, 25.840286154746913], [-111.33083637875326, 25.83936255895781], [-111.33163102742392, 25.83833763730615], [-111.3321274619531, 25.838336503170247], [-111.3324575797485, 25.838035686377733], [-111.3327885352368, 25.8380349286008], [-111.33347858491614, 25.837406116709282], [-111.33347738893893, 25.836979443623324], [-111.3328129657351, 25.83608078205357], [-111.33281128704648, 25.83548066235759], [-111.33244952822733, 25.835154322688524], [-111.33148574596208, 25.834856463075663], [-111.33148456754496, 25.834433479143165], [-111.33015662253405, 25.83293619337873], [-111.3286349295652, 25.832012351142147], [-111.3279730518006, 25.832013846693506], [-111.32697858608472, 25.831415963982362], [-111.32631671152737, 25.831417451956657], [-111.32581948402976, 25.831118505713075], [-111.32452243479287, 25.83112140843097], [-111.32419231569956, 25.831422207487165], [-111.32353044092399, 25.831423682769657], [-111.32253844194554, 25.831725950371148], [-111.32187976382899, 25.831727411050263], [-111.32187855638183, 25.8312810099152], [-111.32204361889818, 25.831130613079967], [-111.32204077691127, 25.83008040173076], [-111.32220583757278, 25.82993000470421], [-111.32220096349796, 25.828129642029438], [-111.32253107864102, 25.827828847400504], [-111.32253033897196, 25.827555892929926], [-111.32368538392389, 25.827553324661814], [-111.32434887258526, 25.828151969740322], [-111.32849292891952, 25.830843219704157], [-111.32915480013865, 25.830841721847577], [-111.32948656650802, 25.831141031935655], [-111.3314721847777, 25.831136515694574], [-111.33180395774335, 25.831435820414125], [-111.33210819807286, 25.831435125329], [-111.33243829697899, 25.831134308482326], [-111.33310016955274, 25.83113279263818], [-111.33346008425532, 25.830804798973514], [-111.33345931942155, 25.830531844914113], [-111.33376035896812, 25.830531153732412], [-111.33412027003178, 25.83020315844116], [-111.33444951716821, 25.82960227700936], [-111.33510969129082, 25.829000631997346], [-111.33510800154973, 25.82840051185737], [-111.3354380844664, 25.82809968822817], [-111.33543681596447, 25.827649598087195], [-111.33616576663385, 25.826684420242255], [-111.33592861400203, 25.826021537312283], [-111.33556687579438, 25.825695204780867], [-111.33460080805143, 25.825697432360077], [-111.33325126805047, 25.826000595576694], [-111.33278435948685, 25.825851634466556], [-111.33278107975552, 25.82467849933581], [-111.3320875996709, 25.824052854999678], [-111.32993497805155, 25.82345763337031], [-111.32794990088831, 25.823612157616186], [-111.32748225728076, 25.823190224768307], [-111.32731178580624, 25.821366817444176], [-111.32780608431956, 25.820615547224183], [-111.32926120000475, 25.81913905177644], [-111.32959210305795, 25.819138301790677], [-111.33041769527301, 25.818536302289296], [-111.33074859661247, 25.818535549686942], [-111.331768608885, 25.817605931267256], [-111.33176533008407, 25.816429105285568], [-111.33110145341554, 25.815680462465536], [-111.33109471446714, 25.813256559576434], [-111.33149440024472, 25.81289227869355], [-111.33115903795102, 25.81258968555126], [-111.33073226034331, 25.812653569722972], [-111.33023510085913, 25.812354637162183], [-111.32943499791376, 25.812506483887784], [-111.32775447458837, 25.813887671259724], [-111.32742523599283, 25.814488538726994], [-111.32630022562361, 25.815664213130475], [-111.3259697427929, 25.81581498597046], [-111.32348803794045, 25.815820529989544], [-111.32282706330187, 25.816122062205643], [-111.32081753424309, 25.81825405680431], [-111.32081834271379, 25.818554117729757], [-111.31853746929245, 25.820632466918273], [-111.31735259830721, 25.820635058913357], [-111.31688500367981, 25.820213091326423], [-111.31688260786501, 25.819312908372904], [-111.31655090616516, 25.819013568409627], [-111.3165492484584, 25.818390029666574], [-111.31687935130523, 25.818089247592916], [-111.31687861509371, 25.817812603202142], [-111.31621482341355, 25.817063891714557], [-111.31588147566039, 25.81614101108432], [-111.31618175461081, 25.815867401580046], [-111.31687023674972, 25.815865902392144], [-111.31852791894444, 25.817062530694525], [-111.31949391817692, 25.817060410622087], [-111.32117336887438, 25.815229226451628], [-111.32117053657062, 25.81417901271446], [-111.32198204146006, 25.81313870584191], [-111.3205027642823, 25.811953431340918], [-111.3200707612782, 25.811264238205812], [-111.31947662330823, 25.81180565849667], [-111.3194773554612, 25.812078613640658], [-111.31835035571383, 25.812531180476928], [-111.31752634097506, 25.81253298263155], [-111.31752561327853, 25.812260027452727], [-111.31676638573688, 25.811574833488493], [-111.31717898997498, 25.811198855039056], [-111.31652857442282, 25.810611854841056], [-111.31652532276, 25.809388192554298], [-111.31751595231118, 25.808635874555343], [-111.31751481503714, 25.808209199101878], [-111.31725311908781, 25.807973014558495], [-111.3185037614577, 25.80683333477385], [-111.31824172839714, 25.806470537912734], [-111.31865431043562, 25.8060945552227], [-111.31850141743955, 25.805956567008696], [-111.31848898504225, 25.80130561215598], [-111.31815733000872, 25.801006274684426], [-111.31815532718419, 25.800256120341665], [-111.31696419673116, 25.79903136090604], [-111.31630170508681, 25.79873273972164], [-111.31450873702504, 25.798736628295472], [-111.31368280451797, 25.799188507592984], [-111.31335195636059, 25.799189220847694], [-111.31252640973602, 25.79979112458592], [-111.31134174536125, 25.799793665673537], [-111.31087425445243, 25.79937167659057], [-111.31087145382288, 25.798298042771414], [-111.31120151605278, 25.797997273141988], [-111.31119335085464, 25.794870037723555], [-111.31086173204903, 25.794570683013294], [-111.31085977571071, 25.793820527480023], [-111.31059812473673, 25.793584330078453], [-111.3108569759033, 25.79274689283988], [-111.3108538461012, 25.79154664364792], [-111.3111838898725, 25.791245873951333], [-111.31118238452787, 25.790669166044374], [-111.31085077755418, 25.790369811028636], [-111.3108499951834, 25.79006974865101], [-111.30952397681494, 25.789022351899252], [-111.3095227475518, 25.78854884140826], [-111.31018204317958, 25.78764724465609], [-111.31017820125099, 25.786170348773172], [-111.30884951246072, 25.784072725553063], [-111.30884408246142, 25.781975975856998], [-111.3096408113283, 25.781824250258186], [-111.31294526867188, 25.780466890584506], [-111.3149284612376, 25.779862482855123], [-111.31707503570986, 25.778507531244237], [-111.31740582636371, 25.778506810056566], [-111.3188911754602, 25.777303304793882], [-111.32367944795602, 25.774292088580253], [-111.32665029484623, 25.772034967066702], [-111.33044503599655, 25.7687256908788], [-111.33110614589967, 25.76857415615829], [-111.33295202307526, 25.76856994533822], [-111.33325366841217, 25.768842213135017], [-111.33325666674604, 25.769915848933312], [-111.33160742140667, 25.77156997047993], [-111.33127790009999, 25.772020817566872], [-111.33127914977753, 25.772470911342037], [-111.33094920861757, 25.772771726415566], [-111.33095253796192, 25.773971976336792], [-111.33062508655463, 25.77517297796024], [-111.33080955156558, 25.782050617523574], [-111.33130783552289, 25.782799643722612], [-111.33280063163679, 25.784296556354434], [-111.33329935691212, 25.785195606249953], [-111.33528884916313, 25.786841385494565], [-111.33794343365054, 25.789685847548462], [-111.33811267357522, 25.79103574019277], [-111.33827851164999, 25.791185386369005], [-111.338286600937, 25.794035970253805], [-111.33862084367874, 25.795235445886206], [-111.33862382735401, 25.79628566050985], [-111.33879095285165, 25.796885397833865], [-111.33928892264666, 25.797484363438674], [-111.33929020399532, 25.79793445526847], [-111.33978818072649, 25.798533419008315], [-111.3397899585586, 25.799156957999497], [-111.33962496252403, 25.799307374990452], [-111.33963986275832, 25.804535026442863], [-111.34063630968069, 25.805882978468734], [-111.34262668237214, 25.807678678546047], [-111.34262797691296, 25.80812876958808], [-111.34329145035207, 25.808727329923684], [-111.34345948268472, 25.809627121048393], [-111.34528452018225, 25.811423173513802], [-111.34528669486632, 25.81217332463879], [-111.34561888411922, 25.81262262898812], [-111.34562236721042, 25.81382287051039], [-111.34664762022818, 25.81474772264263], [-111.34730983827023, 25.814896173133302], [-111.34860738307982, 25.81621624133865], [-111.34861265381849, 25.81801660208601], [-111.35093558131908, 25.82026147795023], [-111.35093690799519, 25.82071156781632], [-111.35160093670147, 25.82146011796823], [-111.35160359525756, 25.822360297459607], [-111.35226763744498, 25.823108844256776], [-111.35227030123741, 25.824009023479302], [-111.35293480173682, 25.824907596754517], [-111.3527743030625, 25.82658174304211], [-111.35260928604798, 25.826732174425924], [-111.35261284181684, 25.827932412721765], [-111.34901434164367, 25.831964827027544], [-111.34851837397521, 25.832116048353534], [-111.34749842343193, 25.831968460503422], [-111.34669842985603, 25.831097292716503], [-111.34669711859743, 25.830647203290116], [-111.34570039284448, 25.829299300201118], [-111.34402567963173, 25.82808802440966]], [[-111.32873881737923, 25.804875146883052], [-111.32971726533701, 25.804584971450947], [-111.33007711009573, 25.80425698566116], [-111.33007551243183, 25.803680279854945], [-111.32954801412394, 25.803204275301304], [-111.32873383183804, 25.8030681897304], [-111.32807014352058, 25.803673109755163], [-111.32839054234469, 25.804560867578147], [-111.32873881737923, 25.804875146883052]]]}}]}
