{"type": "FeatureCollection", "features": [{"type": "Feature", "properties": {"uga": "65a", "politica": "preservacion", "procedencia": {"metodo": "digitalizacion-semiautomatica", "fuente": "Mapa de ubicación de la ficha UGA 65a, Boletín Oficial No. 12 (12-mar-2014), p. 382 del PDF", "datum": "UTM 12N con desplazamiento de +30 m E y +165 m N ajustado contra la costa (INC-011)", "correccion_borde_px": 1.4, "precision_aprox_m": 99.0, "escala_por_superficie": false, "revisada_en_qgis": false}, "control": {"residuo_georreferencia_m": 32.0, "area_digitalizada_ha": 3546.72, "escala_por_superficie": false, "superficie_ficha_ha": 3579.25, "diferencia_area_pct": -0.9}}, "geometry": {"type": "Polygon", "coordinates": [[[-111.59110472848087, 25.829711054811828], [-111.58958593799171, 25.831096489968303], [-111.58766571369961, 25.840892592258264], [-111.5867736721727, 25.84170619773048], [-111.58571107670693, 25.841710486363482], [-111.57091342344057, 25.835095535058233], [-111.56449000291346, 25.829781534018316], [-111.5635940456773, 25.829785012012717], [-111.56359020982579, 25.828975024247427], [-111.56053821930446, 25.826682353854395], [-111.55511859741587, 25.825368380746593], [-111.55274630626388, 25.825377423521385], [-111.55273394696164, 25.82271572785131], [-111.55371402997469, 25.82182214449691], [-111.55370575289827, 25.820042470717908], [-111.55468580687933, 25.819148880962217], [-111.55467129881204, 25.81603445092901], [-111.55565131302858, 25.81514085483197], [-111.55560772801854, 25.805797557086848], [-111.55658141699334, 25.803569197176007], [-111.55654230916127, 25.795195572774702], [-111.55743800731814, 25.795192142529817], [-111.5584178321111, 25.794298528400166], [-111.56038580417888, 25.794290959233372], [-111.56115958084621, 25.79358522874122], [-111.5616536671813, 25.794028249221935], [-111.5702150109473, 25.79202811960778], [-111.57148495950628, 25.792210243453155], [-111.57443042718874, 25.79086385943026], [-111.57492455043102, 25.791306834352355], [-111.58004383169536, 25.78976462134901], [-111.58249934620649, 25.788864955268902], [-111.58503617183963, 25.78655029223043], [-111.58502787683794, 25.78485960317505], [-111.586213810626, 25.785922653893415], [-111.58936710893859, 25.78483295191771], [-111.6135508479503, 25.784732969663445], [-111.62490063290088, 25.79135853189684], [-111.63025892902473, 25.797929426260115], [-111.6302683411514, 25.799709080774637], [-111.63126178679009, 25.801484466347524], [-111.63129714859276, 25.80815816395995], [-111.63179155211434, 25.808600939491722], [-111.63180807181213, 25.81171532911163], [-111.63230249226116, 25.81215810237907], [-111.63231941041425, 25.815344521715186], [-111.63182969761263, 25.81579157391237], [-111.63135607123205, 25.81927316541219], [-111.63046020403414, 25.819277054232263], [-111.6293928378734, 25.82025137306808], [-111.6279282889593, 25.82248232090581], [-111.62793298263391, 25.823372145611835], [-111.6250822539614, 25.825974122932383], [-111.62262631788273, 25.826874511636106], [-111.61967358502585, 25.826887133371848], [-111.61379564908562, 25.832251154566038], [-111.60633298478331, 25.83183756664522], [-111.60385646063388, 25.828733417420793], [-111.6024582796194, 25.82873922123769], [-111.59755483378032, 25.83231885786874], [-111.59403158902762, 25.832333305629046], [-111.59110472848087, 25.829711054811828]], [[-111.59589816329346, 25.81194681100005], [-111.59794538600894, 25.810078857738862], [-111.5979390473326, 25.808816142769782], [-111.59587324159341, 25.8069650760861], [-111.59103101667911, 25.80698484075409], [-111.58996342956777, 25.807958875496915], [-111.5899740908096, 25.810111425068015], [-111.59105132009368, 25.811076747813043], [-111.59252749858108, 25.811070738651217], [-111.59400811444695, 25.81195454624886], [-111.59589816329346, 25.81194681100005]]]}}]}
