{"type": "FeatureCollection", "features": [{"type": "Feature", "properties": {"uga": "65b", "politica": "conservacion", "procedencia": {"metodo": "digitalizacion-semiautomatica", "fuente": "Mapa de ubicación de la ficha UGA 65b, Boletín Oficial No. 12 (12-mar-2014), p. 385 del PDF", "datum": "UTM 12N con desplazamiento de +30 m E y +165 m N ajustado contra la costa (INC-011)", "correccion_borde_px": 1.4, "precision_aprox_m": 99.0, "escala_por_superficie": false, "revisada_en_qgis": false}, "control": {"residuo_georreferencia_m": 49.7, "area_digitalizada_ha": 15913.33, "escala_por_superficie": false, "superficie_ficha_ha": 15956.63, "diferencia_area_pct": -0.3}}, "geometry": {"type": "MultiPolygon", "coordinates": [[[[-111.57798859448715, 25.660404447364826], [-111.57872701881664, 25.65972848263556], [-111.58020627256744, 25.66105911614279], [-111.5762808567633, 25.667356362849628], [-111.5764947619144, 25.668512545442535], [-111.57579500052371, 25.66915305028069], [-111.57552048989882, 25.67157628818731], [-111.5735521975337, 25.67158403702299], [-111.57284717360868, 25.670949847219884], [-111.57186247054435, 25.671851094008463], [-111.57086920393945, 25.670957597717734], [-111.57017025779207, 25.671597289157777], [-111.56670879002594, 25.671610771764698], [-111.56593063216805, 25.672322910319558], [-111.56518571038293, 25.671652758019448], [-111.56395474880487, 25.67277925209956], [-111.56345813865825, 25.672332477555873], [-111.56198095392195, 25.673684252087167], [-111.56148434717748, 25.673237470820972], [-111.56048903285337, 25.67414825586516], [-111.56124454011673, 25.674827964444077], [-111.5616973514916, 25.674413609188623], [-111.56416020172936, 25.674404108515255], [-111.56416649007193, 25.67573980540473], [-111.56219896417082, 25.67799086213211], [-111.56073219654228, 25.681586046293532], [-111.55974731489992, 25.682487213021037], [-111.56025654579875, 25.685626104332755], [-111.55886800964123, 25.686896558035194], [-111.5489768131578, 25.68693411680126], [-111.54305836234852, 25.690545812031683], [-111.54206921081514, 25.69054949137636], [-111.53557694647063, 25.69648743042016], [-111.53508836198908, 25.697835301867936], [-111.53262730749998, 25.700536467083705], [-111.53214066883868, 25.702333013909318], [-111.5311554006083, 25.703233991247167], [-111.53116137466664, 25.70458004677821], [-111.53046314845037, 25.705669023528305], [-111.53095977843215, 25.706115908131984], [-111.53018204440367, 25.706827072960984], [-111.5296990052632, 25.709450389876658], [-111.53168759410462, 25.71168661097646], [-111.53418094894026, 25.71616441253709], [-111.53815051855555, 25.718841958375574], [-111.53770095074265, 25.72022498722231], [-111.53865531603203, 25.721083549154912], [-111.53845209000899, 25.722241323713362], [-111.54093577368347, 25.724475579916447], [-111.54044308554982, 25.724926098692116], [-111.5406567597074, 25.726082328785676], [-111.5382861752721, 25.72915099095506], [-111.53354556145477, 25.72898016143864], [-111.53235333955433, 25.730070169609988], [-111.5293888728765, 25.730978352493352], [-111.52683416224767, 25.732863324887013], [-111.52339054639617, 25.737362645409384], [-111.52339644208926, 25.738708696323194], [-111.5226979510598, 25.739797635013076], [-111.5231946967253, 25.74024454223365], [-111.52245546529446, 25.740920231443432], [-111.5232005909694, 25.74159059265711], [-111.5227077655107, 25.742041052562577], [-111.52341578816247, 25.74312494003162], [-111.52342164027745, 25.744460633385536], [-111.52202846727306, 25.74491432389779], [-111.52050247497017, 25.744507174700818], [-111.51955640674755, 25.745371853973687], [-111.51848722258804, 25.745375664231123], [-111.51699892532962, 25.7444835738912], [-111.51353531798628, 25.744495827569438], [-111.51155227019696, 25.743605424476186], [-111.50363171864812, 25.74273564550627], [-111.50214356278308, 25.741843400867314], [-111.49868002399003, 25.741855300143854], [-111.4966971274239, 25.740964692157764], [-111.49331503649992, 25.741424877624187], [-111.49253598813532, 25.742136631464295], [-111.48182090748435, 25.732938194348318], [-111.47093627082299, 25.73297378460358], [-111.46994322915705, 25.732079604517693], [-111.46697120435338, 25.73119177355363], [-111.46578047630831, 25.730119504004286], [-111.46803594833962, 25.727609165203788], [-111.46901485670877, 25.724913855237023], [-111.47442121176154, 25.715922477123588], [-111.47441587315338, 25.714576411937077], [-111.47539988433452, 25.71322712332552], [-111.47637494080095, 25.70963438541589], [-111.47982136495993, 25.70558483313608], [-111.4821966261266, 25.703414473787927], [-111.48318589325142, 25.703411198931047], [-111.48565177771472, 25.70160822867012], [-111.48713565518355, 25.70160327902939], [-111.48812124703464, 25.70070259416521], [-111.49207822135018, 25.7006892949943], [-111.49355838580817, 25.699786904029658], [-111.49702070916172, 25.699775144421526], [-111.49850082427598, 25.698872703892068], [-111.50047927843073, 25.69886592735085], [-111.50294480474486, 25.697062668749993], [-111.50500454778273, 25.695179825215817], [-111.5084419636375, 25.689334858166777], [-111.5104106959227, 25.68708451101095], [-111.51187713041885, 25.683041122707678], [-111.51186754458041, 25.68079768315517], [-111.51383222594335, 25.677649914253596], [-111.51965625035248, 25.67277459672881], [-111.52163036117643, 25.671870164228555], [-111.52565554327357, 25.667287824265678], [-111.52565196330198, 25.666471396732742], [-111.52655170957887, 25.666468153672245], [-111.53000115059054, 25.663763499958552], [-111.53255037137976, 25.660981102987698], [-111.53451418939989, 25.65783306075196], [-111.53449819239434, 25.654243557745236], [-111.53548103638097, 25.652893870636056], [-111.53546100885154, 25.648406989275454], [-111.53644580143204, 25.647505983820967], [-111.5374205312289, 25.64436153030374], [-111.55413020160779, 25.622761696776944], [-111.5560866117013, 25.618267301847368], [-111.55805121362373, 25.615567635019314], [-111.55804496204696, 25.614221569107595], [-111.56098957444934, 25.60972333147949], [-111.56098538583272, 25.60882595396672], [-111.56738293566524, 25.60296820805255], [-111.5702424093683, 25.599448459394907], [-111.57229867920277, 25.59944042641001], [-111.57329135357354, 25.600333931621872], [-111.57625656159176, 25.600322276463523], [-111.5772492722316, 25.601215754066544], [-111.58070870436052, 25.601202056467013], [-111.58170145485208, 25.60209550303603], [-111.58417249418312, 25.602085651838582], [-111.58516527735333, 25.602979074204878], [-111.5871421222248, 25.602971149505862], [-111.59152916392449, 25.608705559183147], [-111.5915335805657, 25.609602931877696], [-111.59352604366171, 25.61273572159271], [-111.59750682194834, 25.618103839421188], [-111.59751128509578, 25.619001209986166], [-111.5994995848204, 25.6212365387888], [-111.59950406347986, 25.622133908641633], [-111.61640659088278, 25.640908683006565], [-111.61641386706772, 25.642325320583137], [-111.61444787190513, 25.644577064614193], [-111.61010548237303, 25.648103856782914], [-111.60862229777369, 25.64811004576387], [-111.60763805265083, 25.649011528586716], [-111.60269406243391, 25.649032017090107], [-111.60170976447333, 25.649933460781565], [-111.59923774833541, 25.649943625942303], [-111.59628024795803, 25.6517505025021], [-111.59232938877598, 25.652663967952428], [-111.58789284462085, 25.655374054387547], [-111.58640956410183, 25.65538001934407], [-111.58169142166845, 25.659248862010877], [-111.58090656304415, 25.658542868185847], [-111.57802159897659, 25.659003012014647], [-111.57723308667417, 25.659724824193557], [-111.57798859448715, 25.660404447364826]], [[-111.54587717189628, 25.675371032987], [-111.5484303668224, 25.673485736676376], [-111.54792797920811, 25.671763442085286], [-111.54684530702775, 25.670789166360613], [-111.53950741925595, 25.670816476901628], [-111.53843361281467, 25.67179877997372], [-111.5384413589808, 25.673522934856187], [-111.54051705624491, 25.675390985854563], [-111.54191903853068, 25.674937092344365], [-111.54587717189628, 25.675371032987]]], [[[-111.61404413235269, 25.652629490561985], [-111.61852223711138, 25.648527498524654], [-111.61851802822336, 25.64771108216573], [-111.62237195971463, 25.64724601699449], [-111.62237619473885, 25.648062432808064], [-111.62834181361133, 25.65431855741401], [-111.62933771365965, 25.65566033972107], [-111.62934279288525, 25.65662829069562], [-111.6234423087368, 25.662935273676297], [-111.6204988019127, 25.667434719220484], [-111.62051273791036, 25.670126800865074], [-111.61953536490796, 25.672374403363733], [-111.61954928233791, 25.675066483678272], [-111.61856953663067, 25.676865399361002], [-111.61858806843236, 25.68045483800568], [-111.61761057913705, 25.68270242666919], [-111.61762445972863, 25.685394504153955], [-111.6171322235749, 25.685845276622658], [-111.61618006039816, 25.693028327524818], [-111.61471475054252, 25.696624021675564], [-111.611767819069, 25.700674612660507], [-111.61197902629746, 25.741952967722913], [-111.61148654038936, 25.742403722287694], [-111.61153018254187, 25.750928570882383], [-111.60710874048688, 25.757228671240462], [-111.60021247272292, 25.763538863825225], [-111.60022114303946, 25.76526297845041], [-111.60230167437857, 25.767578757918887], [-111.60378634225769, 25.76757260663967], [-111.60478066825277, 25.76846584835034], [-111.60626534648726, 25.768459671587962], [-111.60717000165626, 25.76927232239599], [-111.60719776033406, 25.774727012466318], [-111.60571983871598, 25.776079224998952], [-111.60474136301406, 25.778326716567847], [-111.60524504536369, 25.780048768257526], [-111.60632919298207, 25.781022570107076], [-111.60722978901374, 25.781018814245684], [-111.60724344351839, 25.783700504354748], [-111.6063469783812, 25.784520663652664], [-111.59022004113483, 25.784398721205072], [-111.58902558673417, 25.78504051011754], [-111.58704573425314, 25.78504851274088], [-111.58260860146451, 25.788655829210335], [-111.57766750887521, 25.7904702749426], [-111.56975629489824, 25.792296219091995], [-111.56777631517976, 25.79230396150701], [-111.565305594932, 25.793210955892686], [-111.56184060063666, 25.793224381852863], [-111.55986481754859, 25.794129371764683], [-111.55690449361333, 25.794140736936875], [-111.55688148585635, 25.789215636982338], [-111.55785675699825, 25.786071097563077], [-111.55776058026093, 25.765502464878608], [-111.55676662468439, 25.76460889515806], [-111.55675825303042, 25.762814176831217], [-111.55576432761268, 25.761920599444593], [-111.55575597202956, 25.7601258801488], [-111.55476207676566, 25.75923229509802], [-111.55475790690832, 25.75833493502157], [-111.54679912439822, 25.749391270926587], [-111.54677004799713, 25.74303914054082], [-111.54775551866226, 25.742138059145887], [-111.54774729073857, 25.740343332547702], [-111.54873273206947, 25.73944224469046], [-111.54773733050261, 25.73817051430726], [-111.54772499150216, 25.73547842276871], [-111.54644387827953, 25.734326213297393], [-111.54771233078304, 25.732715739544677], [-111.54692631581865, 25.731632263378074], [-111.54770410696268, 25.730921010612143], [-111.5477003187766, 25.730094236690466], [-111.54691605141285, 25.729388851514013], [-111.54765507207416, 25.728713040465035], [-111.54670058134042, 25.727854540398116], [-111.54667801437743, 25.72291903063511], [-111.53872425914021, 25.71442351784933], [-111.53872021790686, 25.713526149845553], [-111.53672945534109, 25.710841343494934], [-111.53671134152839, 25.706803183293665], [-111.53571803726922, 25.705909452349726], [-111.53571169561357, 25.704492806966375], [-111.53768015212759, 25.702242100465515], [-111.53767648454678, 25.701425678441403], [-111.5410455398118, 25.70051583248035], [-111.5459794290701, 25.69780529050901], [-111.54696863990242, 25.697801583676327], [-111.54943342918655, 25.695997550231112], [-111.55091722209676, 25.69599195268926], [-111.55190228041305, 25.695090844309806], [-111.55289146783223, 25.695087097670147], [-111.55387650371296, 25.694185976211436], [-111.55585486274127, 25.69417844969032], [-111.55683986857662, 25.693277308596983], [-111.55881821159316, 25.693269742128887], [-111.56227188225527, 25.691461702038715], [-111.5658134651272, 25.691448006528226], [-111.5673014489139, 25.692339609669773], [-111.57118069697911, 25.692773160982213], [-111.57167313734183, 25.6923225404785], [-111.57414603992096, 25.692312827044], [-111.57710487167795, 25.690506385783248], [-111.58014809925669, 25.687721218748894], [-111.58211107775226, 25.68457256109045], [-111.58210453651598, 25.68322651354745], [-111.58308925278344, 25.68232519875215], [-111.58307212649872, 25.67880632837824], [-111.5820787191684, 25.677912911673427], [-111.58207218024008, 25.676566862894045], [-111.58107879914247, 25.675673438657014], [-111.5810722720993, 25.674327389225027], [-111.58028818385276, 25.673622175326653], [-111.58106540326143, 25.672910748685716], [-111.58105235155178, 25.67021864854632], [-111.58203697105496, 25.669317340970892], [-111.58202825655825, 25.66752260708228], [-111.58301066477401, 25.666172609585434], [-111.58932572214174, 25.661292584796815], [-111.59129910072818, 25.660387220577995], [-111.59278244186862, 25.660381204859164], [-111.59385569433594, 25.659398509765285], [-111.59385165132834, 25.658582090886576], [-111.59475132788775, 25.658578428481366], [-111.59552922380102, 25.65786613947584], [-111.59602589009354, 25.65831280474363], [-111.59820344972566, 25.6567695561515], [-111.60124955361817, 25.656757043497745], [-111.60220298318605, 25.657614417906245], [-111.6036444523418, 25.657195852964502], [-111.60610754583273, 25.65539088150159], [-111.60907409597709, 25.655378536301992], [-111.61329907167284, 25.651959584600263], [-111.61404413235269, 25.652629490561985]], [[-111.57883740138055, 25.725497333680277], [-111.58271557579732, 25.7254818769953], [-111.584282004847, 25.72404859047677], [-111.58427138800097, 25.72187578112486], [-111.58318796389372, 25.720901794583924], [-111.57535235131664, 25.72093293891198], [-111.57427840311007, 25.721915501795852], [-111.57428668343701, 25.723639634308665], [-111.57537006169869, 25.7246136874846], [-111.577843630102, 25.724603899959476], [-111.57883740138055, 25.725497333680277]]]]}}]}
