{"type": "FeatureCollection", "features": [{"type": "Feature", "properties": {"uga": "66", "politica": "preservacion", "procedencia": {"metodo": "digitalizacion-semiautomatica", "fuente": "Mapa de ubicación de la ficha UGA 66, Boletín Oficial No. 12 (12-mar-2014), p. 388 del PDF", "datum": "UTM 12N con desplazamiento de +30 m E y +165 m N ajustado contra la costa (INC-011)", "correccion_borde_px": 1.4, "precision_aprox_m": 99.0, "escala_por_superficie": false, "revisada_en_qgis": false}, "control": {"residuo_georreferencia_m": 57.8, "area_digitalizada_ha": 10246.26, "escala_por_superficie": false, "superficie_ficha_ha": 10116.43, "diferencia_area_pct": 1.3}}, "geometry": {"type": "Polygon", "coordinates": [[[-111.44143567628136, 25.743881082367523], [-111.4463537392779, 25.743005167603762], [-111.45080961498, 25.740750759045063], [-111.4572288163566, 25.733112419906224], [-111.46416578224144, 25.731297935754338], [-111.46564850616373, 25.729948793098345], [-111.46671871322863, 25.729945368945796], [-111.47218512577007, 25.732616577517764], [-111.48260094738379, 25.732582447988435], [-111.492765517869, 25.74125172088125], [-111.49900418054254, 25.741041762331033], [-111.4995020789305, 25.74148819086271], [-111.52332897802846, 25.745437737727862], [-111.52481907054757, 25.74588050950039], [-111.52929934199665, 25.74944936285885], [-111.53227968041709, 25.75033476602422], [-111.5346817274783, 25.750325966145613], [-111.53864414840037, 25.74896696469907], [-111.54012183492516, 25.748961491517225], [-111.54213213444383, 25.75469958353779], [-111.54914525284286, 25.769461645334104], [-111.54821509170164, 25.78298289885082], [-111.54336194856589, 25.78740224871434], [-111.52899955625313, 25.79372901689682], [-111.51711890826664, 25.800493706357756], [-111.48734258178101, 25.800596543937914], [-111.47991110924005, 25.803758184453105], [-111.4764406820549, 25.80466586151262], [-111.47149195626875, 25.80826705094283], [-111.46901395180993, 25.809171330400133], [-111.46454715567245, 25.809185671687292], [-111.46405259058106, 25.809635383517318], [-111.46008208702699, 25.80964800282279], [-111.45958750293396, 25.810097699690797], [-111.45015920381627, 25.810575332012785], [-111.44966457791301, 25.811024995619157], [-111.43477497298048, 25.81107028766642], [-111.43279294634867, 25.81197246862473], [-111.42932028822086, 25.812430899102008], [-111.41447726433013, 25.825917985952866], [-111.40646802411966, 25.832294637066557], [-111.40104526559618, 25.84351303072904], [-111.39936242369377, 25.84504131843587], [-111.39708082503321, 25.842547495918616], [-111.39617672114562, 25.84254996467352], [-111.39567606112382, 25.841287091942473], [-111.39565942027208, 25.836283849424692], [-111.39615311016885, 25.83546006124018], [-111.39407240828952, 25.833593024927044], [-111.39068334255464, 25.832705910471766], [-111.39064218034045, 25.820164605965733], [-111.39113706956357, 25.819715140578563], [-111.39109586253888, 25.807167476720416], [-111.3915906967141, 25.806718009631282], [-111.39202361406139, 25.787447004272586], [-111.39391261277137, 25.785281381553336], [-111.3968839419267, 25.783480760334744], [-111.40085059439558, 25.782573612838554], [-111.40192847238946, 25.781594204492205], [-111.40191941171314, 25.77890541063337], [-111.4098368758957, 25.772609414956793], [-111.4118029659905, 25.767226223697165], [-111.41872533686094, 25.76048442086072], [-111.42363398272293, 25.7456816862228], [-111.4265974769999, 25.742087933328992], [-111.4265945630999, 25.74127182814444], [-111.42955866025079, 25.740814979066613], [-111.43700892411557, 25.743481642773222], [-111.44097723867914, 25.743469682152742], [-111.44143567628136, 25.743881082367523]], [[-111.4847212938925, 25.7661855513383], [-111.49059106225639, 25.764821484088134], [-111.49463175630454, 25.760694442167985], [-111.49462432941665, 25.75890193068409], [-111.4951185703749, 25.758452116458916], [-111.49460421488287, 25.75404634472149], [-111.49310672452577, 25.751810750464372], [-111.48854019577307, 25.748609035940696], [-111.48506415488727, 25.747724384957394], [-111.47869730066665, 25.74864172328827], [-111.4736660752376, 25.753219692269283], [-111.4726863379648, 25.75635982378707], [-111.47369422796336, 25.760315940334486], [-111.47627634024792, 25.763524621077945], [-111.47975638434355, 25.765305731419005], [-111.48422334524004, 25.76573907446539], [-111.4847212938925, 25.7661855513383]], [[-111.47874159987511, 25.779201228966205], [-111.4798187988503, 25.77822125205773], [-111.47981008324975, 25.776054435925186], [-111.47872506671688, 25.775081580212753], [-111.4763225006611, 25.775089464120352], [-111.47475091149799, 25.776519163343703], [-111.47475596818246, 25.77778972482645], [-111.47633895085242, 25.77920911431554], [-111.47874159987511, 25.779201228966205]]]}}]}
