{"type": "FeatureCollection", "features": [{"type": "Feature", "properties": {"uga": "67a", "politica": "conservacion", "procedencia": {"metodo": "digitalizacion-semiautomatica", "fuente": "Mapa de ubicación de la ficha UGA 67a, Boletín Oficial No. 12 (12-mar-2014), p. 391 del PDF", "datum": "UTM 12N con desplazamiento de +30 m E y +165 m N ajustado contra la costa (INC-011)", "correccion_borde_px": 1.4, "precision_aprox_m": 107.0, "escala_por_superficie": false, "revisada_en_qgis": false}, "control": {"residuo_georreferencia_m": 44.6, "area_digitalizada_ha": 9919.2, "escala_por_superficie": false, "superficie_ficha_ha": 9689.26, "diferencia_area_pct": 2.4}}, "geometry": {"type": "Polygon", "coordinates": [[[-111.3640332843059, 25.741986406572092], [-111.39286684331421, 25.768332822978874], [-111.39093718767259, 25.830386118567297], [-111.38613573738154, 25.827041553600964], [-111.38293288819736, 25.826568914748446], [-111.38186270479044, 25.825609502189202], [-111.38089079868733, 25.8256120528404], [-111.37927817678226, 25.821853182488315], [-111.37811261466047, 25.820808161197238], [-111.37223935042911, 25.819379976994355], [-111.37147876690095, 25.81869796741811], [-111.3701874384748, 25.818904102362712], [-111.36752283503617, 25.81987309503296], [-111.36583179870141, 25.82140653585352], [-111.36425330298792, 25.82862722603219], [-111.35850082358284, 25.83577242472105], [-111.35263845126767, 25.8381923458404], [-111.34677303302678, 25.83964980953496], [-111.33613273949199, 25.84688114682683], [-111.33612621240658, 25.844571812005295], [-111.33505352763599, 25.842649831482976], [-111.33505059073526, 25.841607223911005], [-111.33611510856457, 25.840642534847085], [-111.33611125750676, 25.83927958359724], [-111.33504133158851, 25.83831982508658], [-111.33556656644683, 25.83535153701363], [-111.33929209476742, 25.831975077314862], [-111.33982017433549, 25.83004938149165], [-111.34185259037457, 25.827724865430675], [-111.34460402568541, 25.827718366544218], [-111.34830823972895, 25.831520739620522], [-111.352617203383, 25.827132198548572], [-111.3526103152953, 25.824807023255484], [-111.35099692208588, 25.820480888375677], [-111.34832227010159, 25.818081743341452], [-111.34831664077196, 25.81615729253576], [-111.34661650426648, 25.81463217883003], [-111.34564468395575, 25.81463449284461], [-111.34563934783678, 25.812795869018725], [-111.34456680297255, 25.810873948993944], [-111.33921418968019, 25.80463201602689], [-111.3394191060481, 25.798577378070416], [-111.33812271171192, 25.79597444316641], [-111.3381077004632, 25.790682180462042], [-111.3365007403494, 25.78828031544549], [-111.33061755672958, 25.782520380781673], [-111.33060555429634, 25.778190336613722], [-111.33007088834557, 25.777710431182552], [-111.33058933260409, 25.77233655541893], [-111.33324646889943, 25.768962658093464], [-111.33323840821251, 25.76607595766081], [-111.33483307574024, 25.76422820399853], [-111.33429441392674, 25.762304961777605], [-111.33055091132819, 25.75846454717834], [-111.3289432185884, 25.755581464607353], [-111.32520140997059, 25.75222202329964], [-111.32519878976098, 25.751259786956986], [-111.32252622001079, 25.748860124391634], [-111.32198004741579, 25.74405011756881], [-111.31974810659892, 25.742525839093332], [-111.3144176119269, 25.74301856528553], [-111.30960653815386, 25.73821764852717], [-111.30747143320357, 25.737259925677606], [-111.30320498709155, 25.736787745461168], [-111.29924041342382, 25.733706361969855], [-111.29838931505041, 25.73447790443464], [-111.29839532128848, 25.736883506748274], [-111.29631192552695, 25.738772057665134], [-111.29787156345395, 25.74065317451508], [-111.29788115976764, 25.744502134753567], [-111.29948916062433, 25.747866692564934], [-111.29949780719197, 25.751314914479472], [-111.29693022463026, 25.752677708279936], [-111.29258201879087, 25.753167631970108], [-111.28243822678776, 25.747895314710934], [-111.27763158267625, 25.744536697820262], [-111.27015064501178, 25.737333916074665], [-111.26863477346053, 25.73733671930616], [-111.2665179399039, 25.73925470737758], [-111.2665117163732, 25.736464201840732], [-111.26383640013192, 25.732138956423693], [-111.26382560441547, 25.72724734762642], [-111.26541745933412, 25.723876585714667], [-111.27170657695707, 25.718177331150862], [-111.2754347400031, 25.716726959434485], [-111.27765057136128, 25.716722755445126], [-111.28138653842656, 25.718640089349787], [-111.28343524247825, 25.7186361197508], [-111.28619088520018, 25.7166204067417], [-111.2861887752843, 25.715738548102227], [-111.2842656498896, 25.714010262417652], [-111.28022758366617, 25.71470205025296], [-111.27600058849644, 25.712823333268368], [-111.27125142545505, 25.715681279839664], [-111.26539845544102, 25.720503303466938], [-111.25847256885879, 25.72244025036608], [-111.25527814149991, 25.724370380179344], [-111.25209107055927, 25.724375928227172], [-111.25208820859268, 25.723018389060723], [-111.25038962171139, 25.721010986638227], [-111.24558693210106, 25.71861353221223], [-111.24140985242155, 25.714857336553315], [-111.23980586165978, 25.712454355024267], [-111.23980200427056, 25.710529857501566], [-111.23814662114766, 25.709041080087523], [-111.23712417985601, 25.70996728080448], [-111.23597453573751, 25.709969146177244], [-111.23339992865064, 25.707653490132106], [-111.2333961751072, 25.705728990449536], [-111.23169907941515, 25.704202486639044], [-111.23072814775479, 25.704204026256708], [-111.23072645816747, 25.703327606441004], [-111.22933824769571, 25.70207886683579], [-111.22645073836898, 25.703248478483612], [-111.22485172333465, 25.703250952995035], [-111.22400309339895, 25.704019586926258], [-111.22422724837611, 25.70518186595001], [-111.2258290130286, 25.706622773800362], [-111.2258318887001, 25.7081465355808], [-111.22321479855766, 25.71003487849822], [-111.22593334800884, 25.71151970720973], [-111.23009655805204, 25.711513195566905], [-111.22403617486378, 25.71700202870385], [-111.22168497617409, 25.713926416634436], [-111.22167427883862, 25.708152916320316], [-111.21952893217045, 25.70093925964096], [-111.21952437304786, 25.698453243909952], [-111.22209079917673, 25.696610679985632], [-111.26214851844207, 25.697025304304727], [-111.26268254995168, 25.697505469772555], [-111.27867187629505, 25.69747579327737], [-111.27920597550771, 25.69795589765506], [-111.28293682944265, 25.697948707115554], [-111.28347094772968, 25.69842879568116], [-111.28773479594564, 25.698420445292523], [-111.28826893541675, 25.698900516072367], [-111.29199981583272, 25.698893093426996], [-111.29253397437256, 25.699373148387775], [-111.30532805811562, 25.700309172440818], [-111.32080405422224, 25.707492813470086], [-111.32187268182915, 25.708452706349373], [-111.32711309128672, 25.71036553799951], [-111.3271154874497, 25.711241949759852], [-111.32988395499507, 25.714208282811057], [-111.33090949101968, 25.714649363809606], [-111.33254920009844, 25.714202226849345], [-111.33468408772447, 25.71515958731156], [-111.33618815254479, 25.7151561261499], [-111.33619196795367, 25.716513656505796], [-111.33842498717183, 25.7185188109704], [-111.34162339364153, 25.71851134941169], [-111.34367623125087, 25.71994989137572], [-111.35005762668625, 25.714642355501965], [-111.35334092414118, 25.715115556391584], [-111.36134687169383, 25.718463785607984], [-111.36499325455243, 25.721736723318212], [-111.36553663027395, 25.725103213215245], [-111.36767493059449, 25.727022319548002], [-111.36875152672839, 25.73038744766175], [-111.36822754799769, 25.733355884728198], [-111.3639800719167, 25.739140008740826], [-111.3645159203998, 25.740020524498117], [-111.3640332843059, 25.741986406572092]], [[-111.35132749977032, 25.755534617780427], [-111.35444328665876, 25.75552706628057], [-111.35560175570332, 25.754476172064884], [-111.35612948337646, 25.75263078778016], [-111.35443016387433, 25.751105743682455], [-111.35238091730946, 25.75111071700052], [-111.35154153243643, 25.751872143909495], [-111.35069767681664, 25.75111478048598], [-111.34918164195942, 25.751118423669165], [-111.34802314796529, 25.752169267538868], [-111.34802712007676, 25.753532233415342], [-111.35132749977032, 25.755534617780427]]]}}]}
