{"type": "FeatureCollection", "features": [{"type": "Feature", "properties": {"uga": "67b", "politica": "preservacion", "procedencia": {"metodo": "digitalizacion-semiautomatica", "fuente": "Mapa de ubicación de la ficha UGA 67b, Boletín Oficial No. 12 (12-mar-2014), p. 394 del PDF", "datum": "UTM 12N con desplazamiento de +30 m E y +170 m N ajustado contra la costa (INC-011)", "correccion_borde_px": 1.4, "precision_aprox_m": 108.0, "escala_por_superficie": false, "revisada_en_qgis": false}, "control": {"residuo_georreferencia_m": 65.6, "area_digitalizada_ha": 3994.6, "escala_por_superficie": false, "superficie_ficha_ha": 3911.23, "diferencia_area_pct": 2.1}}, "geometry": {"type": "Polygon", "coordinates": [[[-111.32824284519499, 25.712445053243783], [-111.32610006486667, 25.71052273271977], [-111.30565642868788, 25.700877894356683], [-111.29759577646804, 25.700410109980933], [-111.2970572796212, 25.699926750593047], [-111.28899672000487, 25.699458489967157], [-111.28845826186648, 25.698975098423325], [-111.28415995227661, 25.69898353724767], [-111.28362151564103, 25.69850012762892], [-111.27986050819761, 25.6985073936642], [-111.27932209092342, 25.698023967976326], [-111.2755610970579, 25.698031123008366], [-111.27502269914778, 25.69754768125476], [-111.24009925918132, 25.697609359014443], [-111.23956100518589, 25.69712578521953], [-111.22298897676905, 25.697152065497924], [-111.22245259380688, 25.697637343965013], [-111.21978263002514, 25.697641392148174], [-111.22450999012119, 25.69336440613582], [-111.23364161972124, 25.69238114544108], [-111.23480966670071, 25.691324152446676], [-111.23641378528815, 25.68744588487629], [-111.23692819920413, 25.675904207531726], [-111.24434731229194, 25.67298521084899], [-111.25294106956194, 25.672486108725494], [-111.26045409665986, 25.669081672148025], [-111.26215777137588, 25.66753904230561], [-111.26322249578706, 25.663176981332857], [-111.26803824899467, 25.65493238420606], [-111.26803197028934, 25.652122520826424], [-111.2693235714386, 25.653282851211554], [-111.27062396817256, 25.653075968941877], [-111.27522038613508, 25.648427243796764], [-111.27606959073246, 25.649190085515006], [-111.27704816410554, 25.64918823229002], [-111.27868167179723, 25.658788143231256], [-111.28362402498435, 25.66419388686169], [-111.28868658732954, 25.664872899887833], [-111.29750214814969, 25.662712882721575], [-111.29973436328702, 25.662708316428994], [-111.3099522649256, 25.667531571610933], [-111.31416064121882, 25.665584737873036], [-111.3190785930907, 25.665574070226583], [-111.3233822243071, 25.667986893141734], [-111.3259842464626, 25.667981104899745], [-111.3286633434945, 25.66555280356292], [-111.33349218176213, 25.663604016389222], [-111.33626153320851, 25.66359766327982], [-111.33885433911726, 25.66456058455079], [-111.3394092901909, 25.67085310122462], [-111.33620127987496, 25.676189564008133], [-111.33622167204038, 25.683456380079633], [-111.33568581310497, 25.683942071314103], [-111.33569916088571, 25.688704564907766], [-111.33839357428784, 25.69160508003307], [-111.33839928253155, 25.693624940119257], [-111.33196825552815, 25.699453198005358], [-111.33197766085131, 25.702844370392935], [-111.32876581545604, 25.707211752311615], [-111.32824284519499, 25.712445053243783]], [[-111.28895835780855, 25.683561796895326], [-111.29012582704236, 25.68250436429084], [-111.29012133288043, 25.680648585386905], [-111.28894879202952, 25.679595796052325], [-111.28366049946206, 25.679606172746958], [-111.2824930006027, 25.68066355428162], [-111.28249623419244, 25.68203487771696], [-111.28420710985957, 25.68357112988502], [-111.28895835780855, 25.683561796895326]]]}}]}
