{"type": "FeatureCollection", "features": [{"type": "Feature", "properties": {"uga": "68", "politica": "conservacion", "procedencia": {"metodo": "digitalizacion-semiautomatica", "fuente": "Mapa de ubicación de la ficha UGA 68, Boletín Oficial No. 12 (12-mar-2014), p. 397 del PDF", "datum": "UTM 12N con desplazamiento de +30 m E y +165 m N ajustado contra la costa (INC-011)", "correccion_borde_px": 1.4, "precision_aprox_m": 67.0, "escala_por_superficie": false, "revisada_en_qgis": false}, "control": {"residuo_georreferencia_m": 0.0, "area_digitalizada_ha": 5725.78, "escala_por_superficie": false, "superficie_ficha_ha": 5732.15, "diferencia_area_pct": -0.1}}, "geometry": {"type": "Polygon", "coordinates": [[[-111.64975134414193, 25.81521330597748], [-111.65005824925613, 25.81493276181709], [-111.65173430561704, 25.81492525669687], [-111.65246140840111, 25.814260582070514], [-111.65245475939443, 25.813046954123926], [-111.65312184332393, 25.812437129577148], [-111.6531118606888, 25.810616687364195], [-111.6537789278635, 25.810006859927245], [-111.65377419805094, 25.809145122532954], [-111.6523678334941, 25.808186612093174], [-111.65108062753649, 25.808192382262547], [-111.65007836212393, 25.80880369673369], [-111.6453337226538, 25.80912824969802], [-111.64028458959655, 25.80520617723768], [-111.63966778214619, 25.80520889213685], [-111.63827353849021, 25.806483264603767], [-111.63761615371254, 25.808913470991396], [-111.63762723083315, 25.81098274440239], [-111.63701713103343, 25.810985419066082], [-111.6360163882469, 25.81190004620736], [-111.63300629157348, 25.81191318453166], [-111.63300335657243, 25.811360950902127], [-111.63165450150724, 25.809849741255487], [-111.63163680428048, 25.80651224824395], [-111.6309632125952, 25.805908341885605], [-111.63094232457746, 25.801964029132208], [-111.6302671577471, 25.80105670980832], [-111.63025592464435, 25.798932847660488], [-111.62958238353613, 25.798328933349897], [-111.62957757500891, 25.79741870633007], [-111.62552695022202, 25.791974693381967], [-111.62411942398651, 25.79071248979477], [-111.62244053086576, 25.790112850797716], [-111.62109363473553, 25.788904941728358], [-111.61269018107656, 25.784085907190658], [-111.60933890980787, 25.784099982139843], [-111.60900223304681, 25.78379797461897], [-111.60766172715257, 25.783803579823065], [-111.60704895184068, 25.78325388776116], [-111.6067030220422, 25.781131408881034], [-111.60468461577359, 25.779622723664644], [-111.60467052708154, 25.77684353788821], [-111.60533766200527, 25.776233928736126], [-111.60533458276933, 25.775627106113017], [-111.60666882554504, 25.774407878895946], [-111.60664130378788, 25.76899495797917], [-111.60489916839165, 25.767733952144972], [-111.60355884197006, 25.7677395163262], [-111.60154529279377, 25.76714101570313], [-111.5999212957619, 25.765381793210747], [-111.59990302661873, 25.761746946535446], [-111.60051287882808, 25.761744432083614], [-111.60724639407039, 25.75620038468927], [-111.61123747185319, 25.750418733760878], [-111.61112107736594, 25.72766279484124], [-111.61178790953751, 25.727053157598654], [-111.61164982316268, 25.700049351681855], [-111.61563575133233, 25.6936607455424], [-111.61562483137666, 25.691536846151664], [-111.61629144291963, 25.69092718940203], [-111.61627582865025, 25.687893046462477], [-111.6169424169434, 25.687283386868085], [-111.61692835143253, 25.68455265725104], [-111.61759491812674, 25.683942994800105], [-111.61757771160798, 25.680605435122633], [-111.61824425341673, 25.67999576984193], [-111.6182285973146, 25.67696162347517], [-111.61889511588876, 25.676351955352935], [-111.61888101274472, 25.673621222652802], [-111.61954750973403, 25.673011551677128], [-111.61953025723949, 25.669673988233164], [-111.62019672935968, 25.669064314431083], [-111.62018417085413, 25.6666369947013], [-111.62217720871449, 25.663594295784687], [-111.62547789725208, 25.659659950738277], [-111.62483205462371, 25.659080115882745], [-111.62481940790107, 25.656652794976175], [-111.62414671115143, 25.656048828386513], [-111.62412779678253, 25.652413943689815], [-111.62579485522032, 25.652406808522755], [-111.62809035844617, 25.654769742593338], [-111.62809353625698, 25.65537657267221], [-111.62882675908966, 25.656034845500162], [-111.62943606943574, 25.65603221992665], [-111.62943896775928, 25.65658446571079], [-111.63078602228215, 25.658095760404706], [-111.63079559835968, 25.6599162487144], [-111.631468350038, 25.660520183312457], [-111.6314779375119, 25.66234067077768], [-111.63215070643888, 25.66294460171045], [-111.63215870543539, 25.664461673925935], [-111.63283148986771, 25.665065601257247], [-111.6328427017648, 25.667189501373], [-111.63351550519666, 25.667793424972867], [-111.63352352319828, 25.669310495779627], [-111.63419634213999, 25.669914415776578], [-111.63420597507162, 25.671734899937125], [-111.63487881127179, 25.67233881626572], [-111.63488684815836, 25.673855885726294], [-111.63555969987262, 25.674459798450556], [-111.63556935547129, 25.67628028099506], [-111.63624222444878, 25.676884190049464], [-111.63625189146249, 25.678704671747358], [-111.63692477770574, 25.67930857713113], [-111.63693445613721, 25.6811290579821], [-111.63760735964877, 25.681732959694457], [-111.63761543446049, 25.683250026396028], [-111.63828835349487, 25.68385392450116], [-111.63829805461405, 25.685674403733653], [-111.63897099092151, 25.686278298165867], [-111.63898070346644, 25.688098776550525], [-111.63965365704948, 25.68870266730903], [-111.63966176029551, 25.69021973195457], [-111.64033472940788, 25.690823619103707], [-111.6403460872886, 25.692947508617607], [-111.64101907543038, 25.69355139202637], [-111.64102719773052, 25.695068455257573], [-111.64170020140612, 25.695672335055505], [-111.6417099595244, 25.69749281012202], [-111.64238298048542, 25.69809668624318], [-111.64239275004287, 25.69991716046032], [-111.64441678604244, 25.70263900428076], [-111.64442005342855, 25.703245828449717], [-111.64644255391015, 25.70566422908314], [-111.64644583200948, 25.706271052757558], [-111.64846842534259, 25.7086894225183], [-111.64847171415845, 25.709296245697374], [-111.65116919788254, 25.71262182786076], [-111.65117250097457, 25.71322865038664], [-111.652520478988, 25.714739715241187], [-111.65252378924686, 25.71534653742719], [-111.65454666124414, 25.717764814506005], [-111.65454998222948, 25.718371636194306], [-111.65589806167979, 25.71988266679447], [-111.65590664820402, 25.721448204470732], [-111.65457515843346, 25.72297128163889], [-111.65325192353524, 25.726011400104184], [-111.65059204512806, 25.729664316715752], [-111.64993199954543, 25.731487770240374], [-111.64860032355763, 25.733010794363114], [-111.64794023009397, 25.734834238973757], [-111.64527999703304, 25.738487061117954], [-111.64461982425301, 25.740310490873046], [-111.64328798372573, 25.741833467783465], [-111.6432912510942, 25.742440288823783], [-111.64129748922193, 25.74548325831173], [-111.64197215400951, 25.746342053327954], [-111.64197704605974, 25.747252284541364], [-111.64265035432871, 25.747856149957457], [-111.64265688444588, 25.74906979113577], [-111.64333020653932, 25.749673652997622], [-111.64333510966577, 25.75058388355153], [-111.64400844383061, 25.751187741923925], [-111.64401498871857, 25.752401382222533], [-111.6446883367107, 25.753005237039513], [-111.6446948890385, 25.75421887687251], [-111.64604654454286, 25.75633680544788], [-111.64605311164895, 25.75755044440005], [-111.647404830055, 25.759668358216963], [-111.64741141194432, 25.76088199628755], [-111.6487631932663, 25.76299989534101], [-111.64876978994378, 25.76421353252926], [-111.65012163419604, 25.76633141681426], [-111.65012824566661, 25.767545053119424], [-111.65148015286336, 25.76966292263095], [-111.65148677913197, 25.770876558052283], [-111.65216027054002, 25.771480374049826], [-111.65216524579213, 25.772390600284183], [-111.65351724563506, 25.77450844771123], [-111.6535238940566, 25.77572208183089], [-111.6541974234877, 25.77632588727163], [-111.6542040793672, 25.777539520923018], [-111.65555617548317, 25.779657346084097], [-111.6555628461755, 25.780870978849396], [-111.65691500529311, 25.782988789216972], [-111.65692169080323, 25.784202421095422], [-111.65759528597614, 25.784806208842262], [-111.65760197895074, 25.786019840251498], [-111.65827558797966, 25.786623624431343], [-111.65828228842005, 25.78783725537117], [-111.65895591130659, 25.788441035983404], [-111.65896261921414, 25.789654666453636], [-111.65963625595977, 25.790258443497663], [-111.6596412924514, 25.791168666017136], [-111.66099364425997, 25.793286431802912], [-111.66100037436111, 25.794500060965277], [-111.66167404917321, 25.795103827434197], [-111.66171279612716, 25.802082189624763], [-111.66238651825377, 25.802685951257835], [-111.66240534341411, 25.806071909483652], [-111.66173834290338, 25.806681775541954], [-111.66175155738331, 25.809060545063623], [-111.66242532001516, 25.809664305164773], [-111.66244077688464, 25.812443447283826], [-111.66177374165653, 25.81305331366862], [-111.6617855438914, 25.815177158459733], [-111.66017789933399, 25.81664695527181], [-111.6581733142339, 25.817869702440575], [-111.65750287605677, 25.817872736825016], [-111.65516635871103, 25.819703772468863], [-111.65349023623781, 25.81971131845587], [-111.65282311435777, 25.820321144837123], [-111.65181743526824, 25.820325658635397], [-111.65048316043843, 25.821545293418563], [-111.64947912579251, 25.821853198054562], [-111.64244601038368, 25.8218844584924], [-111.64243785689935, 25.820373520902674], [-111.64310503337646, 25.819763741176047], [-111.64307910958642, 25.814963805538675], [-111.6436892290413, 25.814961105049402], [-111.64435636929217, 25.81435131982592], [-111.6480972444272, 25.81433468921712], [-111.64975134414193, 25.81521330597748]], [[-111.62723830678934, 25.746460840748863], [-111.6282985630648, 25.745491431439834], [-111.6282924348545, 25.744326270790538], [-111.62722205718174, 25.74336604496236], [-111.62526552032065, 25.74337445753942], [-111.62453868581156, 25.74403899741019], [-111.62454636364386, 25.745507570432952], [-111.6256167398334, 25.74646781568953], [-111.62723830678934, 25.746460840748863]]]}}]}
