{"type": "FeatureCollection", "features": [{"type": "Feature", "properties": {"uga": "69", "politica": "aprovechamiento-sustentable", "procedencia": {"metodo": "digitalizacion-semiautomatica", "fuente": "Mapa de ubicación de la ficha UGA 69, Boletín Oficial No. 12 (12-mar-2014), p. 400 del PDF", "datum": "UTM 12N con desplazamiento de +30 m E y +170 m N ajustado contra la costa (INC-011)", "correccion_borde_px": 1.4, "precision_aprox_m": 42.0, "escala_por_superficie": true, "revisada_en_qgis": false}, "control": {"residuo_georreferencia_m": 0.0, "area_digitalizada_ha": 1316.36, "escala_por_superficie": true, "superficie_ficha_ha": 1316.32, "diferencia_area_pct": 0.0}}, "geometry": {"type": "Polygon", "coordinates": [[[-111.30942782997889, 25.781858801213634], [-111.3081497243955, 25.781861513744868], [-111.30756321121477, 25.781332973155493], [-111.3071453273946, 25.78020670124341], [-111.3067293839168, 25.779831860403203], [-111.30672544211068, 25.7782989759363], [-111.30701940557947, 25.778031576979977], [-111.30630765420393, 25.77720272033986], [-111.30629993681208, 25.774196988596792], [-111.30588401712755, 25.773822144816627], [-111.30588305386573, 25.7734464282273], [-111.3035960275882, 25.771572623625648], [-111.30293381172933, 25.77060091077613], [-111.3012711897365, 25.7694772051906], [-111.3008562495528, 25.769478063495654], [-111.29960954225442, 25.768729197230304], [-111.2989871357782, 25.76873047710407], [-111.2969096428828, 25.767607572581387], [-111.29591380161537, 25.767609600547463], [-111.29641060245518, 25.767157726728083], [-111.29620267005399, 25.766970290432944], [-111.29673670587555, 25.76648454396074], [-111.29673530465612, 25.765920968025988], [-111.29714882949192, 25.765356545620456], [-111.29681992826727, 25.764902577392874], [-111.29714695870788, 25.764605110942757], [-111.2971456304019, 25.764071554322197], [-111.29681712528176, 25.763775425243207], [-111.29702411806505, 25.763587143377933], [-111.29672743982572, 25.762757389682044], [-111.29589481180999, 25.761631926217184], [-111.29211583427548, 25.75860000549432], [-111.29128602882311, 25.758601668068405], [-111.29087021070522, 25.758226779692], [-111.28945120570572, 25.758229607727902], [-111.28903721377084, 25.75860614995241], [-111.28820740804902, 25.758607794980154], [-111.28634394951692, 25.76011435096556], [-111.28572575726031, 25.760115565549302], [-111.28551434050519, 25.758459037098977], [-111.28456218413088, 25.757600521707257], [-111.28476918582037, 25.757412257033103], [-111.28426605481482, 25.75695860015775], [-111.2842638275556, 25.75602308079702], [-111.28464140207986, 25.756022343150388], [-111.28550663203775, 25.75523541333802], [-111.28550581449517, 25.754893490762985], [-111.28588338540666, 25.754892749925798], [-111.2867113612371, 25.754139681904025], [-111.28733369232866, 25.754138455169276], [-111.28774767434284, 25.753761917644265], [-111.28878488943045, 25.753759864254725], [-111.29027057395311, 25.752220234286327], [-111.29026974288082, 25.751878311713163], [-111.29088789224417, 25.75187707820087], [-111.29192692753884, 25.752626438929383], [-111.29234180948866, 25.75262560658639], [-111.29317341810446, 25.75337537453846], [-111.29417748048454, 25.75337334950359], [-111.29521283398704, 25.752619814296274], [-111.29645747934423, 25.752617285635615], [-111.29707886730685, 25.752240299326882], [-111.2983235084977, 25.75223775475121], [-111.29918862027137, 25.75145074425315], [-111.29939464623959, 25.75088674094071], [-111.29918634240978, 25.750541468763434], [-111.29917928391237, 25.747723583111], [-111.29834767769403, 25.746973848861014], [-111.29834580090001, 25.74622241236807], [-111.29792953582721, 25.745659684179422], [-111.29792672477429, 25.74453252916449], [-111.29751046763697, 25.74396979957815], [-111.29771133976648, 25.741339346431435], [-111.29750251522388, 25.740776192385795], [-111.2966709682546, 25.74002644732744], [-111.2962542671623, 25.73927585426872], [-111.29625186401826, 25.738306537921513], [-111.29832180338157, 25.73661157072728], [-111.29831617631106, 25.734357257802976], [-111.29852226221875, 25.733827050352442], [-111.29931411207347, 25.73363756528017], [-111.29996947902713, 25.733636217391798], [-111.30371093527519, 25.736822091332048], [-111.30557765492125, 25.736818187621772], [-111.30599344349204, 25.737193035358008], [-111.30744534078013, 25.737189978416822], [-111.30786113645672, 25.73756482073795], [-111.30869079451409, 25.737563065025938], [-111.30952239883217, 25.73831274119461], [-111.31035303775828, 25.73868669421797], [-111.31156307300776, 25.73977747612586], [-111.31197987156627, 25.7405280244495], [-111.31451224386846, 25.742810694859532], [-111.31593155916151, 25.74299548318604], [-111.31613848585324, 25.74280717421779], [-111.31738302652563, 25.742804467654263], [-111.31779687397918, 25.742427845340327], [-111.32011166985883, 25.74242277643277], [-111.32115080325583, 25.743171928704076], [-111.32173575984616, 25.743170637751525], [-111.32215406267343, 25.74445093658312], [-111.32237112119024, 25.748019793011917], [-111.32257956826022, 25.748395050993], [-111.32528336001057, 25.751019072725274], [-111.3261182400232, 25.752895801756182], [-111.32861269856198, 25.754768789330154], [-111.33027848573839, 25.757019334162376], [-111.33027952506283, 25.757395050707608], [-111.33111296598477, 25.758708173616302], [-111.33381717961059, 25.76133202905978], [-111.33423472010435, 25.76227036745937], [-111.33485867174143, 25.762832511334338], [-111.3348665667336, 25.76564660525099], [-111.33448896356418, 25.765647473441856], [-111.3332101058159, 25.766811357318147], [-111.33321525669356, 25.768656141314196], [-111.33076296341976, 25.768661734832236], [-111.32827851407409, 25.770545951123516], [-111.32782737243387, 25.770956481931474], [-111.3278283118344, 25.771298402394187], [-111.32745069051207, 25.771299252500253], [-111.32641538243567, 25.772053014672636], [-111.32434574835189, 25.773936232981672], [-111.31875289196509, 25.777330054557865], [-111.31792496104916, 25.778083302069273], [-111.31461015966684, 25.779969097442187], [-111.31398769542687, 25.77997044200563], [-111.31357370700648, 25.78034705288053], [-111.31191477939878, 25.780726336709215], [-111.31046430919329, 25.78148087514414], [-111.30984183681701, 25.7814822020441], [-111.30942782997889, 25.781858801213634]], [[-111.31329565648284, 25.758199036014396], [-111.31223466331609, 25.757055371417078], [-111.31164546825934, 25.757056633765234], [-111.31077991020732, 25.757655858675836], [-111.31078227708602, 25.75856513229334], [-111.31123556672807, 25.75897367899858], [-111.31244712611634, 25.758971083921168], [-111.31329565648284, 25.758199036014396]]]}}]}
