{"type": "FeatureCollection", "features": [{"type": "Feature", "properties": {"uga": "70", "politica": "conservacion", "procedencia": {"metodo": "digitalizacion-semiautomatica", "fuente": "Mapa de ubicación de la ficha UGA 70, Boletín Oficial No. 12 (12-mar-2014), p. 403 del PDF", "datum": "UTM 12N con desplazamiento de +30 m E y +165 m N ajustado contra la costa (INC-011)", "correccion_borde_px": 1.4, "precision_aprox_m": 21.0, "escala_por_superficie": true, "revisada_en_qgis": false}, "control": {"residuo_georreferencia_m": 0.0, "area_digitalizada_ha": 371.22, "escala_por_superficie": true, "superficie_ficha_ha": 371.2, "diferencia_area_pct": 0.0}}, "geometry": {"type": "Polygon", "coordinates": [[[-111.48578198747782, 25.766186892641525], [-111.4836993003769, 25.766193828467756], [-111.4826646975468, 25.765823073619373], [-111.48142499372003, 25.76582717911529], [-111.48111431352396, 25.765641111681447], [-111.48028784540732, 25.765643841031192], [-111.4799771674242, 25.765457771133423], [-111.47956393394651, 25.765459133157627], [-111.47863265792815, 25.765088008946776], [-111.47832273372173, 25.765089027698693], [-111.47811536810323, 25.76490261424053], [-111.47749477209697, 25.76471755658696], [-111.47676937568046, 25.764158650031977], [-111.4757340655813, 25.763600752909298], [-111.47502696353494, 25.762965059306456], [-111.47492254065841, 25.762684757775347], [-111.47461150667682, 25.762405129913418], [-111.47450708528322, 25.76212482804217], [-111.47419605374122, 25.76184519923689], [-111.47409163383048, 25.76156489702553], [-111.4728892272004, 25.760017800462062], [-111.47299216032661, 25.7599239186048], [-111.47263425152751, 25.758763211850095], [-111.47263239986636, 25.758295480412748], [-111.4724686078237, 25.758148216451296], [-111.4725715396989, 25.758054334885365], [-111.47242431465823, 25.757921965790366], [-111.47242246388889, 25.75745423428478], [-111.472258673273, 25.75730697005038], [-111.47236160460187, 25.75721308862991], [-111.47221364088709, 25.756893626663665], [-111.47221173190783, 25.756410946565243], [-111.4724172228335, 25.75612963739594], [-111.47241463201503, 25.75547481311779], [-111.4726204911521, 25.755287049985252], [-111.47261789931618, 25.754632225650568], [-111.47282264546484, 25.75416382321625], [-111.47282116384542, 25.753789637842605], [-111.47302664891498, 25.753508327795636], [-111.4730251666996, 25.753134142399343], [-111.47466937943294, 25.750977198015068], [-111.474977034937, 25.750414909417614], [-111.4753702115091, 25.750056265276715], [-111.47856486251261, 25.748174850446855], [-111.47918462308567, 25.748172812494914], [-111.4793904590243, 25.747985039932203], [-111.48001021853746, 25.747982998480815], [-111.48021605283597, 25.747795224769416], [-111.4808358112891, 25.747793179818636], [-111.48104164394745, 25.747605404958623], [-111.48529315744089, 25.747591299652488], [-111.48550050355178, 25.747777703599105], [-111.48653343331071, 25.747774256404426], [-111.48684407477229, 25.747960313276174], [-111.48725724724753, 25.74795893145654], [-111.48746459702271, 25.748145332543768], [-111.48787777009969, 25.748143948954453], [-111.488085121154, 25.74833034913476], [-111.48839500141585, 25.74832931022538], [-111.48891300014665, 25.748701762013045], [-111.4895335293186, 25.748886772343614], [-111.49160479715154, 25.750189459118925], [-111.49272663502765, 25.751197860086126], [-111.4934543441336, 25.752317964680593], [-111.49386907874067, 25.75269074817193], [-111.49428536475935, 25.753437714647742], [-111.49470669434054, 25.755400778169758], [-111.494810381431, 25.755493973173973], [-111.49481193207131, 25.755868157241977], [-111.49491561965498, 25.755961352158124], [-111.49491717065737, 25.75633553619615], [-111.49512571074203, 25.756802563774727], [-111.49492537589276, 25.758314950537265], [-111.49472032252913, 25.758689836661237], [-111.4947226484089, 25.759251112517287], [-111.49431563482857, 25.76074925158457], [-111.49246619536667, 25.763187748761737], [-111.49236404677843, 25.763468736072724], [-111.49104304184098, 25.76429829449044], [-111.49063135119931, 25.764673871721932], [-111.48970388630778, 25.765238278409498], [-111.48877564638057, 25.765615587324888], [-111.48722678443085, 25.76580787455161], [-111.48681431332106, 25.765996349169754], [-111.48629776966042, 25.765998075812178], [-111.48578198747782, 25.766186892641525]], [[-111.47960039578993, 25.75962353695694], [-111.47980831943245, 25.759433876612714], [-111.4796424330409, 25.75928474736319], [-111.47908236245935, 25.759247292111386], [-111.47877113479261, 25.759437291195084], [-111.4790324151717, 25.759672180666907], [-111.47912711926732, 25.759585795943682], [-111.47960039578993, 25.75962353695694]], [[-111.48439525000967, 25.756939681151717], [-111.48419617337436, 25.756760722863525], [-111.48419503529618, 25.75648008440252], [-111.48386534454025, 25.75618370909301], [-111.48336535028838, 25.756185369863488], [-111.48314099123701, 25.756390038476653], [-111.48314320195628, 25.75693636699473], [-111.48347289305927, 25.757232743904904], [-111.48397289168915, 25.75723108270242], [-111.48439525000967, 25.756939681151717]]]}}]}
