{"type": "FeatureCollection", "features": [{"type": "Feature", "properties": {"uga": "71", "politica": "preservacion", "procedencia": {"metodo": "digitalizacion-semiautomatica", "fuente": "Mapa de ubicación de la ficha UGA 71, Boletín Oficial No. 12 (12-mar-2014), p. 406 del PDF", "datum": "UTM 12N con desplazamiento de +30 m E y +170 m N ajustado contra la costa (INC-011)", "correccion_borde_px": 1.4, "precision_aprox_m": 19.0, "escala_por_superficie": true, "revisada_en_qgis": false}, "control": {"residuo_georreferencia_m": 0.0, "area_digitalizada_ha": 61.17, "escala_por_superficie": true, "superficie_ficha_ha": 61.2, "diferencia_area_pct": -0.0}}, "geometry": {"type": "Polygon", "coordinates": [[[-111.2962111852058, 25.76722916427429], [-111.29597013027883, 25.767011869768474], [-111.29559722514396, 25.76701262754402], [-111.29531712851104, 25.76684436400139], [-111.2949981979753, 25.766809547453025], [-111.29490518043652, 25.766894151990304], [-111.29457069416073, 25.76659262834681], [-111.29410435629379, 25.76650915528393], [-111.29354417034133, 25.766172621822793], [-111.29317126774718, 25.766173373360544], [-111.2926110859739, 25.765836836256305], [-111.29167800680364, 25.76550104464746], [-111.29130428211309, 25.765164128696036], [-111.29037121181034, 25.764828328602153], [-111.2891734407195, 25.763748489947236], [-111.28917282718972, 25.76349524282202], [-111.28898597125266, 25.763326781650793], [-111.28898249701165, 25.761891714384298], [-111.28868541020812, 25.76162386902876], [-111.28747352238446, 25.76162626718714], [-111.28700659980836, 25.761289523871074], [-111.28618238601133, 25.760462171232554], [-111.28636758117428, 25.75994182052829], [-111.28793275128564, 25.758772093414944], [-111.28821241102263, 25.758771540063897], [-111.28877091375162, 25.75843276867179], [-111.28914379231173, 25.758432028613424], [-111.28951626144797, 25.758262456066063], [-111.29074301119189, 25.758260011448897], [-111.29120952043682, 25.758427911427777], [-111.29186205773951, 25.758426604769458], [-111.2933558530626, 25.75935218019009], [-111.29438377445516, 25.760363098924827], [-111.29559752994112, 25.761120384593188], [-111.29604787695018, 25.761526363649093], [-111.29642265151193, 25.762285345930447], [-111.29660951619724, 25.762453797502797], [-111.29660993571541, 25.762622628832226], [-111.29679680119554, 25.7627910801494], [-111.29679764077804, 25.76312874278295], [-111.29698471735216, 25.763381609490715], [-111.29698576752472, 25.763803687738754], [-111.29717284556801, 25.764056554168516], [-111.29717498091675, 25.764914199994532], [-111.29698937185289, 25.765252243045484], [-111.29699042212941, 25.765674321184875], [-111.29680481138129, 25.766012363980234], [-111.29680565110691, 25.766350026464107], [-111.29661961919413, 25.766519237771394], [-111.29643442545448, 25.767026111305515], [-111.2962111852058, 25.76722916427429]], [[-111.29288251792993, 25.762476529938866], [-111.29308528232205, 25.762292103261387], [-111.29308407187193, 25.761799098535207], [-111.2928804053265, 25.761615489811042], [-111.29242919155222, 25.761616396881752], [-111.29213341161685, 25.761885425468705], [-111.29213441155295, 25.762294014529918], [-111.2923380781307, 25.76247762428058], [-111.29288251792993, 25.762476529938866]]]}}]}
