{"type": "FeatureCollection", "features": [{"type": "Feature", "properties": {"uga": "72", "politica": "conservacion", "procedencia": {"metodo": "digitalizacion-semiautomatica", "fuente": "Mapa de ubicación de la ficha UGA 72, Boletín Oficial No. 12 (12-mar-2014), p. 409 del PDF", "datum": "UTM 12N con desplazamiento de +30 m E y +165 m N ajustado contra la costa (INC-011)", "correccion_borde_px": 1.4, "precision_aprox_m": 32.0, "escala_por_superficie": true, "revisada_en_qgis": false}, "control": {"residuo_georreferencia_m": 0.0, "area_digitalizada_ha": 461.44, "escala_por_superficie": true, "superficie_ficha_ha": 461.14, "diferencia_area_pct": 0.1}}, "geometry": {"type": "Polygon", "coordinates": [[[-111.54763221538188, 25.740038652832126], [-111.54700118457313, 25.74251361676413], [-111.54588302869213, 25.743826831312408], [-111.54588502248752, 25.744263163644675], [-111.54524663203368, 25.745138234554553], [-111.54415587940326, 25.746134274461202], [-111.54279345748202, 25.746721145005534], [-111.5425256529396, 25.74715848267237], [-111.54207275218509, 25.747160169150728], [-111.54159293849872, 25.747598294110468], [-111.54111114459344, 25.747600085067166], [-111.53999024631753, 25.748331478642452], [-111.53966904832903, 25.748332669287446], [-111.53830788971678, 25.74921038682079], [-111.53804006318506, 25.749647716442315], [-111.53726595099648, 25.749650574522768], [-111.53710600423591, 25.7497966111666], [-111.53646360005354, 25.749798979150704], [-111.53598310229503, 25.750091641741733], [-111.53485889193907, 25.750095775229735], [-111.53389658323358, 25.750390199862323], [-111.5317027930108, 25.750398226547823], [-111.53154154370296, 25.750253368534267], [-111.53009548178503, 25.750113193004697], [-111.52872779210561, 25.749536378301833], [-111.52824598936829, 25.749538126820074], [-111.52744041552684, 25.748959259686075], [-111.52714810700039, 25.748960318096763], [-111.52714629671472, 25.748550150016392], [-111.52679480738449, 25.748234362585084], [-111.52599117080233, 25.748091820598873], [-111.52518433855359, 25.747222051478325], [-111.52489203417224, 25.74722310529463], [-111.52488991221477, 25.746740214689268], [-111.52440704779984, 25.74649761814793], [-111.52408214002803, 25.745652272146188], [-111.52343720753724, 25.74507280385903], [-111.52311346984928, 25.74449217930969], [-111.52311092233082, 25.743910400712483], [-111.52262468798628, 25.742894017561074], [-111.522783370805, 25.74245710717388], [-111.52262214302934, 25.742312238790724], [-111.52272827281278, 25.741972981166636], [-111.5224570995584, 25.74129470193719], [-111.52261599741003, 25.740907272251228], [-111.52245350000712, 25.740471514144126], [-111.52271936440673, 25.73993675504229], [-111.52261027196933, 25.73959826959338], [-111.52276831437554, 25.739015914332743], [-111.5230869414193, 25.73843298231335], [-111.52308248474321, 25.737414868886322], [-111.5235623273032, 25.73697680387195], [-111.52387967001444, 25.736102980517565], [-111.5243595044257, 25.735664912926115], [-111.52435770478282, 25.73525474391302], [-111.52483837723494, 25.73500867659708], [-111.52483741916137, 25.7347905094049], [-111.52611566598324, 25.733331427869047], [-111.52611386050104, 25.73292125884033], [-111.52640612984057, 25.732920203116425], [-111.52752504482177, 25.731752579137897], [-111.52784619888145, 25.731751415972642], [-111.52944681512004, 25.730582031439187], [-111.52984825363568, 25.730580572138656], [-111.53016811427656, 25.730288514384345], [-111.53081041423442, 25.73028617581775], [-111.5311302717099, 25.729994115988852], [-111.53177256998556, 25.729991773205757], [-111.53289334993501, 25.72926044297052], [-111.53385679112891, 25.729256916169728], [-111.535299998747, 25.728815280029803], [-111.53797510989452, 25.728805427661054], [-111.53813633741741, 25.72895027931335], [-111.53877797384376, 25.72880246115078], [-111.53974338046046, 25.729235229177025], [-111.54038567375174, 25.7292328484913], [-111.54199602271606, 25.730244995825554], [-111.54231717196474, 25.730243800828184], [-111.54344450032596, 25.73096683495509], [-111.54373676405767, 25.730965744542296], [-111.54373796824221, 25.731230468080803], [-111.54486597740816, 25.73209893520266], [-111.54615790415802, 25.733694012937338], [-111.54615923341865, 25.733984901553058], [-111.54664363294982, 25.734564871933358], [-111.54664562869917, 25.735001204764966], [-111.54696812178504, 25.73529088783684], [-111.54762177706864, 25.737761026496308], [-111.54763221538188, 25.740038652832126]], [[-111.53585841456112, 25.739477412395207], [-111.53542543707246, 25.738894293503527], [-111.53504963238349, 25.738895674357643], [-111.53462156762248, 25.739409233720504], [-111.5349730508645, 25.739725002726995], [-111.5354022725469, 25.73982088978587], [-111.53585841456112, 25.739477412395207]]]}}]}
