{"type": "FeatureCollection", "features": [{"type": "Feature", "properties": {"uga": "73a", "politica": "preservacion", "procedencia": {"metodo": "digitalizacion-semiautomatica", "fuente": "Mapa de ubicación de la ficha UGA 73a, Boletín Oficial No. 12 (12-mar-2014), p. 412 del PDF", "datum": "UTM 12N con desplazamiento de +30 m E y +170 m N ajustado contra la costa (INC-011)", "correccion_borde_px": 1.4, "precision_aprox_m": 296.0, "escala_por_superficie": false, "revisada_en_qgis": false}, "control": {"residuo_georreferencia_m": 100.2, "area_digitalizada_ha": 9363.2, "escala_por_superficie": false, "superficie_ficha_ha": 9771.29, "diferencia_area_pct": -4.2}, "georreferencia": {"a_x": 73.93664818196794, "b_x": 436783.96080284263, "a_y": -73.95476081919362, "b_y": 2868366.8195959195, "factor_render": 2, "pagina_mapa": 412, "ficha_mapa": "73a"}}, "geometry": {"type": "MultiPolygon", "coordinates": [[[[-111.42753098002456, 25.649812053179915], [-111.42758001953152, 25.663568107288132], [-111.42047835845437, 25.663588736449498], [-111.40576268144814, 25.668972954077958], [-111.39988227414885, 25.672996111106137], [-111.38956781033312, 25.673024009562113], [-111.38515590641579, 25.67570700681895], [-111.37707675734826, 25.67439246343617], [-111.37706910908462, 25.671961609810644], [-111.37089679713726, 25.667730074932912], [-111.36892650423836, 25.66907071435689], [-111.36008579397415, 25.66909279350639], [-111.35493661848301, 25.6717767002296], [-111.3525848229601, 25.673919893577803], [-111.35395642762697, 25.67915276368183], [-111.35691153937512, 25.68181685486312], [-111.35693008271274, 25.68803999331036], [-111.35546036067919, 25.689379225546567], [-111.3569619357265, 25.698725055399922], [-111.35255228317045, 25.7027427072146], [-111.35256731407492, 25.707844819219183], [-111.34547067706049, 25.710533089194712], [-111.33958998068799, 25.71588946804601], [-111.33124695839207, 25.715908666436174], [-111.3285575399492, 25.71348388579685], [-111.32999964630761, 25.701914883782344], [-111.33685801113837, 25.692990000313497], [-111.33582391978885, 25.67652432908638], [-111.33826010475208, 25.66760947086618], [-111.33552682218846, 25.665144370469935], [-111.33207904532249, 25.665152254914556], [-111.32472285322675, 25.669175755252947], [-111.31784944993885, 25.666519584705075], [-111.31587857472319, 25.66785951400805], [-111.3060654329243, 25.66788042157153], [-111.30163501275639, 25.663882688157862], [-111.29524046477404, 25.66389576157663], [-111.2883808534613, 25.666580780980603], [-111.28127007037065, 25.66282811184846], [-111.28126487169202, 25.66061185292132], [-111.30011048502932, 25.643451232074764], [-111.3118782957949, 25.63674829765512], [-111.31531288083337, 25.637635815206284], [-111.32071309875394, 25.63539351276133], [-111.32414770782047, 25.636280822506357], [-111.3266016420581, 25.634044810985927], [-111.3319929186939, 25.63403265906813], [-111.33494642398125, 25.636697227592357], [-111.3467347425712, 25.638005376933123], [-111.35411586624855, 25.643330279976354], [-111.36124584805455, 25.643312819241462], [-111.36811889897342, 25.636376985634946], [-111.3681066128371, 25.63237005992196], [-111.37250903834968, 25.62701629090996], [-111.37959667256813, 25.623231508950447], [-111.38793751622819, 25.624545257670956], [-111.39063261952874, 25.628972441631937], [-111.39505886479886, 25.63120443304513], [-111.39510643190745, 25.645656025677226], [-111.40005643055702, 25.650116966534345], [-111.41061858030419, 25.649860588307767], [-111.41355578686827, 25.647181009478548], [-111.42042077274606, 25.647161407921647], [-111.42753098002456, 25.649812053179915]]], [[[-111.4158381535096, 25.74022833300081], [-111.42516264823692, 25.737970916621514], [-111.42785455873188, 25.740393877055308], [-111.42786249501829, 25.74261007648802], [-111.42199341780788, 25.750640956795703], [-111.42201701814518, 25.757319013292886], [-111.4190773366091, 25.75999875340167], [-111.41908671442607, 25.762669974306913], [-111.41641142985301, 25.765108487569876], [-111.4105129233932, 25.76512524189114], [-111.40852784409115, 25.76693437726265], [-111.41025906441934, 25.76849264646607], [-111.41027586890614, 25.773380062306515], [-111.40760016499944, 25.77581841516584], [-111.40096823120437, 25.777172463097642], [-111.39935038973492, 25.77864655533439], [-111.3999841045638, 25.782758073011365], [-111.39583753562606, 25.786535868679696], [-111.39217979686272, 25.78654577525995], [-111.3921557317416, 25.779227543880662], [-111.39461178164079, 25.77698995399096], [-111.39214106403097, 25.774765682221897], [-111.39237106530543, 25.76831445295947], [-111.37289835105574, 25.75211058302602], [-111.37314188271853, 25.74966621408958], [-111.36549328655289, 25.741444302151287], [-111.36840491518647, 25.729416263142124], [-111.36396200254529, 25.722749249358245], [-111.35483145614292, 25.715853162364137], [-111.35214872220848, 25.715859668293184], [-111.35069422405498, 25.7121243008362], [-111.35604245946672, 25.71167057640304], [-111.36096879737362, 25.707851889803905], [-111.3609452695263, 25.70005089177143], [-111.35787189791868, 25.69728079100971], [-111.3638463447259, 25.684711428180623], [-111.37902063660918, 25.6833371521336], [-111.3805125909785, 25.689103240954005], [-111.38494088806374, 25.691335497390984], [-111.38494655575688, 25.693098528076746], [-111.39112285728211, 25.69799724664691], [-111.39527898102476, 25.69798604083272], [-111.3952958299592, 25.703088131224046], [-111.39825244802496, 25.705751358967092], [-111.3982924642612, 25.71777196612152], [-111.4086472861332, 25.728428358626157], [-111.40866555056195, 25.733770829669897], [-111.4158381535096, 25.74022833300081]], [[-111.38887804608223, 25.714564692058083], [-111.38429052489134, 25.709100290653005], [-111.38231971000904, 25.71044110937867], [-111.37641967499432, 25.709120825191047], [-111.37321556309932, 25.71204075255914], [-111.37816897383077, 25.716957403555856], [-111.38652603534757, 25.71670842276051], [-111.38887804608223, 25.714564692058083]]]]}}]}
