{"type": "FeatureCollection", "features": [{"type": "Feature", "properties": {"uga": "73b", "politica": "conservacion", "procedencia": {"metodo": "digitalizacion-semiautomatica", "fuente": "Mapa de ubicación de la ficha UGA 73b, Boletín Oficial No. 12 (12-mar-2014), p. 415 del PDF", "datum": "UTM 12N con desplazamiento de +30 m E y +170 m N ajustado contra la costa (INC-011)", "correccion_borde_px": 1.4, "precision_aprox_m": 295.0, "escala_por_superficie": false, "revisada_en_qgis": false}, "control": {"residuo_georreferencia_m": 267.3, "area_digitalizada_ha": 52859.4, "escala_por_superficie": false, "superficie_ficha_ha": 53280.11, "diferencia_area_pct": -0.8}, "georreferencia": {"a_x": 147.80759188316668, "b_x": 436629.21357938816, "a_y": -147.24839138146027, "b_y": 2868349.9528227337, "factor_render": 1, "pagina_mapa": 415, "ficha_mapa": "73b"}}, "geometry": {"type": "MultiPolygon", "coordinates": [[[[-111.39308293018149, 25.604336575286695], [-111.3776582689596, 25.61434987188661], [-111.37544385205426, 25.612361048503104], [-111.37321791365801, 25.61438300091785], [-111.3746941843425, 25.61570890916439], [-111.37031404141624, 25.61968740209137], [-111.3658934205119, 25.618368850878166], [-111.36060795955969, 25.623168853846824], [-111.36061523198816, 25.6255910620752], [-111.35793327507116, 25.62559765596227], [-111.34680888330155, 25.637030974494557], [-111.34153034951206, 25.633615025356818], [-111.32556502141162, 25.63365147523287], [-111.32324676648005, 25.635755326539996], [-111.32103284115372, 25.63376567925235], [-111.3167413326765, 25.637659930726237], [-111.31356578071451, 25.637666781663867], [-111.30789658544596, 25.633689779631702], [-111.3055540162916, 25.635815128024017], [-111.3070366169765, 25.63980107970385], [-111.28587117549425, 25.658998586318443], [-111.27853963985186, 25.659012758162742], [-111.27705214398617, 25.652604303324726], [-111.27469110045685, 25.65048126537944], [-111.27112928823868, 25.652378277606445], [-111.26674336036452, 25.652386355471005], [-111.26672618338523, 25.64466005881995], [-111.26940858969009, 25.644655135471034], [-111.27175197579308, 25.642530362399476], [-111.26880105057491, 25.63987644507082], [-111.27112816023639, 25.63776636587673], [-111.27258850903553, 25.632444889080173], [-111.2725739224804, 25.626018951456626], [-111.27023758750438, 25.623917508375502], [-111.27170082072487, 25.61992571856346], [-111.26787321616322, 25.61648265144136], [-111.26051238650837, 25.6164959559322], [-111.25461808374519, 25.613846953270667], [-111.24749355528309, 25.616518579510046], [-111.23133157278485, 25.61654505183238], [-111.23278102194392, 25.60481262494266], [-111.22982934284289, 25.600828199250245], [-111.22982383458806, 25.597946319234623], [-111.23128856127185, 25.59419205720117], [-111.2427985380441, 25.59284370351123], [-111.24952467755942, 25.586744559837566], [-111.25099925505971, 25.58807173708688], [-111.25308769733026, 25.586177764813286], [-111.25762101727665, 25.587395375623775], [-111.26217464680214, 25.583265216978514], [-111.26216933765872, 25.58082831715325], [-111.25774275753896, 25.575517377505353], [-111.25773658728984, 25.572635493518515], [-111.26067408881629, 25.569970886382677], [-111.26066545324997, 25.56598179349032], [-111.26628090561353, 25.562219722735364], [-111.27216691073528, 25.562208897807963], [-111.27979012605849, 25.556623913048696], [-111.27656251760713, 25.55397063743196], [-111.27388213511387, 25.55397567557957], [-111.27386759731708, 25.547578979531234], [-111.28389504704042, 25.5435707688143], [-111.3000757130902, 25.542208807534124], [-111.31036078676009, 25.536868558285455], [-111.3150048660813, 25.536858645712122], [-111.32066969522712, 25.540835465777867], [-111.32374398359981, 25.53804339616957], [-111.31858249034525, 25.533400747260885], [-111.32383523157397, 25.52618709957592], [-111.31767752863264, 25.52197431187065], [-111.31326451615361, 25.521983811260462], [-111.30589263774498, 25.51535084144851], [-111.30147986254372, 25.51535998377538], [-111.29790984099284, 25.512147184647688], [-111.281111171109, 25.512741039353436], [-111.27879443611477, 25.51484420732232], [-111.27522758463836, 25.51275220383903], [-111.27291074597652, 25.514855279671426], [-111.27058441662817, 25.512760847838525], [-111.26555027789132, 25.51220937403041], [-111.26408229516841, 25.513541738372115], [-111.26175614317536, 25.511447164629477], [-111.25904485081698, 25.511451980658894], [-111.25672775247456, 25.51355480313893], [-111.25451718323023, 25.511564088115755], [-111.24728050299943, 25.512802010418383], [-111.24287315030726, 25.515468806038623], [-111.23551847830491, 25.51548080756798], [-111.23258173308894, 25.518144924332322], [-111.2237608550831, 25.52081808372584], [-111.19290169117822, 25.54080765066489], [-111.18823215576398, 25.5450400079073], [-111.18823593863176, 25.547462277065076], [-111.18555568417746, 25.54746569752781], [-111.18323660849971, 25.54956736011418], [-111.17146902340664, 25.534976500490913], [-111.17293829493069, 25.533645059722012], [-111.17231932485994, 25.529117690717868], [-111.17499917344708, 25.529114514624], [-111.18101471829613, 25.523662445691564], [-111.1699716151282, 25.516362229403896], [-111.17144067788463, 25.515030801351966], [-111.17228513324915, 25.50516817207425], [-111.1676026637488, 25.499617570943194], [-111.16050945727719, 25.49829578549681], [-111.16050623871479, 25.495873496504807], [-111.15608725832598, 25.490559378429097], [-111.15608210586024, 25.486570215702034], [-111.15227826984153, 25.48313865715014], [-111.1660957085793, 25.47327663635235], [-111.17050511530105, 25.47194185463153], [-111.17784739141278, 25.46528451379901], [-111.1866632097466, 25.461284390114187], [-111.19547199928958, 25.453294565811575], [-111.19841236327996, 25.453290622174247], [-111.20161010203498, 25.450389661295045], [-111.201606068006, 25.44796736200588], [-111.2042841130883, 25.447963661268613], [-111.21309310873137, 25.441302503873995], [-111.21603317822454, 25.44129820927248], [-111.23071578524028, 25.43196778246176], [-111.23831399249443, 25.425069856633165], [-111.23830922948306, 25.422647554979054], [-111.24098670819409, 25.42264318900599], [-111.24979183816485, 25.415979835278495], [-111.25590102408997, 25.415969326804998], [-111.26031875839291, 25.41995075939645], [-111.26472807002219, 25.41994288372816], [-111.26767348293974, 25.42259700675061], [-111.27061308664909, 25.42259162338779], [-111.27503154337425, 25.42657260429899], [-111.2809140216962, 25.4278912037302], [-111.28680606887684, 25.433198724904756], [-111.29268899287345, 25.434516847858163], [-111.29772981397042, 25.43905657480554], [-111.29919652695793, 25.437723871344044], [-111.30446858904068, 25.44247124624283], [-111.31035214897089, 25.44378865433828], [-111.31624625427503, 25.44909496440329], [-111.3189242998285, 25.44908917296219], [-111.31893068163437, 25.451511449249722], [-111.32482553896872, 25.456817402166703], [-111.32630650565008, 25.46080327097951], [-111.3366242058855, 25.470087983835842], [-111.33602897124652, 25.476184308129667], [-111.35017821014476, 25.490239093330015], [-111.35876750043215, 25.488888627671237], [-111.36170072927146, 25.48622200592882], [-111.36905353379242, 25.486203692930633], [-111.37283456895274, 25.482765684024073], [-111.37516206746668, 25.48485849033191], [-111.3822567191511, 25.486169883867763], [-111.38227279409526, 25.49125152324346], [-111.38991038754804, 25.49811709251648], [-111.40583977358598, 25.492755061324804], [-111.41463172276228, 25.49273047094361], [-111.4146400359599, 25.49515270680882], [-111.43531554122477, 25.51902736440803], [-111.43533073510913, 25.52323889637187], [-111.43241171590608, 25.52965886867591], [-111.42385227394064, 25.531013574406106], [-111.42004726010059, 25.53447467039676], [-111.42300819634659, 25.53978492743148], [-111.4192236733213, 25.54456098014777], [-111.41655191158154, 25.54699084530397], [-111.41360932567727, 25.546999185404644], [-111.40480836010732, 25.55500193818523], [-111.40186557425245, 25.5550100446895], [-111.39426872302506, 25.561916309292826], [-111.3942853595063, 25.56699788888737], [-111.3916047193468, 25.567005085415566], [-111.38928890314449, 25.56910997620521], [-111.38571855045446, 25.567020715347375], [-111.37312224480924, 25.575800547646164], [-111.36943291129336, 25.57248567611687], [-111.36576397966738, 25.575819124926795], [-111.361337043313, 25.571841042217606], [-111.35778289125358, 25.575069834196665], [-111.35460900570003, 25.575077559756902], [-111.3525112966412, 25.57319226168637], [-111.34748904049229, 25.57775402899309], [-111.34160609096784, 25.579097576062157], [-111.33853118476843, 25.581890011472954], [-111.34150630299385, 25.584564209320174], [-111.34726684184473, 25.58066574400425], [-111.35338430750885, 25.580651096592117], [-111.35840944748054, 25.585166896733494], [-111.35608489424665, 25.587278355871618], [-111.3560927659212, 25.58993771969063], [-111.34607473029982, 25.597702769059982], [-111.3357712514209, 25.597726788605414], [-111.32401733123031, 25.605731454419406], [-111.3137096714145, 25.604424241772545], [-111.30697904610547, 25.607866933930822], [-111.30550361162248, 25.606540332046666], [-111.30315371501169, 25.608672731337013], [-111.30169774459628, 25.615087058063786], [-111.28724202232928, 25.61644587188032], [-111.28489941717795, 25.61857089441897], [-111.28698903285644, 25.620450098924067], [-111.28700545041512, 25.627321009850846], [-111.28493411599612, 25.633197422934348], [-111.28864713586975, 25.636536080336924], [-111.298819037091, 25.628641672693387], [-111.30555782368899, 25.62785871688769], [-111.30849559190023, 25.625193166756464], [-111.30997129046608, 25.626519732640343], [-111.31880427627857, 25.61717118340016], [-111.31732859721065, 25.61584470484994], [-111.3196543847892, 25.613733857716994], [-111.31964794181528, 25.61131163523334], [-111.33410264382988, 25.609949625119484], [-111.33850763738802, 25.60595042315431], [-111.34462639488396, 25.60593612882606], [-111.35029546805649, 25.60991172204573], [-111.36937112337353, 25.589919446841428], [-111.38260908395877, 25.58722604148991], [-111.38701162271748, 25.583225392931595], [-111.39289424165256, 25.58188002434531], [-111.4119876324013, 25.58448687900577], [-111.4063964392857, 25.589569466896737], [-111.3975699390442, 25.590923410371804], [-111.39522979845225, 25.59305018206683], [-111.39906025412124, 25.59648989580771], [-111.40466912657376, 25.59647448352147], [-111.39967188986405, 25.601016225672993], [-111.40029979746032, 25.605542505217446], [-111.39308293018149, 25.604336575286695]], [[-111.28328003708586, 25.556078251322475], [-111.28477869611646, 25.557426771804447], [-111.29362160267549, 25.55339847177245], [-111.28843968570327, 25.55006278719529], [-111.28328003708586, 25.556078251322475]], [[-111.25603315616031, 25.47846616803666], [-111.26340819888831, 25.474226807520125], [-111.26019648048991, 25.470228721640183], [-111.24866108505255, 25.468918997287137], [-111.2441190710798, 25.473041688505937], [-111.24867800888627, 25.477149097611445], [-111.2545598743851, 25.47713901183735], [-111.25603315616031, 25.47846616803666]]], [[[-111.53749159311472, 25.643788693726197], [-111.53885926881452, 25.647883876972667], [-111.53740357323454, 25.651641081764364], [-111.53472109912813, 25.65165092951737], [-111.532406223184, 25.653758050620404], [-111.52871013349146, 25.650447329702864], [-111.52504334354285, 25.65378471239538], [-111.52001698189018, 25.649281850122712], [-111.52061514238434, 25.645844320529026], [-111.51837365392646, 25.643836074961925], [-111.51529348522456, 25.646639268118495], [-111.51825473694323, 25.65039529264289], [-111.51765648839601, 25.65383281183322], [-111.51915897553782, 25.65517886261873], [-111.52124428272424, 25.653281113974472], [-111.52442016330914, 25.65326974210359], [-111.52737699645411, 25.65591841295526], [-111.52861885588712, 25.655913921963407], [-111.53093384040268, 25.653806859811617], [-111.534482241578, 25.656985095767617], [-111.53449508537734, 25.65986684983309], [-111.52276605694162, 25.671876250884363], [-111.52277662252851, 25.674298389873435], [-111.52009363513282, 25.674307976781535], [-111.51543064796947, 25.678550633185317], [-111.50959567657308, 25.691867699008156], [-111.50398757977037, 25.696968671216208], [-111.49663856085003, 25.700982851669732], [-111.48779957188032, 25.701012687740427], [-111.4772627319921, 25.71059229473375], [-111.47435834053258, 25.72123902147058], [-111.46728427449581, 25.729002667523005], [-111.46263284121468, 25.729017510397053], [-111.45683937188491, 25.725150994343938], [-111.45463675069337, 25.727152367424125], [-111.45315821584845, 25.725827316505665], [-111.44812356274738, 25.72773319925875], [-111.4378333805028, 25.734412769083868], [-111.43341261540978, 25.734425987795152], [-111.42752777026458, 25.737102691518285], [-111.41845512284364, 25.73712903532045], [-111.41549862636874, 25.734478179975515], [-111.40986250088588, 25.733164485310027], [-111.40984963673648, 25.729412679087563], [-111.39864124260903, 25.719360062249187], [-111.40011020397584, 25.7180263733642], [-111.39801711443674, 25.716148850308986], [-111.39798172918641, 25.705511624509793], [-111.39501769574021, 25.700201016730208], [-111.39117614410563, 25.696754234897185], [-111.38970733961646, 25.69808783575334], [-111.38172943576834, 25.690928719306804], [-111.38171177483477, 25.685387595391433], [-111.38452634998704, 25.6828321039158], [-111.38083337531927, 25.679517609506323], [-111.38462788046496, 25.676072231538242], [-111.38462010627131, 25.673650046686053], [-111.3887759784715, 25.673639034326687], [-111.39109379374175, 25.67153415805307], [-111.39330957262689, 25.673522712480683], [-111.39466299289313, 25.672293559656207], [-111.40202714558615, 25.67227345889942], [-111.41610403939355, 25.663486964934926], [-111.41758138952736, 25.664812417954302], [-111.42409132963003, 25.664232987405562], [-111.43022018373696, 25.657329557003067], [-111.4302066737048, 25.653563067136037], [-111.42550655133304, 25.64802100541965], [-111.41899358189718, 25.64747917348029], [-111.41102110182726, 25.6507218433758], [-111.40195497837136, 25.650747080462754], [-111.39631055425109, 25.645680942687246], [-111.39479431250399, 25.63238826283071], [-111.38593034518573, 25.623104175190722], [-111.38592108652594, 25.620222346334636], [-111.39299852190825, 25.613792215116042], [-111.39753424946309, 25.615005458785344], [-111.40182675297721, 25.612438531070516], [-111.40916459357587, 25.6057697636389], [-111.41822731388167, 25.605744120888414], [-111.42265737089585, 25.60972042594947], [-111.43125905840225, 25.609695304640617], [-111.43272632747636, 25.608361288869794], [-111.43861448439269, 25.60834374220645], [-111.44386437505854, 25.603569845619493], [-111.44827105562948, 25.60752371475893], [-111.44594767539559, 25.60963658168486], [-111.44596741284482, 25.614955233442245], [-111.44450021354989, 25.616289380045593], [-111.4459912664481, 25.62138105830445], [-111.44453875403843, 25.626704187837092], [-111.44764091266958, 25.62948703486035], [-111.45217949523699, 25.622691718185113], [-111.46391610103211, 25.612017532013656], [-111.46386991870074, 25.600050585186207], [-111.46800859820064, 25.596285506030533], [-111.47536276232108, 25.594932109401665], [-111.48723883349965, 25.5854593890324], [-111.48440820727333, 25.582920675976116], [-111.48438150719294, 25.576287022420235], [-111.48852855990779, 25.57494355646473], [-111.50053209148642, 25.574902991122578], [-111.50643533702316, 25.578871711281852], [-111.51379364927746, 25.578846057721712], [-111.51943976190533, 25.58390767937621], [-111.52033661229686, 25.59265861090083], [-111.53006391454018, 25.59740342653477], [-111.54307422467323, 25.596026022496854], [-111.54454006852218, 25.594690903319165], [-111.55190540481613, 25.595992962190323], [-111.55421883956294, 25.593885539359785], [-111.56245149315048, 25.598612114692234], [-111.5724759961695, 25.598573215064643], [-111.56895077053078, 25.60178523650118], [-111.5725064541669, 25.604969619201746], [-111.56689732520069, 25.60499147492933], [-111.5622386663125, 25.60923559479517], [-111.56225110735744, 25.61189487360381], [-111.5563998298957, 25.619895241109145], [-111.55495224801595, 25.625219393800236], [-111.54763359335095, 25.63455463811134], [-111.53749159311472, 25.643788693726197]], [[-111.4948713508426, 25.65191731710917], [-111.48881949320145, 25.64649313988733], [-111.47727024180107, 25.6465313398604], [-111.47272953584735, 25.650661010634856], [-111.47730298393049, 25.654761031536303], [-111.4911795892139, 25.655275668857666], [-111.4948713508426, 25.65191731710917]]], [[[-111.45192268409414, 25.56284222021208], [-111.4489797248029, 25.56285127620912], [-111.44079844650103, 25.57029359290173], [-111.43846815371657, 25.568201888219868], [-111.42106735414234, 25.56692329363594], [-111.42105345830815, 25.562948920462432], [-111.42532642107355, 25.557729053401033], [-111.4239636719081, 25.55363268934426], [-111.42688286411936, 25.546975751179474], [-111.43395383376281, 25.5405436551997], [-111.43689625429319, 25.540534908386363], [-111.44276644229178, 25.536528206689123], [-111.44888159573208, 25.53650959636731], [-111.46191986613555, 25.55218818174047], [-111.46194111111936, 25.557729349284983], [-111.45192268409414, 25.56284222021208]], [[-111.44600815649007, 25.555134032841707], [-111.4487253285263, 25.556455418568433], [-111.45191968450015, 25.553549074671597], [-111.45191054517566, 25.551112215467032], [-111.4457471604517, 25.546904894521553], [-111.44304001262417, 25.548242799195553], [-111.43714997577071, 25.54693080921795], [-111.43248887912584, 25.551170865225746], [-111.43570844364778, 25.555165045159956], [-111.44600815649007, 25.555134032841707]]], [[[-111.47821553657856, 25.580059202002527], [-111.4797083648178, 25.58535837788366], [-111.46970046489655, 25.58539085262471], [-111.46969100963965, 25.58296866464279], [-111.46499703827439, 25.578757472157807], [-111.45642947106731, 25.57878444873106], [-111.45493272546325, 25.572155346703358], [-111.45906567482251, 25.567060846841922], [-111.46811508146445, 25.564372816941226], [-111.4752206104333, 25.567009287047817], [-111.47523017016935, 25.569431478376263], [-111.47966072574928, 25.57340606922768], [-111.47821553657856, 25.580059202002527]]]]}}]}
