{"type": "FeatureCollection", "features": [{"type": "Feature", "properties": {"uga": "74", "politica": "preservacion", "procedencia": {"metodo": "digitalizacion-semiautomatica", "fuente": "Mapa de ubicación de la ficha UGA 74, Boletín Oficial No. 12 (12-mar-2014), p. 418 del PDF", "datum": "UTM 12N con desplazamiento de +30 m E y +170 m N ajustado contra la costa (INC-011)", "correccion_borde_px": 1.4, "precision_aprox_m": 20.0, "escala_por_superficie": false, "revisada_en_qgis": false}, "control": {"residuo_georreferencia_m": 9.9, "area_digitalizada_ha": 65.91, "escala_por_superficie": false, "superficie_ficha_ha": 65.71, "diferencia_area_pct": 0.3}}, "geometry": {"type": "Polygon", "coordinates": [[[-111.2661694351444, 25.74115670018091], [-111.2660253179769, 25.742411909589737], [-111.26587889809963, 25.74263371407309], [-111.26583091289338, 25.743076875911214], [-111.2655946539129, 25.743380289855466], [-111.26569279370257, 25.743468725710247], [-111.26490399622392, 25.744673631837202], [-111.26378976556191, 25.745730170642968], [-111.26343906094156, 25.74567945451847], [-111.26314473907445, 25.745458449516562], [-111.26211612795363, 25.74537168951208], [-111.26123375650157, 25.744974508052092], [-111.26054795479331, 25.744887121659612], [-111.2601235666711, 25.74432778865484], [-111.26007391971311, 25.74401772530302], [-111.25982838695766, 25.743708011494572], [-111.25982790514863, 25.743486475182927], [-111.25918964250586, 25.74273438592463], [-111.25873052127761, 25.742364837671165], [-111.25835614093437, 25.74227688731496], [-111.25819107460568, 25.742011335325483], [-111.25770117519224, 25.741923587994137], [-111.25750491004764, 25.74174670529822], [-111.25632856706662, 25.741261398162987], [-111.25605178716448, 25.74101194521111], [-111.25605137663891, 25.740820378037483], [-111.25682432753113, 25.739585577373433], [-111.25750866395674, 25.739008372171092], [-111.25824910493986, 25.738069435501785], [-111.25901372386419, 25.737463678376894], [-111.25950273995383, 25.737152655767524], [-111.26018782122655, 25.73692989641816], [-111.26176980735744, 25.736661217501247], [-111.26225988248676, 25.736837565946534], [-111.26274176941209, 25.73682965412703], [-111.26338655292528, 25.737012763151846], [-111.26466170310415, 25.737896601305437], [-111.26488906851513, 25.737940495506713], [-111.26488942611677, 25.73810181969602], [-111.26587206323826, 25.739562175415518], [-111.26587304910534, 25.74000524805541], [-111.2661694351444, 25.74115670018091]], [[-111.26173232361765, 25.740987510844196], [-111.26137877950978, 25.740550547768276], [-111.26103470189983, 25.740818701931918], [-111.26107612032315, 25.740988688465006], [-111.2614703154557, 25.74118111616523], [-111.26173232361765, 25.740987510844196]]]}}]}
