{"type": "FeatureCollection", "features": [{"type": "Feature", "properties": {"uga": "75", "politica": "aprovechamiento-sustentable", "procedencia": {"metodo": "digitalizacion-semiautomatica", "fuente": "Mapa de ubicación de la ficha UGA 75, Boletín Oficial No. 12 (12-mar-2014), p. 421 del PDF", "datum": "UTM 12N con desplazamiento de +30 m E y +165 m N ajustado contra la costa (INC-011)", "correccion_borde_px": 1.4, "precision_aprox_m": 19.0, "escala_por_superficie": false, "revisada_en_qgis": false}, "control": {"residuo_georreferencia_m": 0.0, "area_digitalizada_ha": 132.29, "escala_por_superficie": false, "superficie_ficha_ha": 132.8, "diferencia_area_pct": -0.4}}, "geometry": {"type": "Polygon", "coordinates": [[[-111.25646083874352, 25.738827604981473], [-111.25652526599013, 25.739029017289283], [-111.25633482238658, 25.739288838995183], [-111.256336121253, 25.739894305075595], [-111.25595485910402, 25.740240957410084], [-111.25586025076319, 25.740658040535962], [-111.2553370973995, 25.74074545399797], [-111.25382551888153, 25.74040211393173], [-111.253441712302, 25.739553387790107], [-111.25323313112676, 25.739365199100458], [-111.253059310721, 25.739365501170028], [-111.25305879414101, 25.739121576023738], [-111.25246748303725, 25.73858806856834], [-111.25218098363094, 25.738588564826987], [-111.25189393723223, 25.738329574929203], [-111.25152911911321, 25.738330205308266], [-111.25152887877242, 25.73821602290413], [-111.2508592019394, 25.737654956771816], [-111.25066457528247, 25.735925381040932], [-111.25028140712976, 25.73536381873143], [-111.24999461146439, 25.7352190073541], [-111.24999392031032, 25.73488858675927], [-111.24980220344663, 25.734542933350056], [-111.24874895068281, 25.7332040539976], [-111.2484621620531, 25.733059239508545], [-111.24846174489929, 25.73285856170862], [-111.24830102067328, 25.732713531850038], [-111.24807946230648, 25.732713909272277], [-111.24791850190641, 25.732454696458287], [-111.24779243894766, 25.73245491091395], [-111.24779211258428, 25.73229748073628], [-111.24760067503905, 25.732081567182952], [-111.24731389048571, 25.73193675038124], [-111.24715293279995, 25.73167753667394], [-111.24693137633413, 25.731677912336263], [-111.2469311404565, 25.73156372978781], [-111.24633998330327, 25.731073444090573], [-111.24540186895794, 25.730902035895806], [-111.24530374476716, 25.72962032704988], [-111.24520807466047, 25.729533992436544], [-111.24527005375977, 25.72855390112343], [-111.24451905407975, 25.727876172342427], [-111.24377145234766, 25.727460507063356], [-111.24377045418534, 25.726970960661742], [-111.24386576834105, 25.726884305498317], [-111.24386506264332, 25.72653832393908], [-111.24415100346222, 25.726278358069585], [-111.24415047358296, 25.726018871885653], [-111.2444192658692, 25.725774494699714], [-111.24554892861526, 25.725787308560818], [-111.24577291140903, 25.725583666099254], [-111.24577131128284, 25.72480520754011], [-111.24586638390146, 25.72460262975351], [-111.24538752045714, 25.72391147122184], [-111.2453871654519, 25.723738480393408], [-111.24490883972217, 25.723306806434774], [-111.24452573944517, 25.722745227522648], [-111.24403029931611, 25.722341266669286], [-111.24356969053174, 25.722169045731885], [-111.24347309433192, 25.721624283954544], [-111.24383786169447, 25.72162367411838], [-111.24479219361102, 25.721362587070654], [-111.24565156844743, 25.721361141099095], [-111.2457468767934, 25.72127448468115], [-111.24638297257677, 25.721359906457497], [-111.24676527386295, 25.721532251127154], [-111.24743385633306, 25.72161761329221], [-111.24762518710246, 25.72179027978823], [-111.24810261918073, 25.721789467803255], [-111.24831022409438, 25.721976818693225], [-111.24858041083158, 25.72196164508725], [-111.25038016112629, 25.723240439332194], [-111.25038052334689, 25.723413430106945], [-111.25085905055906, 25.723931581328248], [-111.25085941348362, 25.72410457208024], [-111.25124263864183, 25.724709381668248], [-111.25117925659585, 25.724997512796442], [-111.25133940008426, 25.725314684536], [-111.2513406728456, 25.725920152012687], [-111.25153201615096, 25.72609281318447], [-111.25143791964194, 25.726755514836697], [-111.25124766599657, 25.7271018256033], [-111.25134370214494, 25.72736114693037], [-111.25115326557315, 25.727620962223682], [-111.25115417410437, 25.72805343886719], [-111.25096370701445, 25.728299432121776], [-111.25111678425398, 25.728437561411408], [-111.25120447903818, 25.728357825532918], [-111.25164945076362, 25.728357057735693], [-111.25184079844351, 25.728529718411817], [-111.25231825727883, 25.72852889241597], [-111.25270058999521, 25.728701221111194], [-111.25325636248377, 25.728700256200653], [-111.25325669599049, 25.72885768639011], [-111.25356093434105, 25.72913220461101], [-111.25384759471649, 25.72921820110338], [-111.25413462325066, 25.729477187608328], [-111.25449959841556, 25.729563046193892], [-111.25449993357236, 25.729720476349513], [-111.25478696472399, 25.72997946153177], [-111.25497850400873, 25.730238613270554], [-111.2549625981176, 25.730396919308944], [-111.25545763313494, 25.731016234342412], [-111.25564973051232, 25.73153487090766], [-111.2556510254597, 25.73214033766504], [-111.25584238497736, 25.732312992907037], [-111.25575126908244, 25.734359620292636], [-111.25549733247696, 25.73485050431718], [-111.25565768584488, 25.735254165907143], [-111.25604060081271, 25.73568597109387], [-111.25604097142768, 25.73585896149725], [-111.25632802075495, 25.736117943288182], [-111.25632950492796, 25.736809904820408], [-111.25661804308511, 25.737760847413107], [-111.25661965160289, 25.738509878108605], [-111.25646083874352, 25.738827604981473]], [[-111.25063660684425, 25.73078068087903], [-111.25084437752811, 25.730591771634867], [-111.25084395277264, 25.73038935516037], [-111.25063539177822, 25.730201162364768], [-111.25036417204154, 25.730201628651532], [-111.25020405737916, 25.730347207586405], [-111.25020457157109, 25.730592871723278], [-111.25063660684425, 25.73078068087903]]]}}]}
