{"type": "FeatureCollection", "features": [{"type": "Feature", "properties": {"uga": "76", "politica": "conservacion", "procedencia": {"metodo": "digitalizacion-semiautomatica", "fuente": "Mapa de ubicación de la ficha UGA 76, Boletín Oficial No. 12 (12-mar-2014), p. 424 del PDF", "datum": "UTM 12N con desplazamiento de +30 m E y +170 m N ajustado contra la costa (INC-011)", "correccion_borde_px": 1.4, "precision_aprox_m": 18.0, "escala_por_superficie": false, "revisada_en_qgis": false}, "control": {"residuo_georreferencia_m": 5.6, "area_digitalizada_ha": 47.57, "escala_por_superficie": false, "superficie_ficha_ha": 47.29, "diferencia_area_pct": 0.6}, "georreferencia": {"a_x": 9.236444646052146, "b_x": 475856.82110796403, "a_y": -9.216990722708804, "b_y": 2846267.9965811637, "factor_render": 1, "pagina_mapa": 424, "ficha_mapa": "76"}}, "geometry": {"type": "Polygon", "coordinates": [[[-111.22320497191436, 25.71596290037083], [-111.2227300592951, 25.715963626824145], [-111.22236115327895, 25.71563126602149], [-111.22190048682941, 25.715465506006137], [-111.22099490036591, 25.7147327038224], [-111.22081029777422, 25.71448329049337], [-111.22071684503706, 25.71373435272214], [-111.21992523442724, 25.71293803016359], [-111.22001715082925, 25.712854660414184], [-111.21979415629283, 25.71265374325044], [-111.21970162849745, 25.7124041895639], [-111.21970071143248, 25.71190480458893], [-111.21951626864897, 25.711738620313472], [-111.21951581051393, 25.71148892780436], [-111.21859254179556, 25.710075386785604], [-111.21831512505024, 25.70940995374483], [-111.21840612835528, 25.708827199751525], [-111.21822078139961, 25.7081616284446], [-111.2182187833336, 25.707065978760433], [-111.21849437034464, 25.706732641532025], [-111.21849391444411, 25.706482948834353], [-111.21867773928302, 25.706316210986458], [-111.21867728300838, 25.706066518277584], [-111.21904447336026, 25.7054833491571], [-111.21904404131796, 25.705247304553243], [-111.21858174731021, 25.70416599339318], [-111.21848877290836, 25.703666745793402], [-111.21793427705337, 25.70250233923924], [-111.2178397919131, 25.70117078148514], [-111.21769391380283, 25.701039328458883], [-111.21783177709624, 25.700914275793142], [-111.21774712584308, 25.700837995112536], [-111.21774634398268, 25.700408192116832], [-111.21966070231574, 25.699088523095032], [-111.21993494871947, 25.699088109749514], [-111.22002743909424, 25.699322762582547], [-111.22002805103381, 25.699655686470233], [-111.22039843349611, 25.700820363864864], [-111.22049202683286, 25.701652534190245], [-111.22104808068579, 25.703649240251185], [-111.22104900303512, 25.7041486257463], [-111.22123359000528, 25.70439803922799], [-111.22123435929878, 25.704814193761667], [-111.22141925567337, 25.705230068775684], [-111.22151270573472, 25.705979006984492], [-111.22169760490597, 25.706394881560907], [-111.22169837588163, 25.70681103596752], [-111.22188327700508, 25.707226910248306], [-111.22188404865508, 25.707643064602177], [-111.2219762684357, 25.707726155328757], [-111.22198568788359, 25.712803236441715], [-111.22235566697461, 25.713718213985878], [-111.22250156573752, 25.713849661984217], [-111.22240965032053, 25.713933033282405], [-111.22327931913337, 25.71529819153496], [-111.2233720120826, 25.715630973556724], [-111.22364730496035, 25.715878991358707], [-111.2232968883213, 25.715879528587674], [-111.22320497191436, 25.71596290037083]], [[-111.21987496736254, 25.707577778463506], [-111.22037531047427, 25.707360868096853], [-111.22028309208078, 25.707277776344302], [-111.22037500391488, 25.707194406334725], [-111.22013550919166, 25.7069786131755], [-111.21987386716013, 25.706979007981285], [-111.21958921107043, 25.707237207503486], [-111.21987496736254, 25.707577778463506]]]}}]}
