{"type": "FeatureCollection", "features": [{"type": "Feature", "properties": {"uga": "77a", "politica": "aprovechamiento-sustentable", "procedencia": {"metodo": "digitalizacion-semiautomatica", "fuente": "Mapa de ubicación de la ficha UGA 77a, Boletín Oficial No. 12 (12-mar-2014), p. 427 del PDF", "datum": "UTM 12N con desplazamiento de +30 m E y +170 m N ajustado contra la costa (INC-011)", "correccion_borde_px": 1.4, "precision_aprox_m": 264.0, "escala_por_superficie": false, "revisada_en_qgis": false}, "control": {"residuo_georreferencia_m": 74.8, "area_digitalizada_ha": 1286.47, "escala_por_superficie": false, "superficie_ficha_ha": 1617.74, "diferencia_area_pct": -20.5}, "georreferencia": {"a_x": 65.853658478819, "b_x": 466776.82933200896, "a_y": -66.28883633115653, "b_y": 2851713.0864504096, "factor_render": 2, "pagina_mapa": 427, "ficha_mapa": "77a"}}, "geometry": {"type": "MultiPolygon", "coordinates": [[[[-111.19732507473721, 25.615453413780532], [-111.20520508507676, 25.620830035659], [-111.20520845316841, 25.622801631069], [-111.20151801923708, 25.62617979841824], [-111.1917033623741, 25.627390218924532], [-111.1903709050701, 25.614441196312917], [-111.1877435812787, 25.612050159226683], [-111.18773797078455, 25.608458512242557], [-111.1798586548707, 25.60248232196845], [-111.1798539147455, 25.599313500247867], [-111.18237738274284, 25.597003823282193], [-111.1803723644966, 25.595178645708483], [-111.17523771982387, 25.597480437350836], [-111.1693566194616, 25.59629014509253], [-111.17065833204119, 25.589323916803185], [-111.16671879810204, 25.5857367919599], [-111.16671440756471, 25.582567960776398], [-111.16909476869564, 25.580389396904874], [-111.1739013941286, 25.580383762999013], [-111.17609097633884, 25.582377392361924], [-111.18153225695553, 25.58157171755504], [-111.18374436123732, 25.585160624095305], [-111.18547209277187, 25.585158443898905], [-111.18548006158852, 25.59032731743839], [-111.19228423832097, 25.594727418432033], [-111.19598691832054, 25.59929276880684], [-111.19599472471435, 25.60408163474454], [-111.19862203629799, 25.606472526211064], [-111.19732507473721, 25.615453413780532]]], [[[-111.2223439319775, 25.666517595845185], [-111.22235685152587, 25.673482204204166], [-111.22630319703629, 25.678264959875232], [-111.22631329278748, 25.683609529155202], [-111.2195522208421, 25.682820847944797], [-111.21475078944988, 25.689613028465544], [-111.21149209733818, 25.689617789539643], [-111.20754011870967, 25.681461643544523], [-111.2075318238323, 25.676672831753763], [-111.20095742497635, 25.66949879069792], [-111.20225769821845, 25.662313744777695], [-111.1996270914361, 25.658725737890204], [-111.19961783223346, 25.653162529017784], [-111.20354837871304, 25.649565470884934], [-111.20354468743197, 25.647389666521082], [-111.21181123163495, 25.647377911099674], [-111.20920878124774, 25.65990953097529], [-111.20766719814117, 25.66132035505548], [-111.21053442342303, 25.667513703000772], [-111.21296624238255, 25.669725008640796], [-111.21646115267947, 25.666526438441522], [-111.2223439319775, 25.666517595845185]]]]}}]}
