{"type": "FeatureCollection", "features": [{"type": "Feature", "properties": {"uga": "77b", "politica": "preservacion", "procedencia": {"metodo": "digitalizacion-semiautomatica", "fuente": "Mapa de ubicación de la ficha UGA 77b, Boletín Oficial No. 12 (12-mar-2014), p. 430 del PDF", "datum": "UTM 12N con desplazamiento de +30 m E y +170 m N ajustado contra la costa (INC-011)", "correccion_borde_px": 1.4, "precision_aprox_m": 267.0, "escala_por_superficie": false, "revisada_en_qgis": false}, "control": {"residuo_georreferencia_m": 94.0, "area_digitalizada_ha": 8432.04, "escala_por_superficie": false, "superficie_ficha_ha": 9581.15, "diferencia_area_pct": -12.0}, "georreferencia": {"a_x": 66.70019071853129, "b_x": 466364.70498589566, "a_y": -66.62582307908752, "b_y": 2851894.305996412, "factor_render": 2, "pagina_mapa": 430, "ficha_mapa": "77b"}}, "geometry": {"type": "MultiPolygon", "coordinates": [[[[-110.97306571224024, 25.22508402935745], [-110.97723772398665, 25.224277799969524], [-110.9772371679082, 25.22726524949657], [-110.97350081675646, 25.230658804051245], [-110.97107784155455, 25.2304531047628], [-110.96555303474508, 25.234267275256965], [-110.96070684464831, 25.234266065997662], [-110.95607282518448, 25.229451280786932], [-110.94502545471875, 25.229447584055734], [-110.94280017743729, 25.231467729343496], [-110.9427988708288, 25.23426021859243], [-110.93951485215126, 25.23425891077658], [-110.93710465112052, 25.23206709985431], [-110.93710712717603, 25.22725362019404], [-110.93578523143246, 25.22243956796809], [-110.93313780487824, 25.220031651124238], [-110.93181847807763, 25.211026733941644], [-110.95099332832822, 25.209830959181314], [-110.95340334133464, 25.21202254992116], [-110.95339944517882, 25.222251214322345], [-110.95783531565027, 25.2244787834694], [-110.96359798646516, 25.219245647961056], [-110.96492398681336, 25.21344504032828], [-110.96929409230779, 25.213446012524084], [-110.96929203210942, 25.22165368454071], [-110.97306571224024, 25.22508402935745]]], [[[-110.97084279219484, 25.268801285147227], [-110.97722942703678, 25.268802408502534], [-110.97722886963508, 25.271789840020425], [-110.9730294023607, 25.275602585819623], [-110.97481567719254, 25.27722556096071], [-110.97855282111644, 25.277226151391886], [-110.9785518727342, 25.282620303775552], [-110.9761391595246, 25.28481072372161], [-110.96739571880802, 25.285529187096348], [-110.97083819018317, 25.28805508578504], [-110.974813440933, 25.288055817995122], [-110.9772254238811, 25.290246998824692], [-110.97722460069132, 25.294653714584513], [-110.97481162535172, 25.296844109060768], [-110.96996294982469, 25.29684320133221], [-110.96863808037136, 25.29563956589854], [-110.96686055090443, 25.29684253690561], [-110.96410506760652, 25.296335809074417], [-110.96132121055439, 25.29946383961882], [-110.96132051526952, 25.301654624613178], [-110.95405898838558, 25.3016525412879], [-110.95273422399292, 25.300448763904228], [-110.94743335226251, 25.300446969759214], [-110.94279734893696, 25.29563180800712], [-110.93707251590162, 25.294426117206314], [-110.93575020635774, 25.28903140520107], [-110.93840160916665, 25.28662581465209], [-110.93840332341345, 25.28323166484806], [-110.94214064962758, 25.283233177691304], [-110.94502965859071, 25.280611625567598], [-110.94503173012588, 25.276014110160197], [-110.9522917294693, 25.276016635634235], [-110.95759070310004, 25.278424978841638], [-110.96181711420587, 25.277405155155385], [-110.95870667065762, 25.273976613684553], [-110.95563209221972, 25.2739757214488], [-110.95563288876112, 25.271784928393693], [-110.95298400279904, 25.26937738096448], [-110.95298523672174, 25.26617401563628], [-110.95563580276857, 25.26376810666418], [-110.95563659887621, 25.26157731057953], [-110.95804846707817, 25.261578015589016], [-110.96467418745611, 25.255562920620235], [-110.96732364892316, 25.255563530663842], [-110.97153644476951, 25.251738368829507], [-110.97153695526544, 25.249547568787623], [-110.97482138621017, 25.249548165229232], [-110.97723260899227, 25.25173935680862], [-110.97723178749214, 25.256146095560204], [-110.97481957435546, 25.2583365021473], [-110.97137723841537, 25.258454331103742], [-110.97325669628717, 25.260162254293824], [-110.97325604189231, 25.263149689218302], [-110.96974533801446, 25.262943767496303], [-110.96607618372889, 25.265673399731803], [-110.97084279219484, 25.268801285147227]]], [[[-110.96928683893304, 25.242326910725982], [-110.96928523469222, 25.248708521479035], [-110.96687362032417, 25.248708000279905], [-110.9615734806743, 25.25352018434553], [-110.95362431619567, 25.25592463460478], [-110.95097388111556, 25.2583305102107], [-110.94745149779384, 25.25832929867316], [-110.94371548847614, 25.257124556133114], [-110.94371760728619, 25.2525270262009], [-110.94017003215359, 25.24869959709684], [-110.93842074683621, 25.248698878132288], [-110.93842467830831, 25.240897967876027], [-110.94216288457712, 25.236301937930822], [-110.94746148794287, 25.23510054772975], [-110.95869217538127, 25.236307483745986], [-110.95869116568927, 25.239294927866514], [-110.95581726964112, 25.241904197766363], [-110.95782825859233, 25.244936064866987], [-110.96202771888262, 25.24593532749803], [-110.9660026022751, 25.242326191400874], [-110.96928683893304, 25.242326910725982]]], [[[-111.00750667499094, 25.33153817497155], [-111.00549324242655, 25.33336615318319], [-111.00969438893767, 25.33838271146509], [-111.0096946269932, 25.34137011498763], [-111.00375639303192, 25.34137038610557], [-110.99447696426799, 25.33655691920993], [-110.99071074733345, 25.33655672988245], [-110.98540801302833, 25.33896300608238], [-110.9776805445163, 25.337553443178727], [-110.97151607165243, 25.338960975066097], [-110.97151658452886, 25.336770200930435], [-110.96886597314193, 25.334362958113704], [-110.96886679264622, 25.331159620404243], [-110.9710796112902, 25.329151678385664], [-110.96906660049396, 25.327323379291222], [-110.96597867529022, 25.328129618239856], [-110.95912749297153, 25.320702504973525], [-110.95031324408694, 25.320905039617234], [-110.95031462898062, 25.317510904901937], [-110.94501518809976, 25.312695597969807], [-110.94369298625291, 25.30588167964137], [-110.94610669925, 25.303691797954585], [-110.94939258707952, 25.30369296221706], [-110.95118015029747, 25.307508881609], [-110.9624449712221, 25.308113859900732], [-110.96512144489444, 25.305684942837395], [-110.96489874481179, 25.301290751137117], [-110.97216025101135, 25.30129230070076], [-110.97481020849874, 25.303699494530314], [-110.98252392512174, 25.30370061042485], [-110.98252349664976, 25.306688027908685], [-110.97878485842662, 25.310081678231814], [-110.97480864026319, 25.311284409832876], [-110.97172153440785, 25.31047692867826], [-110.96838225373291, 25.313507501787505], [-110.97613263310099, 25.3181400024418], [-110.98056098544353, 25.318140652948955], [-110.98453767634857, 25.314531054282448], [-110.98938705621502, 25.31453148315498], [-110.99179982514653, 25.316722418112985], [-110.99179933890049, 25.323942553193586], [-110.99690228084279, 25.329177342351862], [-111.00375593605328, 25.326565375549475], [-111.01764628865773, 25.325361012009736], [-111.01764738833295, 25.332945905397438], [-111.00750667499094, 25.33153817497155]]], [[[-111.01544827419112, 25.238878716167726], [-111.01366049323114, 25.24211353748509], [-111.0163099846336, 25.244520005498114], [-111.01763523187601, 25.248926596501693], [-111.0112503920421, 25.25713485453949], [-111.00485249513189, 25.25452322638932], [-110.998454836177, 25.25472854231165], [-110.99249380945719, 25.25111825908381], [-110.98454571309983, 25.25111764125356], [-110.98213437131187, 25.248926568812315], [-110.9821346637925, 25.24692656155541], [-110.98478423802423, 25.244520122263474], [-110.98346024916448, 25.239922440066138], [-110.9904805180226, 25.23871969016413], [-110.9904803004989, 25.241512178031332], [-110.99259950964196, 25.243437689073527], [-110.99869272001123, 25.238504056579426], [-111.00001726414517, 25.225266989271493], [-111.00134161393912, 25.220453496181918], [-111.00375260410891, 25.218262645050704], [-111.00594950749833, 25.218262572957787], [-111.01522069306637, 25.225482140404416], [-111.01763184948099, 25.225481872425963], [-111.01763268599055, 25.231282791619037], [-111.02028202064095, 25.23368919201136], [-111.02028255217049, 25.23689257231163], [-111.01787149108333, 25.23908368762247], [-111.01544827419112, 25.238878716167726]]], [[[-111.01643522726793, 25.37758845462587], [-111.02030630911091, 25.37951144499824], [-111.02030717507894, 25.384689592348025], [-111.01258819560725, 25.383487109856215], [-111.00595775595326, 25.387097563460838], [-111.00110548113027, 25.387097679943135], [-110.99712707811523, 25.383487620316707], [-110.9927236079985, 25.383487468437625], [-110.99272384617554, 25.379512666234795], [-110.99932698393789, 25.37951284459144], [-111.00054772299647, 25.38062059547285], [-111.00189898597147, 25.379394379699605], [-111.00001728575059, 25.37768684862922], [-111.00001728443866, 25.36846679177524], [-111.00773481583595, 25.363869125846524], [-111.01102233026997, 25.36386891640712], [-111.01234858436777, 25.367262925717895], [-111.01079907562028, 25.373076425450403], [-111.01258728469752, 25.374698921503317], [-111.01765327480666, 25.3734950539756], [-111.01643522726793, 25.37758845462587]]], [[[-111.02409486828486, 25.425999076099068], [-111.01922586803502, 25.428010040801702], [-111.01461000541109, 25.42801057223038], [-111.01328295724011, 25.42401494221737], [-111.0064117857697, 25.418384446359262], [-111.0039968061801, 25.418384531866273], [-111.00267005003438, 25.40697380261554], [-111.00508471054741, 25.404782984781946], [-111.01016393091517, 25.404987961510912], [-111.01436891800937, 25.402375686176587], [-111.01765747510257, 25.40237532806981], [-111.01911689679744, 25.405287905581087], [-111.021000774879, 25.403578230911627], [-111.02428936444026, 25.403577724472463], [-111.02429016038803, 25.407552513343823], [-111.02161426487348, 25.407552931065133], [-111.0192230055494, 25.409959945870774], [-111.01613309739811, 25.409153406826775], [-111.01367950138815, 25.411379836690365], [-111.0161337438641, 25.414012487066795], [-111.01922351999765, 25.41320520536227], [-111.03092501226533, 25.419003980676894], [-111.03092552249421, 25.42100394102846], [-111.02827301714326, 25.42341115343719], [-111.02827380897214, 25.42680524018088], [-111.02409486828486, 25.425999076099068]]], [[[-111.04289546581148, 25.508865147739908], [-111.04422493876453, 25.51425873459123], [-111.03782681688025, 25.518857893213767], [-111.03031404389358, 25.518859639584505], [-111.02743180149623, 25.516248323469092], [-111.02234795552145, 25.51645442369864], [-111.02102016525173, 25.515251296327126], [-111.01462069434344, 25.51645539814588], [-111.01461933863189, 25.505260718274], [-111.01703605281624, 25.505260457397327], [-111.02125605928664, 25.50203566515154], [-111.02125503481645, 25.49621398177928], [-111.01859976263455, 25.492604360573967], [-111.01859889915795, 25.486994434864133], [-111.02101486696944, 25.484803378470744], [-111.02719883123324, 25.48720901966264], [-111.03227125154874, 25.493008704189858], [-111.03171576631888, 25.495512954560546], [-111.03625436811701, 25.496833682088052], [-111.03625556113926, 25.500808420038997], [-111.03450264067136, 25.500808842947922], [-111.03227414506583, 25.50383864285055], [-111.03473055273172, 25.506064233779888], [-111.0389118114222, 25.50525628381575], [-111.03891232350334, 25.50684534499175], [-111.04289546581148, 25.508865147739908]]], [[[-111.08416453389547, 25.521965366953147], [-111.07898813039233, 25.527264744079844], [-111.07569617941846, 25.527266481605007], [-111.0717064181006, 25.516052852548725], [-111.06748366699169, 25.512830622294015], [-111.06238505232294, 25.51403620454491], [-111.06015651105254, 25.51605804766957], [-111.06015790292405, 25.518850428781747], [-111.05577680154242, 25.51885216148955], [-111.05444621889886, 25.512255359852894], [-111.05710014852546, 25.509847701634616], [-111.05709683651367, 25.502843679305027], [-111.06130263419632, 25.501219372071947], [-111.05997283176042, 25.49640661704699], [-111.05818218893624, 25.49478472760448], [-111.05443834347938, 25.494786164978233], [-111.05443492643494, 25.48720144163864], [-111.05772578668972, 25.487200183607033], [-111.06279998268609, 25.493600473773306], [-111.07076712656892, 25.499011815292025], [-111.07076924178197, 25.502621791476816], [-111.0760835012712, 25.509839078953238], [-111.07608577649431, 25.5134490493757], [-111.08416453389547, 25.521965366953147]]], [[[-111.16642796968685, 25.563506920388697], [-111.15737720935728, 25.56931756961856], [-111.14720352795956, 25.56812484281456], [-111.14478292733683, 25.56593655563786], [-111.14566367655533, 25.55952081138952], [-111.14211532567921, 25.55631265734698], [-111.1421110677777, 25.552702716002585], [-111.13679233437595, 25.546691200691495], [-111.13678960318617, 25.54428456961761], [-111.13256346808623, 25.540462578064695], [-111.12725083147416, 25.539263971613554], [-111.12482930534655, 25.5352703657358], [-111.120843925817, 25.533252803151104], [-111.12084112805026, 25.530460432219574], [-111.11860929248705, 25.528441350263396], [-111.11395889746598, 25.52483507906035], [-111.10686765396514, 25.524840421944933], [-111.0993565012821, 25.527252349043007], [-111.09483703671215, 25.523162171023948], [-111.0982611848115, 25.520054136494515], [-111.09825597244644, 25.513651792009803], [-111.10154755000836, 25.513649548786358], [-111.10465758113274, 25.51605400686374], [-111.10863705423547, 25.512441143291426], [-111.11083927841264, 25.512439494750183], [-111.11349660939061, 25.514844106913728], [-111.1198961912969, 25.514839012208288], [-111.12169163745499, 25.51805107443122], [-111.12348060330599, 25.514836036590708], [-111.12677221029571, 25.51483322684528], [-111.13051797084594, 25.516033261456286], [-111.13275152237101, 25.519641220072977], [-111.13785103554785, 25.519636512473806], [-111.14580943667379, 25.513612204907748], [-111.15066676892765, 25.513607292968437], [-111.15308642018267, 25.51579550279262], [-111.15177471683589, 25.528410750872965], [-111.1493575473152, 25.52841323463866], [-111.1406024971283, 25.533353624989953], [-111.15093183889859, 25.5444968919439], [-111.15404798557205, 25.541064195040576], [-111.15404518650294, 25.538873488860457], [-111.1597548232933, 25.53886737331195], [-111.16375434277583, 25.550680191873038], [-111.16376415556935, 25.557900067463073], [-111.16642520623836, 25.56150700707469], [-111.16642796968685, 25.563506920388697]]]]}}]}
