{"type": "FeatureCollection", "features": [{"type": "Feature", "properties": {"uga": "78a", "politica": "conservacion", "procedencia": {"metodo": "digitalizacion-semiautomatica", "fuente": "Mapa de ubicación de la ficha UGA 78a, Boletín Oficial No. 12 (12-mar-2014), p. 433 del PDF", "datum": "UTM 12N con desplazamiento de +30 m E y +170 m N ajustado contra la costa (INC-011)", "correccion_borde_px": 1.4, "precision_aprox_m": 170.0, "escala_por_superficie": true, "revisada_en_qgis": false}, "control": {"residuo_georreferencia_m": 0.0, "area_digitalizada_ha": 4844.66, "escala_por_superficie": true, "superficie_ficha_ha": 4859.63, "diferencia_area_pct": -0.3}}, "geometry": {"type": "Polygon", "coordinates": [[[-111.16483665789647, 25.646626458573255], [-111.16610726067508, 25.64777527448462], [-111.16526230188427, 25.64854307004493], [-111.16900765255579, 25.652695115388862], [-111.1690110666119, 25.65511815905494], [-111.16647818850156, 25.658955248866025], [-111.16648031763825, 25.66048891783478], [-111.16479021588674, 25.66202450654437], [-111.16226120946781, 25.668928856241553], [-111.15649510765014, 25.672631373749407], [-111.15311034418153, 25.67263496408722], [-111.15057369804386, 25.674171272600496], [-111.14380408165361, 25.674178100482383], [-111.14246860790412, 25.675390931670357], [-111.14119793636416, 25.674241914659746], [-111.13942278404542, 25.675853974286444], [-111.13773476285955, 25.67968974954497], [-111.13774534397794, 25.688891744685115], [-111.13436355975104, 25.69196223157498], [-111.13436512589563, 25.693357943559125], [-111.12605480650954, 25.694132195466675], [-111.12013578551877, 25.699505020408832], [-111.11761365262579, 25.69950707634622], [-111.11845094591003, 25.690319816687186], [-111.1209867983224, 25.687250400990454], [-111.12098383944702, 25.684321020401935], [-111.12640114550094, 25.685405409035514], [-111.12844806584334, 25.684314639589463], [-111.1306317193462, 25.684634848375175], [-111.13198440988769, 25.683406696646895], [-111.12774584228004, 25.676631498446326], [-111.1238666092561, 25.67312281597977], [-111.12520224690887, 25.671910154004518], [-111.12604520811537, 25.66884208660595], [-111.12639387552143, 25.662384948984762], [-111.12554695303326, 25.66161884347706], [-111.12723674034916, 25.65931687106923], [-111.12638983425724, 25.65855077006791], [-111.13611162882702, 25.65125707981772], [-111.13482425138344, 25.65009260388279], [-111.1326267707751, 25.652088393299064], [-111.13262831392565, 25.653484113008602], [-111.12770581155024, 25.655022175401232], [-111.12593076034626, 25.656634074784794], [-111.12720109877374, 25.65778322878858], [-111.12248438824152, 25.66206613283163], [-111.12249206631894, 25.66958111911156], [-111.1204594076262, 25.66774240514374], [-111.11910677457189, 25.66897045245618], [-111.11910816145907, 25.67036616966458], [-111.11420107003168, 25.67113692745497], [-111.11419754860273, 25.667440704327188], [-111.11165622477826, 25.664375325825304], [-111.1141211246471, 25.658177457193588], [-111.11285090686673, 25.657028189016177], [-111.11411893565298, 25.655876947720447], [-111.11284874234815, 25.65472767907943], [-111.1167172371693, 25.648145248792655], [-111.12045409531297, 25.645519550911494], [-111.11909927625192, 25.644293720815227], [-111.11502150805927, 25.644296989082736], [-111.11501871523545, 25.64138300484709], [-111.11824965721756, 25.640613586262027], [-111.12009210562526, 25.638940452042664], [-111.12431565128531, 25.632924745286637], [-111.11993071104901, 25.629723098270272], [-111.10823502536948, 25.62373546113754], [-111.10907669507849, 25.61913379006738], [-111.10772229053813, 25.617907848649875], [-111.10483049642013, 25.618998943359532], [-111.10146424031076, 25.619001319016004], [-111.10146241399383, 25.616838750170412], [-111.10012512693461, 25.61562814013051], [-111.1013928424909, 25.614477003766144], [-111.1006120175434, 25.61134890578028], [-111.1030798034572, 25.609107930005422], [-111.09891554827284, 25.605337864101234], [-111.0989122928332, 25.601381111702207], [-111.10053487298521, 25.59990758876992], [-111.09283497911312, 25.594468089605765], [-111.09129582499496, 25.594469058461037], [-111.09164909341759, 25.591861567575062], [-111.08741874487714, 25.588796779235768], [-111.08868630045609, 25.587645749254598], [-111.08740006492707, 25.58648084183126], [-111.08655503050032, 25.587248189077666], [-111.08232392457704, 25.582649560844338], [-111.078451558265, 25.58297384101625], [-111.07352804532603, 25.579280125076952], [-111.07352478515986, 25.573943033078965], [-111.07555513617076, 25.575782429835346], [-111.07640016062902, 25.57501514494192], [-111.07724615849082, 25.575781546960112], [-111.07810815765613, 25.574998828876897], [-111.07607778098276, 25.573159467403453], [-111.07929065327573, 25.57315776192086], [-111.08197757402237, 25.570717787217596], [-111.08620165720818, 25.566114279637972], [-111.0862001092798, 25.56395169420738], [-111.09025816285289, 25.56394924830684], [-111.09026150805107, 25.568412372941378], [-111.09364632644781, 25.572244478761178], [-111.09364811603653, 25.57454501605431], [-111.0950018876784, 25.575771096972332], [-111.09702962972877, 25.57392933622218], [-111.09703321507499, 25.578377039539834], [-111.10042108969522, 25.585276360177012], [-111.10311202984319, 25.587712976780022], [-111.10718787981499, 25.587710047063545], [-111.10803610480754, 25.590638845689764], [-111.11242073301493, 25.59537455879488], [-111.11869660038663, 25.59645859517543], [-111.11954149352857, 25.59569106365569], [-111.12087875279802, 25.596901499495495], [-111.12243415443531, 25.596133362369297], [-111.1276432054895, 25.59612890884462], [-111.13221428300041, 25.60026579960853], [-111.13136943907661, 25.60103340367849], [-111.13173108211913, 25.606845665608038], [-111.13095369555307, 25.607551936045336], [-111.1317352844432, 25.610679870854078], [-111.12969047445786, 25.612537533165902], [-111.13189250157777, 25.615296191549366], [-111.14444692087504, 25.617584846718806], [-111.14698151598084, 25.615281797843352], [-111.15036370353795, 25.614511517035904], [-111.15895666875414, 25.614502425317262], [-111.1665740106869, 25.618328144678145], [-111.17235000567175, 25.62355137150762], [-111.17320597983053, 25.630574449420646], [-111.17151747902115, 25.63287695682432], [-111.17068247213376, 25.6405463147919], [-111.16899270384658, 25.64208195465044], [-111.16899466924512, 25.64347767393037], [-111.16745489177815, 25.643479447400093], [-111.16483665789647, 25.646626458573255]], [[-111.15123458738655, 25.634448452160488], [-111.15307565832252, 25.632130604116757], [-111.15002694978583, 25.629373145659187], [-111.14544255198798, 25.629699930858077], [-111.14360059963327, 25.631373384912738], [-111.14629423320314, 25.63445348280155], [-111.15123458738655, 25.634448452160488]]]}}]}
