{"type": "FeatureCollection", "features": [{"type": "Feature", "properties": {"uga": "78b", "politica": "preservacion", "procedencia": {"metodo": "digitalizacion-semiautomatica", "fuente": "Mapa de ubicación de la ficha UGA 78b, Boletín Oficial No. 12 (12-mar-2014), p. 436 del PDF", "datum": "UTM 12N con desplazamiento de +30 m E y +170 m N ajustado contra la costa (INC-011)", "correccion_borde_px": 1.4, "precision_aprox_m": 169.0, "escala_por_superficie": false, "revisada_en_qgis": false}, "control": {"residuo_georreferencia_m": 0.0, "area_digitalizada_ha": 6199.75, "escala_por_superficie": false, "superficie_ficha_ha": 6206.49, "diferencia_area_pct": -0.1}, "georreferencia": {"a_x": 84.55168260876474, "b_x": 469346.5801571546, "a_y": -84.55168260876881, "b_y": 2851509.065231691, "factor_render": 1, "pagina_mapa": 436, "ficha_mapa": "78b"}}, "geometry": {"type": "Polygon", "coordinates": [[[-111.17610115167356, 25.573146660486344], [-111.17407809152148, 25.57131660266212], [-111.17484702301023, 25.567437016133173], [-111.17145854022496, 25.564371543574094], [-111.16817977009265, 25.5673531276494], [-111.16817465195365, 25.563688172965467], [-111.16479398492717, 25.553766072702643], [-111.16478772001742, 25.549184869768368], [-111.16310231192323, 25.547659685887925], [-111.16309921228377, 25.545369082674735], [-111.16092420628308, 25.542638107362826], [-111.1630256876857, 25.540726943280156], [-111.15837537196656, 25.53728078323991], [-111.15451052543594, 25.54232425120581], [-111.15451426412201, 25.545241032062457], [-111.15131601827565, 25.545244371274478], [-111.15046882762782, 25.540801386235906], [-111.14694708131344, 25.53761345538099], [-111.14288962430078, 25.536853932297586], [-111.14204266079696, 25.532288880213045], [-111.14693517385695, 25.52784018911726], [-111.15464530530839, 25.529359330135925], [-111.15710457519998, 25.530822782888045], [-111.15838228121291, 25.529660753384753], [-111.15619172041139, 25.527677907158946], [-111.15381854623836, 25.52768041755953], [-111.1538148468818, 25.5247789774825], [-111.15534646327315, 25.524777361870594], [-111.15669127779094, 25.523554269253065], [-111.15633422456256, 25.520821260782625], [-111.15710755013217, 25.520117901381802], [-111.1538050948983, 25.51712825548383], [-111.15380120303718, 25.51407410360302], [-111.14992628005763, 25.510565836652717], [-111.14774106464884, 25.512553257943363], [-111.14774293370188, 25.51408033478668], [-111.14369155431824, 25.517764698065506], [-111.14200864969943, 25.517766338225126], [-111.14032752059305, 25.51929503531824], [-111.13261904834059, 25.518538673849285], [-111.12672242773353, 25.512435574107517], [-111.12467046503363, 25.513658997309456], [-111.12502598862383, 25.51562854976791], [-111.12349590834361, 25.517019565933907], [-111.12167855107592, 25.517021085859245], [-111.11746759598454, 25.513206822210485], [-111.11458954520117, 25.5128883362683], [-111.11374884544394, 25.51365253104212], [-111.10996000015388, 25.51098303144516], [-111.10819448435917, 25.512587779625346], [-111.10819641440807, 25.514741038333636], [-111.1031653861127, 25.515508205452978], [-111.09986438826147, 25.51251733697043], [-111.09692157413977, 25.515191702939944], [-111.09321666201413, 25.511834528449235], [-111.09321548287515, 25.510307448068563], [-111.09186831029916, 25.50908663329177], [-111.08969783867407, 25.509408741553464], [-111.08648207978162, 25.507257411182295], [-111.08648089867216, 25.505608317277005], [-111.09053247929015, 25.500398441849967], [-111.09403225377056, 25.50039623947166], [-111.09606983378698, 25.502242766426054], [-111.10062529134292, 25.496574154797255], [-111.10749085659302, 25.497332825392736], [-111.10910758301033, 25.498797708678516], [-111.11080572189906, 25.49725400416558], [-111.10903752265298, 25.4956518915629], [-111.10651227822304, 25.494126663105845], [-111.10314712295197, 25.494129068276905], [-111.10062134853251, 25.491840195769452], [-111.09907323621063, 25.491841249591374], [-111.0972406854624, 25.493506921272797], [-111.09724180402803, 25.4948966445807], [-111.09486986843108, 25.49566174019986], [-111.09221153104761, 25.49566343565348], [-111.0889119096402, 25.49343585232088], [-111.08462355173667, 25.496568912822134], [-111.0837842685385, 25.49948620243287], [-111.08225296902141, 25.49948706931005], [-111.07873838891568, 25.50268052601682], [-111.07873988244924, 25.504971149723882], [-111.07705812699237, 25.506499125848606], [-111.07705997877801, 25.509400581028373], [-111.07301906195312, 25.505737651676196], [-111.07133451692161, 25.502684314733802], [-111.07133181122576, 25.498103064396354], [-111.06781339827225, 25.494913203493066], [-111.06613080801941, 25.49491397180601], [-111.05954885166607, 25.488945808955666], [-111.05954809917922, 25.48741872260689], [-111.0560975494168, 25.484289553923027], [-111.0523135404851, 25.487726898260004], [-111.04978948990917, 25.486964233151237], [-111.04851118596534, 25.488125324651783], [-111.05027847415752, 25.48972817055902], [-111.05448442609185, 25.48896312539969], [-111.05601623734623, 25.490352274214736], [-111.05517706592056, 25.49493384967353], [-111.05701179048884, 25.49659759361764], [-111.05904724876665, 25.49539046819206], [-111.06323882105129, 25.499191084533], [-111.06239789051043, 25.49995498686631], [-111.06323962059867, 25.500718168324735], [-111.05770575262153, 25.504980936579663], [-111.05854933945838, 25.50956185024422], [-111.0551854952824, 25.513380859741712], [-111.05518752013474, 25.517809393936112], [-111.05015380757754, 25.513245307391678], [-111.04525635366886, 25.51248336029169], [-111.04525583267709, 25.511093638742075], [-111.03936448156146, 25.506514091069565], [-111.0393639837413, 25.50498700791262], [-111.03801741404476, 25.50376569636279], [-111.03682293249145, 25.504850307691168], [-111.03263302093904, 25.504851300056618], [-111.03263264539584, 25.503461576851215], [-111.03130307662278, 25.502255547501207], [-111.03719132783661, 25.498436461195727], [-111.03683658924413, 25.494176059909005], [-111.040554044864, 25.49080014188089], [-111.03718780251349, 25.486983316859792], [-111.04256975026607, 25.48133162917379], [-111.04761695559998, 25.481330077991327], [-111.04845785037607, 25.480566258513893], [-111.05266416049434, 25.481328353188378], [-111.05870123486802, 25.475843890892058], [-111.05870049352824, 25.474316801792806], [-111.06023078274313, 25.47292645297545], [-111.06611752550963, 25.470633284030942], [-111.07032093650457, 25.466813604001462], [-111.072003135532, 25.466812788457666], [-111.07368440428864, 25.465284863120143], [-111.07634207500675, 25.46528350498838], [-111.08307235766566, 25.467570486469313], [-111.09064630344308, 25.472910818439292], [-111.10326342341462, 25.47290248304219], [-111.10410522186524, 25.473665432654492], [-111.10999324617684, 25.473661137695817], [-111.11083509223525, 25.474424048471015], [-111.1301832132486, 25.475935247679814], [-111.13102520206922, 25.476698041864772], [-111.14027803376608, 25.476689488383077], [-111.1411200912593, 25.47745222428207], [-111.14532594880455, 25.47744811921705], [-111.153742516001, 25.48125725617928], [-111.1569597629718, 25.48417065862756], [-111.15780895677989, 25.490278082472976], [-111.16033881672128, 25.494856586391176], [-111.16217498259923, 25.496519009543178], [-111.1689086121986, 25.498802030519876], [-111.17296912537951, 25.502477637868207], [-111.17262394913546, 25.508265597689586], [-111.17346643100461, 25.509028142554897], [-111.171299607643, 25.51176408320981], [-111.1713026850708, 25.51393268422627], [-111.17651061962759, 25.519408633816262], [-111.18071907441491, 25.520167043014073], [-111.18225272909149, 25.521554859733264], [-111.18141717564693, 25.525495595578956], [-111.17568227582652, 25.528419372675216], [-111.17300979271124, 25.530850523252358], [-111.17301290352411, 25.533019118425408], [-111.17807352295674, 25.54064841684328], [-111.17807803438671, 25.543702553883005], [-111.18481928278021, 25.549038947622638], [-111.18903840628683, 25.55590537047695], [-111.18904818356043, 25.56213563761446], [-111.18737060270139, 25.56595545994414], [-111.18331870733736, 25.569640895929496], [-111.1799548794047, 25.571935668351372], [-111.17742939219951, 25.571938751950654], [-111.17610115167356, 25.573146660486344]], [[-111.13765403859551, 25.506470104983126], [-111.13983842708612, 25.503719292502247], [-111.13764777227871, 25.50097261872964], [-111.13273420259397, 25.500977148597155], [-111.13090197977021, 25.502643237648083], [-111.13090350279772, 25.504048305517678], [-111.13273940586566, 25.505711096299095], [-111.13765403859551, 25.506470104983126]]]}}]}
