{"type": "FeatureCollection", "features": [{"type": "Feature", "properties": {"uga": "79", "politica": "preservacion", "procedencia": {"metodo": "digitalizacion-semiautomatica", "fuente": "Mapa de ubicación de la ficha UGA 79, Boletín Oficial No. 12 (12-mar-2014), p. 439 del PDF", "datum": "UTM 12N con desplazamiento de +30 m E y +170 m N ajustado contra la costa (INC-011)", "correccion_borde_px": 1.4, "precision_aprox_m": 49.0, "escala_por_superficie": true, "revisada_en_qgis": false}, "control": {"residuo_georreferencia_m": 0.0, "area_digitalizada_ha": 660.18, "escala_por_superficie": true, "superficie_ficha_ha": 661.06, "diferencia_area_pct": -0.1}, "georreferencia": {"a_x": 12.25511108650711, "b_x": 447930.8662637701, "a_y": -12.25511108650711, "b_y": 2847425.1517837904, "factor_render": 2, "pagina_mapa": 439, "ficha_mapa": "79"}}, "geometry": {"type": "Polygon", "coordinates": [[[-111.4795009759137, 25.673770520159344], [-111.47982338783694, 25.67376946042281], [-111.47982500073974, 25.674172296162077], [-111.48031524204742, 25.67461334124902], [-111.48031848869996, 25.6754233496464], [-111.47837431884327, 25.67786435389647], [-111.4783778534746, 25.67874965769575], [-111.4774052910406, 25.679859487236506], [-111.47740777820141, 25.680483648700697], [-111.4744387182897, 25.68012369188308], [-111.47330039977108, 25.680718359373362], [-111.470372040088, 25.681391816163956], [-111.46882452418905, 25.681027155321974], [-111.46695514630584, 25.682066778869544], [-111.46650804661934, 25.682030560872338], [-111.46545015941335, 25.68321804964313], [-111.46520919040228, 25.68406431716334], [-111.46476462295551, 25.684065734109883], [-111.46423404310991, 25.684549898176982], [-111.46423575867846, 25.68499255058712], [-111.46253365723439, 25.686989917433095], [-111.46205025968993, 25.688319422679136], [-111.46107746792599, 25.68942914511003], [-111.46083703521833, 25.690425884706848], [-111.4598650652607, 25.691756925249273], [-111.4598262089767, 25.692458682403164], [-111.45987300463472, 25.693824155721398], [-111.46011812950704, 25.694044711363976], [-111.45995727194358, 25.694782221046776], [-111.46036836140895, 25.695593222683378], [-111.46037602127237, 25.69758515638996], [-111.46111654011948, 25.699574774035852], [-111.46087537277597, 25.70038555417645], [-111.46090008992196, 25.706804000598243], [-111.4604157461968, 25.707912172557663], [-111.46017895076496, 25.709865058013694], [-111.45973428718266, 25.709866460939132], [-111.45900391307863, 25.710532747155945], [-111.45827183532309, 25.71075637857191], [-111.45603401412963, 25.71076339609261], [-111.45546143900478, 25.71054385777071], [-111.4544858858998, 25.710989559059083], [-111.45171815817278, 25.71107117745356], [-111.45058109923129, 25.712108322269447], [-111.44960468296856, 25.71233266540009], [-111.44907391747827, 25.71281677496688], [-111.44907542965319, 25.713219610309775], [-111.44863075291663, 25.713220979534594], [-111.4471698307206, 25.71455343869444], [-111.44672261450442, 25.714517161758387], [-111.44595154556207, 25.715442484453316], [-111.44468902578188, 25.71626080763337], [-111.44469011200192, 25.716552980107323], [-111.4440011013221, 25.716555080560315], [-111.44229658107703, 25.718109561420302], [-111.441402402622, 25.718112272132064], [-111.43899432094847, 25.715724748817323], [-111.43874837757068, 25.71528283233267], [-111.43874297137616, 25.71380884534866], [-111.44040367305513, 25.712294354458432], [-111.44211059018937, 25.711403873521014], [-111.44442496561575, 25.70962620793817], [-111.44576370736897, 25.708294149317478], [-111.44702613645774, 25.7074758171513], [-111.44702504497376, 25.707183644406634], [-111.44767258622426, 25.707219305763], [-111.44799976729168, 25.706516666812387], [-111.448810870101, 25.706514172263848], [-111.44921877795738, 25.705848930298217], [-111.44990772649288, 25.705846806002956], [-111.45161531511481, 25.70517754114935], [-111.45263295619529, 25.704249254533213], [-111.45327882141014, 25.70254963552912], [-111.45311149289249, 25.701591824980923], [-111.45359755749304, 25.70092632786123], [-111.45383597248723, 25.699376285332164], [-111.45456462786896, 25.698267372341668], [-111.4557818324648, 25.69715692964556], [-111.45577930461565, 25.696492951337518], [-111.45618544662938, 25.696011375757752], [-111.45630463369923, 25.6952363522298], [-111.45577227749195, 25.694647046608797], [-111.45576890749429, 25.693761741878728], [-111.45486648798739, 25.692839426782264], [-111.45454402358455, 25.692840432074536], [-111.4545408140802, 25.691994943348828], [-111.45404975477697, 25.691332486049294], [-111.4537961255296, 25.688863288681393], [-111.45549755877343, 25.686644695529655], [-111.45573691732608, 25.685355790448742], [-111.45605936152319, 25.685354782791865], [-111.4574220460329, 25.68400040912228], [-111.45755403467523, 25.681472394244985], [-111.45730669346227, 25.680663149624245], [-111.45754896296037, 25.68014443504163], [-111.45701300127631, 25.679220980969923], [-111.45652451191613, 25.67922251018209], [-111.45566713023553, 25.678561202417804], [-111.45522258261201, 25.678562590011495], [-111.45522147254883, 25.678270416439148], [-111.45448733380752, 25.677900894051316], [-111.45407451556476, 25.677238191240832], [-111.45375209312317, 25.677239194216376], [-111.45375056765214, 25.676836357146296], [-111.45252518875, 25.6757335153491], [-111.45227622321981, 25.674481607185577], [-111.45251962263538, 25.67425952314078], [-111.45251460833788, 25.67293156169389], [-111.45291775789967, 25.671675350258802], [-111.45275146589833, 25.670978678118523], [-111.45348274316343, 25.670604596371348], [-111.45348163773563, 25.6703124224097], [-111.45441376898467, 25.670088193556637], [-111.45722405757598, 25.670522075512583], [-111.45824221069405, 25.669815076808117], [-111.45824067063862, 25.669412239580573], [-111.45868518413329, 25.669410843254212], [-111.45990206121562, 25.668300366321205], [-111.46039050582723, 25.668298826410165], [-111.4611206184901, 25.667632533041772], [-111.46226034547706, 25.668071586818815], [-111.46323723247058, 25.6680684896039], [-111.46389075958562, 25.668436056470195], [-111.46747294819198, 25.668276314024215], [-111.46808263891799, 25.66805303062448], [-111.46849031142989, 25.667387734540455], [-111.46917903690601, 25.667385522263043], [-111.46990909449755, 25.66671918560448], [-111.47197830167161, 25.66626985059774], [-111.4719807590682, 25.66689401371628], [-111.4736955395512, 25.66821643424594], [-111.47533409463307, 25.670021557475998], [-111.4759007219325, 25.67001971092596], [-111.47590276077268, 25.67053321023686], [-111.47631451383731, 25.670903677552612], [-111.4768811452259, 25.670901827137197], [-111.47688274803347, 25.671304663208236], [-111.47761895950528, 25.672187571923324], [-111.4795009759137, 25.673770520159344]], [[-111.46787842207054, 25.678301227930604], [-111.46706260298873, 25.678303841618128], [-111.46643024354323, 25.678991984542357], [-111.46718964339571, 25.67956501050895], [-111.46776122605863, 25.679563179212447], [-111.46829176968663, 25.679079002493502], [-111.46829017781813, 25.678671717469214], [-111.46787842207054, 25.678301227930604]]]}}]}
