{"type": "FeatureCollection", "features": [{"type": "Feature", "properties": {"uga": "7a", "politica": "preservacion", "procedencia": {"metodo": "digitalizacion-semiautomatica", "fuente": "Mapa de ubicación de la ficha UGA 6, Boletín Oficial No. 12 (12-mar-2014), p. 166 del PDF (el Boletín imprime ahí el mapa de la UGA 7a; INC-012)", "datum": "UTM 12N con desplazamiento de +30 m E y +170 m N ajustado contra la costa (INC-011)", "correccion_borde_px": 1.4, "precision_aprox_m": 37.0, "escala_por_superficie": false, "revisada_en_qgis": false}, "control": {"residuo_georreferencia_m": 12.6, "area_digitalizada_ha": 1880.87, "escala_por_superficie": false, "superficie_ficha_ha": 1894.91, "diferencia_area_pct": -0.7}}, "geometry": {"type": "Polygon", "coordinates": [[[-111.52129384103914, 26.5049790604601], [-111.52337236079069, 26.506858382197237], [-111.5238976177896, 26.506517022919233], [-111.52426998055059, 26.506515655230444], [-111.52538243691428, 26.505493268507706], [-111.52742766958583, 26.50548572329467], [-111.52743213620785, 26.50646388949034], [-111.52690808526708, 26.506465825663312], [-111.52598027054995, 26.50714811201122], [-111.52486471885503, 26.507491651550588], [-111.52337986967551, 26.508515400738325], [-111.52300750041434, 26.508516766199435], [-111.52207964593381, 26.509199027572937], [-111.52096406237841, 26.509542536980398], [-111.51725249666944, 26.51227149449259], [-111.5168472804572, 26.512643836925513], [-111.5168486590073, 26.51295182128978], [-111.51651076972527, 26.51295304502935], [-111.51576903402773, 26.51363459177273], [-111.51350639948068, 26.515031922864765], [-111.51276689387298, 26.51622259346344], [-111.51183966899661, 26.517074502360423], [-111.51073073526892, 26.5189453505457], [-111.50961951816164, 26.520307050995164], [-111.50962101670278, 26.520646477095713], [-111.5070283164407, 26.523880315935013], [-111.50702980759507, 26.52421974200226], [-111.50314158511365, 26.529324982535492], [-111.50277492660831, 26.530652558451845], [-111.50166034504505, 26.53065648397476], [-111.50128642840669, 26.530318367700836], [-111.49812068006416, 26.530329461458166], [-111.4977467747134, 26.529991335725327], [-111.49498522960002, 26.530000948309006], [-111.49461424441121, 26.53034166705435], [-111.49160295713676, 26.530352080262983], [-111.49122907051725, 26.530013937174676], [-111.48995728452671, 26.530018312612096], [-111.4895862842103, 26.53035901848258], [-111.48288233022338, 26.53038187796503], [-111.48251130755169, 26.53072256571319], [-111.47860065228352, 26.53073574485463], [-111.47822961566129, 26.531076421632086], [-111.47673983703909, 26.531081410231856], [-111.47636879374684, 26.53142208223993], [-111.47506523321478, 26.531426431157474], [-111.47450796029543, 26.53176771869688], [-111.47391770687183, 26.532479987953536], [-111.47374193594533, 26.5350263115338], [-111.4727400560392, 26.53594610297874], [-111.47210451138301, 26.535371174623393], [-111.47210103863296, 26.53452260631319], [-111.47161980576388, 26.53374909071119], [-111.47209538936738, 26.533142124612436], [-111.47209330594173, 26.532632983478617], [-111.47264850449903, 26.53178256411245], [-111.47319882275666, 26.529744146379247], [-111.47319334830188, 26.52840920838247], [-111.47281813043566, 26.527731588490198], [-111.47243735873408, 26.525696256625015], [-111.47168764805905, 26.524510724806305], [-111.47094003040586, 26.52383433052784], [-111.47075174292684, 26.523325803382264], [-111.46828812407733, 26.52126587554977], [-111.46716950976436, 26.52093011108593], [-111.46604953140903, 26.520254909436932], [-111.46511850548345, 26.520257948458728], [-111.4645924643533, 26.519781955925787], [-111.46458768315802, 26.518593956386972], [-111.46327473062726, 26.51622219560046], [-111.4613699831812, 26.51416032739916], [-111.46025010432406, 26.51348507827034], [-111.45987771550226, 26.513486279183414], [-111.45838411763306, 26.512472786018897], [-111.45745315345229, 26.512475774196943], [-111.45707942416847, 26.51213753864075], [-111.45447273118931, 26.512145866295644], [-111.45346775569693, 26.511405394788365], [-111.45420918291502, 26.51055445231171], [-111.45412695577872, 26.51014180836127], [-111.45346042510374, 26.50953853317197], [-111.45393667454974, 26.509101340342927], [-111.45393546399964, 26.508793352935058], [-111.45427334425105, 26.508792277555752], [-111.45464438203034, 26.508451662048444], [-111.45520294131177, 26.508449881117453], [-111.4569062741244, 26.506715825930108], [-111.45709044280845, 26.506206085507664], [-111.45679704473243, 26.505794119225026], [-111.4569825553765, 26.505623808347956], [-111.45660817906102, 26.505115856186887], [-111.45679368891415, 26.504945545549727], [-111.45622978426769, 26.503589614292974], [-111.45707643016858, 26.502664848081935], [-111.45678362235306, 26.502399823915876], [-111.45696912764609, 26.5022295130458], [-111.45651253378239, 26.50130891740936], [-111.45576448663431, 26.500462723410838], [-111.45584202484133, 26.499687362838685], [-111.45565518323873, 26.499518242478374], [-111.45631554403931, 26.498571302498824], [-111.45649903242024, 26.497891847475096], [-111.45649241758574, 26.49621747043475], [-111.45630424040628, 26.495708920838844], [-111.45582461733355, 26.495274774255762], [-111.4561028603109, 26.495019309671438], [-111.45582260903355, 26.494765629242995], [-111.45674873531935, 26.493574648525396], [-111.45656190243545, 26.493405529097025], [-111.4568525839099, 26.493138636928197], [-111.45647565818136, 26.491974595169985], [-111.45665715838965, 26.490794663941344], [-111.45699498588189, 26.49079358279559], [-111.45866636611305, 26.48976991885151], [-111.4590716936408, 26.489397738980113], [-111.45907047044977, 26.48908975094265], [-111.45940829284491, 26.48908866415019], [-111.46352309423625, 26.485310141197875], [-111.46370720100492, 26.484800391540332], [-111.46537501915736, 26.48292807480101], [-111.46648435750944, 26.48105756433869], [-111.46759640534886, 26.479865905605752], [-111.46852022947733, 26.478165703910225], [-111.46851885434326, 26.477826273701485], [-111.46888975160996, 26.477485621546553], [-111.4692572036237, 26.47629639285766], [-111.46999760257486, 26.475275653546863], [-111.4711040293433, 26.472726246510568], [-111.471474902778, 26.472385587718538], [-111.47147089082156, 26.471401239689868], [-111.47274126599346, 26.47255111886122], [-111.47331145635383, 26.475434425806956], [-111.47416680649528, 26.47671585448917], [-111.47398345390947, 26.4773953324097], [-111.47417028564989, 26.477564429421495], [-111.47239613641278, 26.4791940103535], [-111.47203009368727, 26.480722676246533], [-111.47139553812026, 26.481816548364296], [-111.47166325640129, 26.482058853718094], [-111.47167304215482, 26.48445763470606], [-111.47130411394093, 26.48528466620596], [-111.4717124111648, 26.485654194482976], [-111.47335326748349, 26.48564876344312], [-111.47335670652505, 26.48648866771234], [-111.47243080872119, 26.48767975434853], [-111.47095334346416, 26.490569826189546], [-111.47058241102259, 26.490910483561795], [-111.4705851750075, 26.491589342517486], [-111.47021618176902, 26.492407701092016], [-111.4698783501921, 26.492408813589616], [-111.46873046932106, 26.49329261513237], [-111.46854637189679, 26.493802370549936], [-111.46873450708306, 26.49428813114415], [-111.46874423726968, 26.49668690903259], [-111.46822216167989, 26.497166331044898], [-111.46747749006602, 26.497168772128685], [-111.46503250569087, 26.49958423908634], [-111.4641057367233, 26.500605557401304], [-111.4633671687706, 26.502135409356757], [-111.46244104419928, 26.503326431605295], [-111.46319383105725, 26.50533781925092], [-111.46395928715212, 26.505861454423925], [-111.4648736977353, 26.505703232216757], [-111.46542745787389, 26.50519477769853], [-111.46543210813428, 26.506348836426163], [-111.46618026409979, 26.507194977620625], [-111.46619679795437, 26.511290895937883], [-111.46491342472845, 26.5131505801942], [-111.46530926409402, 26.51350877888822], [-111.46639467850999, 26.51350523450416], [-111.46754208872665, 26.51245173703955], [-111.46791172300392, 26.51177165893337], [-111.46827791199665, 26.510243008196436], [-111.46938745800549, 26.508372479452152], [-111.46937927392723, 26.50635867911797], [-111.46900553030854, 26.506020474712347], [-111.46899992505973, 26.504639986879134], [-111.4693695264436, 26.50395990469968], [-111.4693633203288, 26.502432474339162], [-111.47010526317787, 26.501751164995035], [-111.47047346679125, 26.500731650863745], [-111.47177321658131, 26.49987877605511], [-111.47232895780773, 26.49919807062578], [-111.47232769875495, 26.498890083593015], [-111.47452725434003, 26.498882787008462], [-111.47500675039504, 26.498442429204058], [-111.47623593482245, 26.499216528905237], [-111.476948871331, 26.499214148049578], [-111.47768801537846, 26.498535309934145], [-111.47769288090177, 26.499712139979355], [-111.476580050795, 26.500734160868863], [-111.47639588295225, 26.501221153295386], [-111.47717800493673, 26.50192884928138], [-111.47826190348734, 26.501585787464624], [-111.47863284670308, 26.501245110484426], [-111.47918862576181, 26.501243245328943], [-111.47919070164369, 26.50174371850252], [-111.47863428613942, 26.502254735754985], [-111.47845021899897, 26.502764502914335], [-111.47548326784926, 26.50565960261729], [-111.47531232406956, 26.50632765225357], [-111.47570817147854, 26.50668582231858], [-111.4762349711283, 26.506684065015897], [-111.47775458608297, 26.50562924325623], [-111.47764729711515, 26.505216697288628], [-111.47793795844407, 26.504949762864808], [-111.47793668412017, 26.50464177633144], [-111.47846073073275, 26.50464002012634], [-111.47938881163797, 26.50395803887303], [-111.48053763138094, 26.503954174766868], [-111.4809114014757, 26.504292348698243], [-111.48125201079112, 26.5042912003637], [-111.4816573146758, 26.50391895739522], [-111.48165448413666, 26.503240100707384], [-111.48202542242917, 26.502899415050752], [-111.4820176330865, 26.501032558837633], [-111.48228267965271, 26.500618758099943], [-111.48183756189407, 26.50021602619087], [-111.48312851494524, 26.50021166164348], [-111.48386011317662, 26.50087357869872], [-111.48424958353989, 26.50051585279876], [-111.484247449518, 26.500006710241138], [-111.48461836982902, 26.499666017937443], [-111.4846155224179, 26.498987161142093], [-111.48561627728537, 26.497897572983536], [-111.48666150010698, 26.4991813579013], [-111.487932947114, 26.49917701652584], [-111.48830385377184, 26.498836314790157], [-111.48963879106188, 26.498831741007294], [-111.49094775007006, 26.500184976227654], [-111.49445327195716, 26.50017287352235], [-111.49541266635389, 26.498780372312496], [-111.4954098904448, 26.498132958417017], [-111.4959656531431, 26.4981310281331], [-111.4964917214987, 26.498606906009414], [-111.49649619510792, 26.49964796163553], [-111.49501191602971, 26.50084113279584], [-111.49408613133649, 26.502032356034103], [-111.49335302807269, 26.504750354588747], [-111.49242864253219, 26.506280994769707], [-111.49131660440965, 26.507472842555686], [-111.49131867341573, 26.50795921183403], [-111.4922885643785, 26.509005608742452], [-111.49262918701595, 26.509004433058298], [-111.49433486398773, 26.50794879373902], [-111.49433268481542, 26.507439652480492], [-111.49485469613037, 26.506960136479208], [-111.49578286718052, 26.5069569143953], [-111.49578856038673, 26.50828318229168], [-111.49597693192534, 26.50879167627747], [-111.4965723073826, 26.50933019629313], [-111.49728530415324, 26.509327712972457], [-111.49802712342607, 26.508646260756457], [-111.49917598659286, 26.50864224594375], [-111.49970426195489, 26.50897982904894], [-111.50100314692406, 26.507956977095354], [-111.50193406872735, 26.507953705251275], [-111.50400830568073, 26.506048073464182], [-111.50400174032713, 26.504543423604908], [-111.50370882165431, 26.50427849734792], [-111.50389425969477, 26.504108126430342], [-111.50362494316772, 26.50352645671654], [-111.5036211444306, 26.50265511642584], [-111.50510461398414, 26.501292143328705], [-111.50510164599689, 26.50061328879357], [-111.50547250578265, 26.500272543153848], [-111.50546374453673, 26.49826992191627], [-111.50617401057706, 26.498912326512993], [-111.50636920583672, 26.500971001770214], [-111.50618600725822, 26.50165051663886], [-111.5050756407528, 26.503181896940486], [-111.50507850935118, 26.503837979059206], [-111.50582693560536, 26.504683908858205], [-111.50601683192023, 26.505531816311223], [-111.50661298076604, 26.506240007719896], [-111.50788450160175, 26.506235487486865], [-111.5084751587325, 26.505692793311493], [-111.50847217036642, 26.50501393954985], [-111.50899411128249, 26.504534372649797], [-111.50977057441483, 26.50453160085043], [-111.51145219324569, 26.50588331183265], [-111.51197898639015, 26.50588142261807], [-111.51234984220687, 26.505540659403486], [-111.51272220250225, 26.50553932189537], [-111.51368368206819, 26.50465584139673], [-111.51405377365245, 26.504145360504488], [-111.51404934360592, 26.503149852650516], [-111.51367548177596, 26.502811766792597], [-111.51367246322746, 26.502132913308813], [-111.51292399711622, 26.501287024949885], [-111.51291952585086, 26.50027991489241], [-111.51478680601417, 26.502137567518627], [-111.51607712207084, 26.502797300491235], [-111.51665191352403, 26.50226910086483], [-111.5166467024901, 26.501103879834915], [-111.51627283991081, 26.500765800699746], [-111.51626818788452, 26.499724748426367], [-111.51663901141009, 26.499383974244417], [-111.5166315634237, 26.497718282174727], [-111.51752516697896, 26.497715044590407], [-111.51752654643778, 26.498023029566106], [-111.51793503485315, 26.49839242223163], [-111.51830737178172, 26.498391070485784], [-111.51868123240753, 26.498729144428303], [-111.51976375583247, 26.498725206006405], [-111.51995742093557, 26.500390218819906], [-111.52089422492516, 26.501097108816023], [-111.52148479412435, 26.500554361677644], [-111.5214787687429, 26.499219428025434], [-111.52110489845197, 26.498881361578945], [-111.52110030597291, 26.497863081965512], [-111.52072644123264, 26.497525014382383], [-111.52072261715563, 26.49667644783552], [-111.52034875740522, 26.49633837913402], [-111.5203388228838, 26.49413210540164], [-111.51996497260528, 26.4937940354368], [-111.51995962764441, 26.492606041477668], [-111.5184619802178, 26.49074461029076], [-111.5184581738971, 26.4898960426322], [-111.51808282159733, 26.48921854013118], [-111.51506217187466, 26.487500864684655], [-111.5128628463577, 26.487508782845826], [-111.51285398933875, 26.485512329080205], [-111.513781985555, 26.485508992409716], [-111.5147157471494, 26.48618449477232], [-111.51524245023059, 26.486182594815034], [-111.51620299406068, 26.48512938386925], [-111.51619844751205, 26.484111101501657], [-111.5165692219846, 26.4837703274889], [-111.51675095632245, 26.48278281323931], [-111.51749278672433, 26.482780126365693], [-111.51767968993086, 26.48294916528865], [-111.51857790399892, 26.482776189181084], [-111.51953991443355, 26.482062383561452], [-111.51990990933535, 26.481551887315813], [-111.51990776143552, 26.481074188035343], [-111.52061509537128, 26.481071610666945], [-111.52061964117453, 26.48208122311044], [-111.52035401068285, 26.48232537985864], [-111.52054091725725, 26.48249441499581], [-111.52025041142586, 26.482761434801613], [-111.52025270237846, 26.48327057577283], [-111.51951346427879, 26.4844612826112], [-111.5195164124641, 26.485117364966356], [-111.52026481934061, 26.485963221492018], [-111.52026711067708, 26.4864723622337], [-111.52064170210535, 26.486980145643308], [-111.52102471140859, 26.489354776570842], [-111.52207069880487, 26.49013164972693], [-111.52233297401803, 26.489890586585695], [-111.52326100398754, 26.489887187782386], [-111.52326711134495, 26.49123622532037], [-111.52252708783314, 26.492257233366235], [-111.52254693697014, 26.496647007629086], [-111.52332930571116, 26.49735444752625], [-111.52370163897497, 26.497353081756916], [-111.52407551171225, 26.497691141433293], [-111.5251607678388, 26.497687152145033], [-111.52556590523355, 26.497314786497867], [-111.52556358946478, 26.49680564696128], [-111.52593437592157, 26.496464849031714], [-111.52593061742097, 26.495639055192438], [-111.52555674609563, 26.49530100026097], [-111.52555215453488, 26.494291390485127], [-111.52648021936182, 26.494287970228836], [-111.52685409001198, 26.494626022797586], [-111.52775041148053, 26.49462271142139], [-111.52775657250956, 26.495971747090493], [-111.527015011444, 26.496653351310258], [-111.52739188592838, 26.497647482604602], [-111.52739818710589, 26.499027959504232], [-111.52443180463338, 26.501754346340576], [-111.5236924952273, 26.50294507286587], [-111.52369389144339, 26.50325305731329], [-111.5233560309022, 26.50325429684609], [-111.52261362968007, 26.503766165488923], [-111.52129384103914, 26.5049790604601]], [[-111.48913800516254, 26.514766741053396], [-111.48885763377547, 26.5145131278347], [-111.4890431102334, 26.514342775926607], [-111.48896075602588, 26.51393015398614], [-111.48836539143292, 26.51339160238717], [-111.48765236861252, 26.513394041478442], [-111.48706157336838, 26.51393665078676], [-111.48706434095652, 26.514592733710074], [-111.48765970586277, 26.515131290646956], [-111.4887451319897, 26.515127576005924], [-111.48913800516254, 26.514766741053396]]]}}]}
