{"type": "FeatureCollection", "features": [{"type": "Feature", "properties": {"uga": "7b", "politica": "preservacion", "procedencia": {"metodo": "digitalizacion-semiautomatica", "fuente": "Mapa de ubicación de la ficha UGA 7b, Boletín Oficial No. 12 (12-mar-2014), p. 172 del PDF", "datum": "UTM 12N con desplazamiento de +30 m E y +165 m N ajustado contra la costa (INC-011)", "correccion_borde_px": 1.4, "precision_aprox_m": 47.0, "escala_por_superficie": false, "revisada_en_qgis": false}, "control": {"residuo_georreferencia_m": 23.6, "area_digitalizada_ha": 1883.16, "escala_por_superficie": false, "superficie_ficha_ha": 1888.53, "diferencia_area_pct": -0.3}}, "geometry": {"type": "Polygon", "coordinates": [[[-111.50952856215773, 26.408931459486226], [-111.50847267888217, 26.409679774380844], [-111.507627327079, 26.409133630385977], [-111.50719491825042, 26.409135164162727], [-111.50597926709169, 26.41002898492723], [-111.50574760894965, 26.410880727550037], [-111.50532125359634, 26.41126910372167], [-111.50391340279494, 26.41127407022544], [-111.50366803832628, 26.408973486757965], [-111.50291630656281, 26.408299346333745], [-111.49989488533774, 26.408309936390552], [-111.49940133213539, 26.40875949311337], [-111.50103730843844, 26.410226667839172], [-111.50104187653572, 26.41128415721335], [-111.49963402462568, 26.41128908160263], [-111.49939773755399, 26.411077175774455], [-111.4987308649166, 26.41129223338202], [-111.49728340037409, 26.41303771280594], [-111.49728505918583, 26.41342457660317], [-111.496622543802, 26.413639609348035], [-111.49517014535395, 26.413219182819894], [-111.49403250093647, 26.413435847648422], [-111.49328655209241, 26.414115207466338], [-111.4935263176231, 26.41514559220846], [-111.4941350492832, 26.415691539301033], [-111.49343719198228, 26.416327089781657], [-111.49284647772095, 26.41579729918602], [-111.49192585014467, 26.41620861125868], [-111.49121970593805, 26.416211038255394], [-111.49051626121336, 26.416851645421783], [-111.48930102060156, 26.41685580809808], [-111.4881214201015, 26.416221645765013], [-111.48721822040982, 26.416224725388386], [-111.48651296811474, 26.416439857162896], [-111.48576695552146, 26.417119178360476], [-111.48555123453896, 26.417529151462023], [-111.48576949316215, 26.41772491983231], [-111.4860164440933, 26.42048343430235], [-111.48558836655452, 26.42048488848434], [-111.48507682447186, 26.420950678732638], [-111.48555192579211, 26.421980278017333], [-111.48606736164682, 26.422442581063297], [-111.48818770114268, 26.4228608199083], [-111.48913287149473, 26.423708513262454], [-111.49007625694685, 26.42413074474263], [-111.49147571757055, 26.425597737382425], [-111.49220265873383, 26.42493577182392], [-111.49220101604806, 26.424548908351863], [-111.49356632607964, 26.42454420227318], [-111.49356901725866, 26.4251762356842], [-111.493100933028, 26.42581604259463], [-111.49310260496836, 26.426209055153105], [-111.49347508523121, 26.426543087554162], [-111.49244359791578, 26.42726883013563], [-111.49126748032867, 26.427485606558207], [-111.49028872006109, 26.42880394213945], [-111.4899602366832, 26.430384326171026], [-111.490320313626, 26.430707239167777], [-111.49100475002679, 26.430084017766255], [-111.49170660337599, 26.430081605700657], [-111.49124387399206, 26.43199162181908], [-111.49077574991516, 26.432631421074415], [-111.4907792164652, 26.433449888155348], [-111.49129472464553, 26.43391217061708], [-111.49221805791055, 26.43410440572939], [-111.49337424231213, 26.433692278555405], [-111.49431227963088, 26.43283811655046], [-111.49501761603908, 26.432622945605324], [-111.4981163370462, 26.432612182532008], [-111.49878078868927, 26.432822596218035], [-111.4987833696333, 26.433422185976177], [-111.49939222315507, 26.433968107588786], [-111.49869428683141, 26.434603683257905], [-111.49832054594455, 26.434268571948618], [-111.49694545888775, 26.43406062830232], [-111.49600561023071, 26.434489352969468], [-111.49366048980265, 26.43662477393273], [-111.49201253003754, 26.436630455539415], [-111.49107444528197, 26.437484602669276], [-111.49009441309833, 26.437487966123385], [-111.48942831531471, 26.43689064938716], [-111.48942651800701, 26.436465194746177], [-111.48824217717309, 26.435792461246944], [-111.48749605223703, 26.43647179122131], [-111.48749860106717, 26.437077530897458], [-111.48844478110273, 26.43813795289742], [-111.48844923983431, 26.439195440158866], [-111.48755113218994, 26.439411236705887], [-111.48590937755186, 26.44090593972962], [-111.48520745802305, 26.440908324239437], [-111.48519679164637, 26.438361745044805], [-111.48541344275156, 26.43816450052203], [-111.48519336378978, 26.437543277844195], [-111.48420523694055, 26.436657114232943], [-111.48330187747229, 26.436660171310237], [-111.4828328041059, 26.437087217494845], [-111.48118660219414, 26.437518229492824], [-111.47926945254605, 26.439690567797275], [-111.47927105313434, 26.44007743119329], [-111.47531144679449, 26.440090653158812], [-111.47226299223317, 26.44307898594377], [-111.47155668224025, 26.44308131805328], [-111.4710449846704, 26.443547058744], [-111.4708128741346, 26.44436630274256], [-111.4717606970315, 26.445852290604734], [-111.47227618649609, 26.4463146411433], [-111.47368971581325, 26.446522693318197], [-111.47411947415966, 26.44690813677692], [-111.47412295798367, 26.447759046709823], [-111.47463846535301, 26.448221388362942], [-111.47581744857241, 26.44864292828537], [-111.47699906919497, 26.449702640339115], [-111.47746996908366, 26.449701067693415], [-111.4783724109395, 26.450510378174005], [-111.47884683310642, 26.451359709876396], [-111.4788494725252, 26.4519978914982], [-111.4794648258103, 26.452761656466816], [-111.4802667360045, 26.452031727147673], [-111.48144312418609, 26.45181503826316], [-111.48289485329238, 26.45092062706784], [-111.48336309354025, 26.450280853632332], [-111.4833471102916, 26.4464517646664], [-111.48541294625008, 26.44499819736215], [-111.48542003707735, 26.446689911755865], [-111.48495435922537, 26.447935430880502], [-111.48613516177471, 26.44878233937687], [-111.48637507723026, 26.449845173427615], [-111.48687140045081, 26.450290216365996], [-111.48826052407703, 26.449239145631918], [-111.49014051094423, 26.44838178965985], [-111.49131684229134, 26.44816502014693], [-111.49202137350392, 26.447737136151957], [-111.49272333370384, 26.447734717603478], [-111.49272873857686, 26.449004929616862], [-111.49226236440158, 26.450070186740408], [-111.49085777975732, 26.451989587948372], [-111.49086305368772, 26.453233506378464], [-111.49250984754424, 26.454498069270326], [-111.48973385869787, 26.45450761112666], [-111.48762010108068, 26.455791219854493], [-111.48573819029065, 26.456223090005068], [-111.48475734738543, 26.45711593296801], [-111.48475896753473, 26.45750279510744], [-111.48264415362584, 26.457509955049712], [-111.48146151643475, 26.45623756563897], [-111.47962143979915, 26.457520134442124], [-111.47911216796523, 26.457521843187955], [-111.47820878671368, 26.45649981190405], [-111.47820351398938, 26.455223449287804], [-111.47772995805559, 26.454586843216806], [-111.47721440975958, 26.45412451367831], [-111.47650803289899, 26.45412687116606], [-111.47438018521196, 26.45200664963506], [-111.4734810809432, 26.452009631730256], [-111.47347949886566, 26.45162276865381], [-111.46969238707314, 26.446742468044853], [-111.4696872104571, 26.445466102109297], [-111.46873941718093, 26.443980100017626], [-111.46873080822375, 26.44185282221782], [-111.46825821970309, 26.441428909977496], [-111.46825206904997, 26.439907372412325], [-111.46872120820906, 26.439480373366084], [-111.46824790082573, 26.43887617545403], [-111.46824003145295, 26.43692918140926], [-111.46870915877692, 26.436502182385343], [-111.4682358638787, 26.4358979840195], [-111.46822627649775, 26.43352553302275], [-111.46869539029814, 26.43309853402434], [-111.46869022775127, 26.43182216546938], [-111.47009667027446, 26.430328431281676], [-111.47009494445138, 26.429902975042868], [-111.47056403682, 26.42947596998505], [-111.47056230934557, 26.429050513724114], [-111.4710313965682, 26.42862350715141], [-111.47102966744256, 26.42819805086838], [-111.47149874951948, 26.427771042780932], [-111.47149701874282, 26.42734558647584], [-111.47196609567429, 26.426918576873792], [-111.47196436324674, 26.426493120546663], [-111.47243343503304, 26.426066109430156], [-111.47243170095476, 26.425640653081018], [-111.47336722466957, 26.424148441740737], [-111.47336201270586, 26.422872072447124], [-111.47383019536466, 26.422232328560785], [-111.47381802378503, 26.419254132588083], [-111.47428705979482, 26.418827115446994], [-111.47428284174161, 26.417795916345163], [-111.4739104444647, 26.417461832402115], [-111.47414495915847, 26.417248323867565], [-111.47380859429603, 26.416946563208928], [-111.47380511747086, 26.416095649569307], [-111.47333174894884, 26.415459022965972], [-111.47332740759794, 26.414395380605832], [-111.47285491612634, 26.413971480659907], [-111.47285144675082, 26.41312056654878], [-111.47237896226413, 26.412696664861873], [-111.472375496574, 26.411845750540515], [-111.47190215355592, 26.411209118489474], [-111.47189869158929, 26.410358203932518], [-111.47142622195335, 26.40993429873713], [-111.47142189912464, 26.408870655262437], [-111.47094943735438, 26.408446748299596], [-111.47094771005523, 26.408021290811053], [-111.46665116178647, 26.40374214354677], [-111.46594338226022, 26.403318986682283], [-111.46500195766937, 26.403322049484014], [-111.46452954193964, 26.402898120378065], [-111.46382347592977, 26.40290041104918], [-111.46335106618439, 26.40247647794736], [-111.46288035715234, 26.40247800154903], [-111.46042595374848, 26.400487338034807], [-111.46266906365238, 26.397804730763212], [-111.46290101473552, 26.3969530523817], [-111.4633700027045, 26.396526070373877], [-111.46336575624024, 26.395462423680232], [-111.46383388643244, 26.394822710806483], [-111.4638204401846, 26.3914576322836], [-111.46569872311409, 26.391451532809267], [-111.46876662974071, 26.393568838101324], [-111.47061100034045, 26.393562784889372], [-111.47135695385398, 26.39288354134731], [-111.47135017534649, 26.39121415038283], [-111.46993215892235, 26.389729688534466], [-111.46992427821179, 26.38778268158042], [-111.47058513037331, 26.387180906305378], [-111.47132941715998, 26.3871784573771], [-111.47298187906293, 26.388449399359914], [-111.47364953876061, 26.388447191482346], [-111.4741609863074, 26.387981441312764], [-111.47415577386228, 26.38670506571254], [-111.47462207042508, 26.385639859443188], [-111.47542476430665, 26.384908854602475], [-111.47508849130334, 26.384607094369436], [-111.47508052591067, 26.382660087473084], [-111.4774275431029, 26.381163153450007], [-111.47741879865363, 26.379035859640954], [-111.47788766116561, 26.378608830691793], [-111.47788606948498, 26.378221963892674], [-111.4806670394691, 26.37821265422472], [-111.48371979902478, 26.376713246720467], [-111.48466011774562, 26.376497334469732], [-111.48512894314463, 26.376070282162356], [-111.48587315714762, 26.37606775859262], [-111.48728674293928, 26.37648841902894], [-111.48822794690388, 26.376485212613716], [-111.48870033875595, 26.376909065341103], [-111.48917094236275, 26.376907458236904], [-111.49035014522322, 26.377541620887506], [-111.49176646641884, 26.378600423504043], [-111.49247238176783, 26.378597997006924], [-111.49341540945875, 26.37902021409169], [-111.49506255067604, 26.379014527796862], [-111.49624089756394, 26.379435912177737], [-111.49761004952536, 26.37943115981748], [-111.49762811401195, 26.383647141860155], [-111.49810421919945, 26.384921876625643], [-111.49810969447842, 26.386198247997584], [-111.49905920472217, 26.388109525675535], [-111.49906300183393, 26.388992882066905], [-111.49883025213951, 26.38959329584486], [-111.49628434441651, 26.38960214636731], [-111.49581550690048, 26.39002923459699], [-111.49393469158018, 26.39046120119865], [-111.49332397662178, 26.391017507639468], [-111.49417564448034, 26.39178150110282], [-111.49530961074096, 26.391777581089677], [-111.49531305058807, 26.392583753817654], [-111.4948850765818, 26.39258523438036], [-111.49368737607533, 26.393462668278506], [-111.49418470089583, 26.39390878582514], [-111.49489070905908, 26.39390634609611], [-111.4953631968346, 26.394330174467935], [-111.49767824586579, 26.394322142260354], [-111.49791267010633, 26.394108595336647], [-111.49875588946335, 26.39419470554093], [-111.50026144891902, 26.39303674673291], [-111.50119841118828, 26.393033468435256], [-111.50167626776535, 26.394695053100047], [-111.50380353776814, 26.396814893121583], [-111.50380720490597, 26.397659656015495], [-111.50314386938608, 26.397661989943945], [-111.5026750254704, 26.39808910027187], [-111.50169532792002, 26.398092538515883], [-111.50051493658579, 26.397245746853475], [-111.49867051563685, 26.397252186279616], [-111.49783092415295, 26.39801698877693], [-111.49651411077373, 26.397259684789525], [-111.49368999668236, 26.39726945599078], [-111.49321750276847, 26.39684562235026], [-111.49207911250211, 26.396849541521785], [-111.49156769947466, 26.397315354698133], [-111.49063532066819, 26.399445869637866], [-111.49087593004577, 26.40068899003209], [-111.49158738712548, 26.40196293587058], [-111.49243790619589, 26.40272584401666], [-111.49351546768747, 26.40153083571771], [-111.49351201282856, 26.40071851454965], [-111.49515508761837, 26.4007128379541], [-111.49642967195432, 26.401856072785538], [-111.49584356430216, 26.40238993338651], [-111.49634093613813, 26.40283604222689], [-111.49795009247212, 26.40283045087661], [-111.49935855438291, 26.401974617164083], [-111.50104434160845, 26.401968723669377], [-111.50269549304738, 26.402813856607953], [-111.50504903076207, 26.40280556809577], [-111.50599415640002, 26.403653152967994], [-111.50646486718983, 26.403651487461445], [-111.50798056264345, 26.404798815213958], [-111.5085484726453, 26.404495020418253], [-111.50999893714592, 26.404489857290656], [-111.51042865607793, 26.404875194371545], [-111.51019891141412, 26.406152399307036], [-111.51137946377244, 26.406999107691128], [-111.51185581955737, 26.408273788993235], [-111.51293815280717, 26.40945615289892], [-111.51237673706179, 26.40996762094135], [-111.51163230870011, 26.409970285431363], [-111.51045172390496, 26.409123579951324], [-111.50952856215773, 26.408931459486226]], [[-111.49186906718188, 26.4060200843269], [-111.49113543801701, 26.40536204006678], [-111.4902323232906, 26.405365137545783], [-111.48925104208016, 26.40604528298051], [-111.4892535966829, 26.406651025075483], [-111.49024150186341, 26.40753716052491], [-111.49161536109985, 26.407532445880168], [-111.49212681825936, 26.407066632567396], [-111.49151737802929, 26.406340389929802], [-111.49186906718188, 26.4060200843269]]]}}]}
