{"type": "FeatureCollection", "features": [{"type": "Feature", "properties": {"uga": "8", "politica": "conservacion", "procedencia": {"metodo": "digitalizacion-semiautomatica", "fuente": "Mapa de ubicación de la ficha UGA 8, Boletín Oficial No. 12 (12-mar-2014), p. 176 del PDF", "datum": "UTM 12N con desplazamiento de +30 m E y +165 m N ajustado contra la costa (INC-011)", "correccion_borde_px": 1.4, "precision_aprox_m": 103.0, "escala_por_superficie": false, "revisada_en_qgis": false}, "control": {"residuo_georreferencia_m": 25.7, "area_digitalizada_ha": 1572.17, "escala_por_superficie": false, "superficie_ficha_ha": 1554.41, "diferencia_area_pct": 1.1}}, "geometry": {"type": "Polygon", "coordinates": [[[-111.58841696613742, 26.542076484043474], [-111.5863682030778, 26.54208492609043], [-111.58636391822895, 26.541242205755974], [-111.58109982017479, 26.536550288964655], [-111.57697252645899, 26.534714979378084], [-111.57491354306622, 26.53472329655204], [-111.57284536225885, 26.532879547702322], [-111.570876719901, 26.53242442472262], [-111.5698339383608, 26.52973378066041], [-111.56879992506708, 26.52881187131886], [-111.56878166780622, 26.525107792549843], [-111.56774770495437, 26.524185874181082], [-111.56773403976594, 26.521407812975344], [-111.56670011886504, 26.52048588586868], [-111.56667057286177, 26.514466747663164], [-111.5624422857562, 26.510696022785943], [-111.55523286904825, 26.509798220837556], [-111.55471600845017, 26.509337210602283], [-111.54604945091054, 26.509370642827037], [-111.54142858363042, 26.511703359677742], [-111.53681183305491, 26.51496195527067], [-111.53467170782893, 26.517368395903873], [-111.53469315410631, 26.521998525747488], [-111.53172067055435, 26.527019570597027], [-111.52803752993849, 26.52749627656191], [-111.52339246799643, 26.524735273676402], [-111.51729824307449, 26.52475750869901], [-111.5131929437519, 26.527550469656212], [-111.5085665903909, 26.528956108143987], [-111.50570579453537, 26.53154989593676], [-111.50518902945551, 26.53108870613248], [-111.50467631905668, 26.531553543272032], [-111.50313643552161, 26.530179227163554], [-111.51315186749336, 26.515984378354865], [-111.51921275985522, 26.510952500794044], [-111.52332152354352, 26.50908540003384], [-111.52537164258351, 26.50722577691238], [-111.52640089777309, 26.507221983383957], [-111.53153438622681, 26.504424819651682], [-111.5335928444296, 26.50441713701291], [-111.53821574319045, 26.502547687443844], [-111.5433617978625, 26.502528185500324], [-111.54644504787821, 26.501590368810593], [-111.55424628534854, 26.50156028281461], [-111.5563091440101, 26.502478298269942], [-111.55888216264024, 26.50246824428496], [-111.55991585808432, 26.50339023393381], [-111.56086283995221, 26.503386515003744], [-111.56167231101416, 26.50265180497323], [-111.56248889543691, 26.503380114596492], [-111.5645473243363, 26.503371985725316], [-111.56528133598776, 26.504026615925635], [-111.56579367808352, 26.50356156478446], [-111.56661029457054, 26.504289850210853], [-111.56969795970186, 26.504277556205], [-111.57485788978948, 26.50703498217322], [-111.57588713469691, 26.507030831710246], [-111.58569782505388, 26.513473165773163], [-111.59336739340458, 26.52169250492043], [-111.5985598787152, 26.5304681412542], [-111.59857707777888, 26.533783178183135], [-111.59550537058232, 26.537037160008207], [-111.59552406545345, 26.540657920503545], [-111.5940747453341, 26.541126984395028], [-111.5909837350039, 26.54067681519929], [-111.58841696613742, 26.542076484043474]], [[-111.5800056055769, 26.523682838757832], [-111.58163486772743, 26.522203851303434], [-111.58162590816207, 26.520425802564578], [-111.57998187493823, 26.518960143890734], [-111.57903476851008, 26.51896399178423], [-111.57740551733275, 26.520442950001115], [-111.5774144118946, 26.52222100006618], [-111.57905846040207, 26.523686687441845], [-111.5800056055769, 26.523682838757832]]]}}]}
