{"type": "FeatureCollection", "features": [{"type": "Feature", "properties": {"uga": "80", "politica": "conservacion", "procedencia": {"metodo": "digitalizacion-semiautomatica", "fuente": "Mapa de ubicación de la ficha UGA 80, Boletín Oficial No. 12 (12-mar-2014), p. 442 del PDF", "datum": "UTM 12N con desplazamiento de +30 m E y +170 m N ajustado contra la costa (INC-011)", "correccion_borde_px": 1.4, "precision_aprox_m": 31.0, "escala_por_superficie": true, "revisada_en_qgis": false}, "control": {"residuo_georreferencia_m": 0.0, "area_digitalizada_ha": 406.81, "escala_por_superficie": true, "superficie_ficha_ha": 406.52, "diferencia_area_pct": 0.1}, "georreferencia": {"a_x": 7.679340042362608, "b_x": 439870.2282833305, "a_y": -7.679340042362608, "b_y": 2844855.846046526, "factor_render": 2, "pagina_mapa": 442, "ficha_mapa": "80"}}, "geometry": {"type": "Polygon", "coordinates": [[[-111.5804807951896, 25.68567608120199], [-111.58002789063563, 25.68697047131616], [-111.57956984895435, 25.68720527411245], [-111.57957152675857, 25.687551988080514], [-111.57896164478254, 25.688039818821085], [-111.57896320027561, 25.688361583390876], [-111.57850515117327, 25.68859638292711], [-111.57850670547856, 25.688918147498363], [-111.57822812284225, 25.688919252077486], [-111.57700966550529, 25.690172271273116], [-111.57670354444252, 25.690173481913387], [-111.57586437909899, 25.690731550340445], [-111.57560925153426, 25.69114862211186], [-111.5747197474835, 25.69142950618573], [-111.57441495363416, 25.691708083342746], [-111.57258085522132, 25.692270047959187], [-111.57222378900258, 25.69217851409985], [-111.5718162008142, 25.69241173602936], [-111.57074475599467, 25.692415932652658], [-111.57059235330527, 25.692555217237064], [-111.56896072443308, 25.692561591183466], [-111.56834715265914, 25.692286606715207], [-111.56531079945857, 25.69174365322192], [-111.56505170603154, 25.691328591994118], [-111.56466905020598, 25.691330073887034], [-111.56344063606457, 25.69050269373266], [-111.56316204900916, 25.690503769600802], [-111.56316118802674, 25.690320690167592], [-111.56228811777166, 25.689536321899073], [-111.562086062966, 25.68953710064477], [-111.56208455273581, 25.689215335178833], [-111.5616242810173, 25.688984125401504], [-111.56162179650553, 25.68845433088655], [-111.56116067076881, 25.688040040007667], [-111.56023550962156, 25.6865873663589], [-111.56033656117093, 25.6862638479], [-111.56007921062272, 25.68589452368126], [-111.55976434993869, 25.68402343609852], [-111.55953379850992, 25.683816287593825], [-111.55953013207042, 25.683031352021473], [-111.55991081704308, 25.682613825602953], [-111.55990692781408, 25.681781708636468], [-111.56036024026797, 25.680531770313813], [-111.56035699693199, 25.679838339370573], [-111.56190494175495, 25.6780058422687], [-111.56202946249203, 25.677474198975318], [-111.5627914289613, 25.67677781856909], [-111.56294186654442, 25.676222483424976], [-111.56339903956174, 25.675804652852218], [-111.5633977354531, 25.675527280448094], [-111.56446511094225, 25.67469102320083], [-111.56446326870093, 25.674299914111135], [-111.56504724523408, 25.67415896534269], [-111.56565613367457, 25.673463162801763], [-111.56626632565897, 25.673044730144994], [-111.56664892297695, 25.67304324504408], [-111.56690404480979, 25.67262618803752], [-111.56741214766976, 25.672624213354606], [-111.567667265957, 25.67220715504991], [-111.56809884806731, 25.672205475631493], [-111.56916747814911, 25.671646556958343], [-111.57008570048654, 25.67164297295857], [-111.57130801341165, 25.671222127029967], [-111.57171572104237, 25.671359219096143], [-111.57192015925949, 25.67121972939714], [-111.57309238742359, 25.671215130885923], [-111.57355282400177, 25.671490699367432], [-111.5744710444405, 25.67148708779704], [-111.57493148515589, 25.671762651846286], [-111.57538993051307, 25.671622156440534], [-111.57631015230778, 25.672034591183042], [-111.57676926440973, 25.67203277741024], [-111.57769083095675, 25.672722575125036], [-111.57845736076995, 25.67299691583475], [-111.5789453022532, 25.673573326061547], [-111.57922523462685, 25.673548624169683], [-111.57950500209708, 25.673799940556], [-111.57981443619941, 25.674492153920635], [-111.58014951244418, 25.67479314905654], [-111.58042806213888, 25.674792041373966], [-111.58089244182581, 25.67587475130233], [-111.58150730250442, 25.676427056070647], [-111.58150932163174, 25.676843113301782], [-111.58197114609699, 25.677396025747296], [-111.58197518779205, 25.678228140006496], [-111.5824417392444, 25.679751850438038], [-111.58229115905895, 25.68026002280702], [-111.58244622950043, 25.680675468866248], [-111.58214282862318, 25.681231433080253], [-111.5819985386697, 25.683034956823274], [-111.5816944564848, 25.683452234458816], [-111.58154544447322, 25.68428495825887], [-111.5804807951896, 25.68567608120199]], [[-111.57143300814569, 25.681387511049895], [-111.57084460645815, 25.681251125916518], [-111.57051241417551, 25.681554752199634], [-111.5705136295657, 25.681809962304136], [-111.57095137539477, 25.682134167840438], [-111.57135959220992, 25.682039634457876], [-111.57169178362444, 25.68173600627949], [-111.57143300814569, 25.681387511049895]]]}}]}
