{"type": "FeatureCollection", "features": [{"type": "Feature", "properties": {"uga": "81", "politica": "conservacion", "procedencia": {"metodo": "digitalizacion-semiautomatica", "fuente": "Mapa de ubicación de la ficha UGA 81, Boletín Oficial No. 12 (12-mar-2014), p. 445 del PDF", "datum": "UTM 12N con desplazamiento de +30 m E y +165 m N ajustado contra la costa (INC-011)", "correccion_borde_px": 1.4, "precision_aprox_m": 40.0, "escala_por_superficie": false, "revisada_en_qgis": false}, "control": {"residuo_georreferencia_m": 0.0, "area_digitalizada_ha": 298.73, "escala_por_superficie": false, "superficie_ficha_ha": 299.0, "diferencia_area_pct": -0.1}}, "geometry": {"type": "Polygon", "coordinates": [[[-111.2102840866976, 25.631687315698578], [-111.20966149538027, 25.630943304355938], [-111.20926066520049, 25.6309438789861], [-111.2072536918342, 25.629311579516557], [-111.20668448013403, 25.629312385793305], [-111.20568335168487, 25.62985885194249], [-111.20525049937906, 25.629859460628197], [-111.20444853668329, 25.62967890048777], [-111.20396680472456, 25.62924353095628], [-111.20428294763617, 25.628956046134483], [-111.20448212198806, 25.628229029469054], [-111.20496236325909, 25.627792313755243], [-111.20544755566698, 25.62789699105119], [-111.20608384795595, 25.627318356579377], [-111.20616728518574, 25.626878543936538], [-111.2059665652453, 25.626697142442595], [-111.20628269667945, 25.626409653264588], [-111.20636613257382, 25.62596984046193], [-111.20616541386411, 25.62578843921107], [-111.20648154244341, 25.62550094958484], [-111.20648066159082, 25.624988581945303], [-111.2068454192751, 25.624988066099775], [-111.20716154412337, 25.624700574994094], [-111.20747865915618, 25.624987168400576], [-111.20848068499319, 25.624985742293237], [-111.2118888543834, 25.62570757845125], [-111.21309129224979, 25.625705829963824], [-111.21489787470684, 25.627338344807836], [-111.22051566450419, 25.630781978286826], [-111.22312240543614, 25.63150475805731], [-111.22412448462215, 25.63150322431957], [-111.22480705499572, 25.632119902241016], [-111.22369131492626, 25.633498763155593], [-111.22369199194651, 25.633862130613235], [-111.2192930447737, 25.639501010127695], [-111.21572458158832, 25.641290480320468], [-111.21308651052158, 25.64332556269019], [-111.21168698585919, 25.645326122587814], [-111.21048658224953, 25.6465996458329], [-111.20948723098269, 25.64823623884511], [-111.20828614417049, 25.649146376781072], [-111.20748719007096, 25.650782669809253], [-111.20568595932328, 25.652420373456117], [-111.2054870644522, 25.653329073017442], [-111.20492264337864, 25.653842233154684], [-111.20432159267025, 25.654024759340874], [-111.20288638457448, 25.654026760609028], [-111.20252098022657, 25.653696584823482], [-111.20271375805672, 25.649154218261682], [-111.20251300579824, 25.648972812770467], [-111.20251085917799, 25.647701027464436], [-111.2023101096719, 25.647519621641667], [-111.20250774383143, 25.64585515824493], [-111.20270731836376, 25.645342513847005], [-111.20358938038902, 25.645417612617678], [-111.20378951116624, 25.64523564939707], [-111.20410667281811, 25.645522249034574], [-111.2044714929508, 25.645521738735063], [-111.20527661399446, 25.647486449280837], [-111.20589895307603, 25.648048793683905], [-111.20691930462468, 25.646939078951046], [-111.20631646705318, 25.646060544278495], [-111.20610884949971, 25.641882102591925], [-111.20590810439107, 25.641700701543936], [-111.205906545877, 25.64079228277896], [-111.20558939254032, 25.6405056868141], [-111.20590556099778, 25.640218198765922], [-111.20590431427853, 25.639491463615368], [-111.20630361171852, 25.63858247900066], [-111.20730355469216, 25.63730927351789], [-111.20730229967153, 25.636582538142147], [-111.20826747720496, 25.636068797248797], [-111.20906917182378, 25.636067652125494], [-111.2097054895432, 25.63548900236731], [-111.20950157931004, 25.633490767252773], [-111.20978510927333, 25.632868981522], [-111.20958437382296, 25.632687585243016], [-111.2102840866976, 25.631687315698578]], [[-111.21428310449735, 25.63769525546223], [-111.21480304245367, 25.63704042864585], [-111.2141967590173, 25.636492614108114], [-111.21399665860481, 25.636674591615193], [-111.21379591042789, 25.636493201298183], [-111.21347574849607, 25.636784364305317], [-111.21339265444064, 25.637405864164293], [-111.21371385330606, 25.637696089376124], [-111.21428310449735, 25.63769525546223]]]}}]}
