{"type": "FeatureCollection", "features": [{"type": "Feature", "properties": {"uga": "82", "politica": "conservacion", "procedencia": {"metodo": "digitalizacion-semiautomatica", "fuente": "Mapa de ubicación de la ficha UGA 82, Boletín Oficial No. 12 (12-mar-2014), p. 447 del PDF", "datum": "UTM 12N con desplazamiento de +30 m E y +165 m N ajustado contra la costa (INC-011)", "correccion_borde_px": 1.4, "precision_aprox_m": 98.0, "escala_por_superficie": false, "revisada_en_qgis": false}, "control": {"residuo_georreferencia_m": 24.5, "area_digitalizada_ha": 6972.51, "escala_por_superficie": false, "superficie_ficha_ha": 6660.07, "diferencia_area_pct": 4.7}}, "geometry": {"type": "Polygon", "coordinates": [[[-111.46150804962177, 25.601012799285627], [-111.46342645402186, 25.60317480957061], [-111.46343353362872, 25.605011297966453], [-111.46246171729031, 25.605896184162468], [-111.46246652573628, 25.60714599015073], [-111.46393617190425, 25.608904951466766], [-111.46394496317635, 25.611182337076624], [-111.4591808060923, 25.61773212692012], [-111.4562565423442, 25.618182188701827], [-111.45276768999815, 25.621358181490038], [-111.44889103466159, 25.627983699432917], [-111.44889433092241, 25.62886549675191], [-111.44800910265539, 25.629671206412137], [-111.4459814599011, 25.6296774095384], [-111.44411158697274, 25.627998304254817], [-111.44361058997578, 25.624399701417136], [-111.44506247716114, 25.621381849647616], [-111.44261436972037, 25.618743857710317], [-111.44260922823203, 25.617348267183516], [-111.44601136130716, 25.614251593064925], [-111.44502818096204, 25.61212295813809], [-111.44500995314421, 25.607200166266985], [-111.44791921055152, 25.602782230533066], [-111.44689044862476, 25.601491464140448], [-111.442553383993, 25.60499717388957], [-111.4371977370733, 25.60721781371836], [-111.43525206632528, 25.60854633539427], [-111.4303742801525, 25.608119870291976], [-111.42501514460717, 25.60945826535517], [-111.41957138211501, 25.608592178165498], [-111.41516907927199, 25.60463658962814], [-111.411345035279, 25.604647397852656], [-111.40550119420595, 25.606868254861272], [-111.40112589523909, 25.61084848387958], [-111.39625102696965, 25.611302685352893], [-111.39187238247887, 25.614400835240442], [-111.38603761547405, 25.61970724047956], [-111.38457602018124, 25.620152000229083], [-111.37873787030162, 25.624576311350268], [-111.37630080602764, 25.62502351372998], [-111.37135059319135, 25.629524057136322], [-111.3694106064449, 25.63305622522463], [-111.36796094805639, 25.637468944599032], [-111.36650445306564, 25.639677135872297], [-111.36367291215447, 25.64225083331024], [-111.36074899219011, 25.643139895993432], [-111.3533556768, 25.64315796970714], [-111.34896065412593, 25.641404911370685], [-111.34416440507415, 25.63709196309458], [-111.34650937454826, 25.63708641961211], [-111.3490299125586, 25.635237977392805], [-111.34950994505222, 25.632591389228917], [-111.35340134806053, 25.6290547735998], [-111.35437156087498, 25.627288795963725], [-111.35574380019726, 25.626041555862543], [-111.35866866047972, 25.625593499112366], [-111.36216015471626, 25.622419723627353], [-111.36312752014194, 25.619771880492525], [-111.3644995826153, 25.61852455879847], [-111.36839819982292, 25.617632969871494], [-111.37327481261389, 25.617620597068594], [-111.37814587150969, 25.6158444483201], [-111.3826090385756, 25.611785856077475], [-111.38503052551413, 25.60656742797613], [-111.38640620743193, 25.60656379868403], [-111.38932618792695, 25.604792423554624], [-111.39664176121272, 25.605213668205923], [-111.40450667121546, 25.59805879462885], [-111.40450395017103, 25.597249880587654], [-111.40246031944153, 25.595413074273274], [-111.40050710520367, 25.594536621206096], [-111.3946548650326, 25.5941116222371], [-111.39299033762724, 25.592615295860863], [-111.39513112048373, 25.590667811833722], [-111.40000075983554, 25.58889094494253], [-111.41023614929267, 25.587980782975173], [-111.41178111930293, 25.58657490408492], [-111.41177835074869, 25.585765989508516], [-111.41071286276308, 25.584808353959016], [-111.40388453727682, 25.583945548642845], [-111.39900345969544, 25.582195309385998], [-111.39461581444974, 25.5822072095119], [-111.39412685408263, 25.58176761905215], [-111.38640482344645, 25.582229125745155], [-111.37813088781704, 25.58665983225434], [-111.37570009542225, 25.58887063886076], [-111.37464821141012, 25.588873336718127], [-111.37318147481048, 25.58755435964073], [-111.370823290937, 25.58844217424127], [-111.36644883484806, 25.592862286492096], [-111.35857933806159, 25.59913332932476], [-111.3527528722755, 25.60752476134282], [-111.35040684311892, 25.60921522048309], [-111.34894523833432, 25.60965962463355], [-111.34554091780763, 25.60922680229923], [-111.34553332984946, 25.60658729217801], [-111.34747487974856, 25.603496330955885], [-111.34747254177307, 25.60268741220873], [-111.34599661326523, 25.601730278945755], [-111.34445067253667, 25.603135470687857], [-111.34396811468386, 25.60490024149048], [-111.34182814225349, 25.606845258232248], [-111.34056746966252, 25.605711203862015], [-111.33966904676902, 25.605713293795628], [-111.3318781658677, 25.609699365143147], [-111.32992764103246, 25.609703780054218], [-111.32749188718964, 25.61059107433777], [-111.32115380821459, 25.611046044268512], [-111.319119812466, 25.612452040931462], [-111.31718087860874, 25.61686534900819], [-111.3152371758492, 25.619515005921905], [-111.30899915671475, 25.625181323393978], [-111.30510207548943, 25.626953145748026], [-111.29925074275742, 25.627406154519484], [-111.29283864628188, 25.633670679928976], [-111.29284060494129, 25.634473677073974], [-111.29146459002715, 25.634476428781113], [-111.28854242673118, 25.63624586267627], [-111.28553915448795, 25.636251763722285], [-111.28318366161214, 25.63457153053645], [-111.28462787882346, 25.626559474439176], [-111.28657447744531, 25.624792034069277], [-111.28754142248772, 25.621262862023443], [-111.28851254701814, 25.619497311282082], [-111.29037199136303, 25.617808807452427], [-111.29378026226506, 25.6155974501437], [-111.29475557594137, 25.615595486658375], [-111.29865135039917, 25.613383032260852], [-111.30157502292242, 25.61249521115738], [-111.30498293516524, 25.610283594225937], [-111.30741885328467, 25.609396673428776], [-111.31325778471673, 25.604534275495617], [-111.32252120770889, 25.60407322643396], [-111.32544447277863, 25.603184930651416], [-111.32739009016362, 25.60141695019451], [-111.33517936047106, 25.596990210800314], [-111.33810235739625, 25.596101663756325], [-111.34492841420328, 25.596085723874413], [-111.3478513147611, 25.595196982835606], [-111.35231475947523, 25.59113930110411], [-111.3523121767568, 25.59025748879541], [-111.35863456818613, 25.584951213015906], [-111.35883616893123, 25.584325801091786], [-111.35756710135043, 25.58318426539099], [-111.35464066738088, 25.582750478747844], [-111.34979626557681, 25.58015140677187], [-111.34642452503934, 25.581006524057837], [-111.34106936622291, 25.58366456615272], [-111.33717952065284, 25.583673582803513], [-111.33766087655557, 25.58147384427919], [-111.34049281327042, 25.57934154587395], [-111.3463390966009, 25.57800509388327], [-111.34828527659855, 25.576677743896184], [-111.35462142904902, 25.576221615678108], [-111.35754246525455, 25.57489177757677], [-111.36631859930812, 25.575310981538816], [-111.36923948122609, 25.57398091142867], [-111.37655312307713, 25.574403184680573], [-111.38004406352391, 25.571669887771144], [-111.38530105133876, 25.566003133497066], [-111.38684018532301, 25.565999073895075], [-111.39123727161542, 25.569073753019428], [-111.39408815464374, 25.569947922935363], [-111.39486388975975, 25.569242099213444], [-111.39269705625337, 25.56509573636569], [-111.39268531785267, 25.561495597607138], [-111.40329538808714, 25.553609194792735], [-111.40524350494499, 25.55316290630948], [-111.40767154483196, 25.550510707512505], [-111.40913071251666, 25.549624818248706], [-111.41108024638191, 25.54961935855983], [-111.41350808613194, 25.546967064166733], [-111.41642775061003, 25.545636061778218], [-111.4179721116431, 25.54423011708653], [-111.4184533506248, 25.542465103173413], [-111.42039507882204, 25.540254992941826], [-111.42038764630597, 25.538123356934673], [-111.41891797805943, 25.535923015702036], [-111.41890700368893, 25.532763780515594], [-111.41939125202225, 25.531880573987916], [-111.42076173556816, 25.530632728732407], [-111.42319517141448, 25.529743899189306], [-111.42563168247665, 25.52973684159026], [-111.42952695816633, 25.528843653600205], [-111.43155666744649, 25.526995232162115], [-111.43203764205789, 25.525230172915744], [-111.43349315559817, 25.52346223231556], [-111.43563016655833, 25.52151588886104], [-111.44638889624481, 25.53426225494959], [-111.44522134043478, 25.53532571235997], [-111.4432736671488, 25.53577252807794], [-111.43889897133656, 25.538872066776747], [-111.43354459092923, 25.540651650341534], [-111.43005419875527, 25.542945303529237], [-111.42471970096605, 25.550456331235832], [-111.42328542365347, 25.558396848038054], [-111.42183706562076, 25.562369207603155], [-111.4185180115836, 25.56406355376291], [-111.41656824580134, 25.564069115386975], [-111.41502488564917, 25.56584305694974], [-111.41678366866, 25.566984421947016], [-111.42876242289513, 25.56632318464212], [-111.4336464466323, 25.56895424405327], [-111.43608374720893, 25.568947002334927], [-111.43653428888365, 25.569351842355736], [-111.43698188529686, 25.568944323549037], [-111.43941918458623, 25.568937026290026], [-111.44282491608809, 25.567163131286005], [-111.448168840669, 25.562296882764297], [-111.44914370520608, 25.562293894936985], [-111.45206167865994, 25.56052128247666], [-111.45742000113015, 25.55962282306962], [-111.46304749273482, 25.555381786685555], [-111.46940445901978, 25.562849320343418], [-111.46726367224811, 25.564356974699255], [-111.45995544550674, 25.565261935541937], [-111.45695398722893, 25.567995594276887], [-111.45647488997868, 25.570201624190574], [-111.45405419954604, 25.574618223044936], [-111.4535764114667, 25.57719225219864], [-111.45464216718206, 25.578149572990593], [-111.4590296300689, 25.578135874761333], [-111.4609829900321, 25.579011546281507], [-111.46537048042198, 25.578997657491417], [-111.46634718629159, 25.579435453777705], [-111.46772737769788, 25.580674950855478], [-111.46774108791517, 25.58420215299646], [-111.46880701760064, 25.58515936726578], [-111.47506976842018, 25.585580069023557], [-111.47798615854143, 25.583366043120414], [-111.48432385733526, 25.58334519956526], [-111.485782842314, 25.582458552370436], [-111.48732216604877, 25.582453433146146], [-111.4882133001752, 25.583253457056138], [-111.4882171737703, 25.584208146199675], [-111.48587531346524, 25.586341651988743], [-111.48344299274775, 25.58767242490921], [-111.47518628360964, 25.595635767286453], [-111.47079474060949, 25.594768160360587], [-111.46836379705472, 25.596539585159768], [-111.46495592279564, 25.597873174315858], [-111.46150804962177, 25.601012799285627]], [[-111.4458760884064, 25.59092811083197], [-111.44738240496132, 25.5895567025327], [-111.4473761174033, 25.587865989730364], [-111.44631033129913, 25.586908617655276], [-111.44346193129626, 25.5869172802261], [-111.4424032491503, 25.58788111377406], [-111.44240946682372, 25.589571827717446], [-111.44392589443018, 25.590934042638725], [-111.44437354455164, 25.590526501686888], [-111.4458760884064, 25.59092811083197]]]}}]}
