{"type": "FeatureCollection", "features": [{"type": "Feature", "properties": {"uga": "83", "politica": "conservacion", "procedencia": {"metodo": "digitalizacion-semiautomatica", "fuente": "Mapa de ubicación de la ficha UGA 83, Boletín Oficial No. 12 (12-mar-2014), p. 450 del PDF", "datum": "UTM 12N con desplazamiento de +30 m E y +165 m N ajustado contra la costa (INC-011)", "correccion_borde_px": 1.4, "precision_aprox_m": 80.0, "escala_por_superficie": false, "revisada_en_qgis": false}, "control": {"residuo_georreferencia_m": 20.1, "area_digitalizada_ha": 4436.44, "escala_por_superficie": false, "superficie_ficha_ha": 4392.31, "diferencia_area_pct": 1.0}}, "geometry": {"type": "Polygon", "coordinates": [[[-111.77224151028234, 25.551180655531667], [-111.77352203077152, 25.553050621788383], [-111.77353755131594, 25.55546801811309], [-111.77042880640055, 25.558686069243226], [-111.7692329573377, 25.55941834916536], [-111.7644003469598, 25.559654163722353], [-111.7643682085903, 25.560895814327488], [-111.76283952016234, 25.56090378848176], [-111.7608455500078, 25.562003153932555], [-111.75991165122699, 25.56176476097939], [-111.75798074983402, 25.563353805361487], [-111.75718838094514, 25.56462839282759], [-111.75522389342726, 25.570446479236846], [-111.75523300171618, 25.571898415825256], [-111.75443713728218, 25.5726285126828], [-111.75445497379403, 25.575474381122852], [-111.75593726767157, 25.57698401600041], [-111.75926945851309, 25.577329758393223], [-111.75920744770546, 25.578292017876194], [-111.75967843566889, 25.578714314416093], [-111.75928429767416, 25.579681854436988], [-111.75969827919141, 25.58185767663402], [-111.75930110919275, 25.582346225316282], [-111.75970744612242, 25.58330960945252], [-111.75891153594903, 25.58403973061907], [-111.75891570313424, 25.58470039667723], [-111.75632212786707, 25.584713828550935], [-111.75450962371693, 25.582908211439275], [-111.75264232927957, 25.583219079440347], [-111.75058246497487, 25.58474339022753], [-111.7493817144589, 25.584749546113596], [-111.7475873543041, 25.58584771371907], [-111.74685454645231, 25.585789710963656], [-111.74599083919803, 25.586581855270314], [-111.74525802741677, 25.58652384460508], [-111.74352554820268, 25.58793019428244], [-111.74313721651008, 25.589863341273844], [-111.7424086885717, 25.589867040841334], [-111.74154102286272, 25.590662736155956], [-111.74154509587898, 25.591323404250513], [-111.73975191362612, 25.59133248460676], [-111.73814636610894, 25.5906146045138], [-111.73440775434838, 25.59063342405779], [-111.73121882377232, 25.592827377926735], [-111.73001798729929, 25.592833376643924], [-111.72922183109253, 25.59356334070914], [-111.72441189244805, 25.592498254705635], [-111.72401379921726, 25.592863222365658], [-111.71921261254002, 25.59324990751527], [-111.7172176998171, 25.594348694164136], [-111.7113495971549, 25.594377353748968], [-111.70934388640782, 25.59366110131187], [-111.70740632332546, 25.592283799563265], [-111.70747050422158, 25.59161924069459], [-111.70498337371347, 25.58866552327785], [-111.70457460262112, 25.587215502170196], [-111.70329506064591, 25.586067363322307], [-111.69969061947936, 25.58572164999197], [-111.69855974408398, 25.5853640565388], [-111.69855696192849, 25.58488487567232], [-111.69735266190908, 25.584280821155385], [-111.69734357359198, 25.582712675443595], [-111.6961393014303, 25.582108610177656], [-111.69572054568494, 25.578908919057167], [-111.69491588261785, 25.57818674580248], [-111.69490959512201, 25.577097779751405], [-111.69369844586954, 25.57528853286946], [-111.69369321612206, 25.574381060577462], [-111.69248904595244, 25.57377696246449], [-111.69248524535496, 25.57311628567475], [-111.69180941756417, 25.572509680494033], [-111.69128109380969, 25.57251217712871], [-111.69127313148151, 25.571125521517924], [-111.6904685476929, 25.570403321408037], [-111.69053073185789, 25.56937577686484], [-111.68804448335189, 25.566421744302442], [-111.68803411347083, 25.56460679523687], [-111.68641887608948, 25.56207338058972], [-111.68680456758067, 25.559530572544805], [-111.68598975364664, 25.556993392848085], [-111.68597941909754, 25.555178440661145], [-111.68516878248002, 25.55336723521523], [-111.68515710015984, 25.55131278126777], [-111.68673322825254, 25.54701469618359], [-111.6902561801084, 25.545909132342672], [-111.69165245617792, 25.54517654396238], [-111.69231836894359, 25.54408439642256], [-111.69344674802056, 25.54407905812761], [-111.69471348264119, 25.54310025075713], [-111.6947107210361, 25.54262106673122], [-111.69663512030263, 25.541885925654366], [-111.69869676455221, 25.539995800794934], [-111.69908845130207, 25.538541930653572], [-111.70107840340698, 25.536717418483008], [-111.70186840901523, 25.534963937146692], [-111.70299670043765, 25.534958527073556], [-111.70426220153831, 25.533798144485615], [-111.7042583432463, 25.53313746575094], [-111.70618253119598, 25.532402202713012], [-111.70851532038093, 25.53245268637651], [-111.71217944248102, 25.53164717375644], [-111.71338182092695, 25.53200432401035], [-111.71617590116934, 25.530901692703484], [-111.71977656863183, 25.53088404770508], [-111.72137252210243, 25.5301501992072], [-111.72323677354677, 25.530141008591812], [-111.72444134750776, 25.530861056467344], [-111.72644171441279, 25.530851151782795], [-111.72844646504493, 25.531567196462014], [-111.73138309869657, 25.53155256595468], [-111.73257891431261, 25.53082059340496], [-111.73737312522749, 25.52970754672001], [-111.74131505977329, 25.531201395919382], [-111.74204677317324, 25.531135945321722], [-111.74285139026547, 25.531857864827888], [-111.74758835771028, 25.531833769835984], [-111.74905029527673, 25.531463304487556], [-111.75098732295645, 25.53284007739617], [-111.7509234053439, 25.53350465465928], [-111.7514665667258, 25.53399191672924], [-111.75219475527024, 25.533988179648762], [-111.75220114057745, 25.53501183745158], [-111.75381282521093, 25.53681854152248], [-111.75462663739908, 25.538992336717904], [-111.75583603311468, 25.540438090712954], [-111.75584891420662, 25.542492515697216], [-111.75426210490325, 25.54467867988705], [-111.7542674207015, 25.545528139336877], [-111.75615401257026, 25.547761695686482], [-111.75809070609789, 25.54775168269449], [-111.75975362934409, 25.54622577458615], [-111.75974676507244, 25.545136819494783], [-111.76133577164967, 25.543313583164743], [-111.76133118649373, 25.542587613100682], [-111.7629201360921, 25.54076436026818], [-111.762915955156, 25.540103690860953], [-111.76670886689114, 25.540083886008603], [-111.76911873058275, 25.541523238324366], [-111.77031904471383, 25.54151693036704], [-111.77112389778885, 25.542238688102966], [-111.77185213280282, 25.54223485216752], [-111.7718788170613, 25.54640187259613], [-111.77148101983666, 25.546766964964757], [-111.77189276601058, 25.548579776047173], [-111.77149807622637, 25.549431340213133], [-111.77230531675383, 25.550516073038388], [-111.77224151028234, 25.551180655531667]], [[-111.7246901637128, 25.559591176452784], [-111.7227731060514, 25.558232114131997], [-111.72147489828531, 25.559970055861765], [-111.72242150331876, 25.560999932190043], [-111.72395825091819, 25.560992340282546], [-111.7246901637128, 25.559591176452784]]]}}]}
