{"type": "FeatureCollection", "features": [{"type": "Feature", "properties": {"uga": "84", "politica": "conservacion", "procedencia": {"metodo": "digitalizacion-semiautomatica", "fuente": "Mapa de ubicación de la ficha UGA 84, Boletín Oficial No. 12 (12-mar-2014), p. 452 del PDF", "datum": "UTM 12N con desplazamiento de +30 m E y +170 m N ajustado contra la costa (INC-011)", "correccion_borde_px": 1.4, "precision_aprox_m": 92.0, "escala_por_superficie": false, "revisada_en_qgis": false}, "control": {"residuo_georreferencia_m": 63.6, "area_digitalizada_ha": 2767.81, "escala_por_superficie": false, "superficie_ficha_ha": 2706.37, "diferencia_area_pct": 2.3}, "georreferencia": {"a_x": 23.06391037279905, "b_x": 465760.3686586864, "a_y": -23.07537474393518, "b_y": 2835547.192815332, "factor_render": 2, "pagina_mapa": 452, "ficha_mapa": "84"}}, "geometry": {"type": "Polygon", "coordinates": [[[-111.31042701646331, 25.52045145126613], [-111.32099217224949, 25.52292924118267], [-111.32275004847317, 25.524517352787345], [-111.32321321413826, 25.5260411715328], [-111.31955266647077, 25.530633535003403], [-111.31909887690922, 25.532643252676525], [-111.31734511731997, 25.53264706185811], [-111.31505391307199, 25.534319037034198], [-111.31321852238081, 25.53473973007866], [-111.31176136137714, 25.535859791287656], [-111.31176278354306, 25.536409865336864], [-111.31038720676213, 25.53711298174345], [-111.31038862273914, 25.5376630557705], [-111.30955305115437, 25.537664823830287], [-111.30772078059316, 25.5393357140931], [-111.30680250523423, 25.539337640260655], [-111.30588634446818, 25.540173071146157], [-111.29991854724173, 25.54060216939997], [-111.29625052460379, 25.54269342173126], [-111.29441290288831, 25.542280369432767], [-111.28844794721721, 25.54395926846619], [-111.28569301038861, 25.543964668156544], [-111.28523484032962, 25.54438231883118], [-111.28339722909716, 25.54396912831539], [-111.28217675443658, 25.544388242511925], [-111.28033624562867, 25.5427247455767], [-111.27666111851539, 25.54189821754557], [-111.27574091464898, 25.541066436655242], [-111.27436347788115, 25.541069023199153], [-111.27344329610888, 25.54023722759702], [-111.27114758340625, 25.54024149516845], [-111.27022742999354, 25.539409679037107], [-111.26839087198964, 25.539413055550508], [-111.26563419800516, 25.538584563653988], [-111.26333578470937, 25.53733843793848], [-111.26195838912608, 25.53734090749263], [-111.26073104925877, 25.536647153017512], [-111.25690704917882, 25.536933094580355], [-111.25644703231238, 25.536517141861342], [-111.25461051633478, 25.536520345264627], [-111.25047229484687, 25.53361016645942], [-111.24618422532609, 25.53361743470242], [-111.2449637228057, 25.53403623962873], [-111.24312472249551, 25.53278902541339], [-111.24174737672429, 25.532791304555843], [-111.24006025591825, 25.531681374108352], [-111.23700021806522, 25.532799060624473], [-111.23562287156187, 25.532801282191556], [-111.23470626259413, 25.53363627216771], [-111.2311893181758, 25.533641864146983], [-111.23072940196188, 25.533225829752684], [-111.22935284254065, 25.533644750610144], [-111.22797391002294, 25.532813383829897], [-111.22345475953432, 25.53198682681106], [-111.22207895579511, 25.53282243792892], [-111.21932425922604, 25.53282658756991], [-111.21748929764635, 25.53366284233796], [-111.21595988287652, 25.53338591860929], [-111.21473532311062, 25.534083664405934], [-111.20784922351162, 25.534510355422505], [-111.2027233138952, 25.538760194911877], [-111.20134937611292, 25.54084588773103], [-111.20135076821059, 25.541679404795453], [-111.19868255741399, 25.544108545454574], [-111.19547181825841, 25.546196662522387], [-111.19478306660818, 25.546197580167934], [-111.19401363008473, 25.547448879350284], [-111.19225963796417, 25.547451192488044], [-111.18850693492615, 25.54961492682598], [-111.18759181674145, 25.551699897801562], [-111.1875950608777, 25.55378368890204], [-111.18676054535867, 25.55454321420094], [-111.18562168263608, 25.554544662392136], [-111.18561923013866, 25.55295268886155], [-111.18469956495866, 25.55212033357403], [-111.18469595033157, 25.549761975172093], [-111.18706555283578, 25.54677055605747], [-111.18698603892662, 25.546008234904935], [-111.18790307404518, 25.545173542316807], [-111.18835975043837, 25.5435809771867], [-111.1891953707566, 25.543579900172833], [-111.19202924300582, 25.541208974953953], [-111.19202836683638, 25.540658896188795], [-111.19462131455307, 25.539892760975746], [-111.19523901937126, 25.538570853541845], [-111.19630417396908, 25.538569430022893], [-111.19707353061831, 25.537318117765455], [-111.19829035183041, 25.537387282070206], [-111.19890800367497, 25.536065359027702], [-111.19974357138214, 25.536064222145296], [-111.20226598479012, 25.534393721944802], [-111.20303525302178, 25.533142378198434], [-111.20387080026408, 25.53314121789929], [-111.20524602587444, 25.531889018021815], [-111.2066233647921, 25.53188708209076], [-111.21441865168833, 25.52645800188718], [-111.21808762070253, 25.524368786830646], [-111.2190057886561, 25.524367417544088], [-111.22175646220495, 25.522279480157536], [-111.22359199351814, 25.521859931049452], [-111.22436096075005, 25.520608475160994], [-111.22657284581094, 25.52018831219033], [-111.22803061794521, 25.51906909103101], [-111.22802957854576, 25.518519011876304], [-111.22932408452115, 25.518516992194723], [-111.23436728412103, 25.51517493240159], [-111.23757898255907, 25.51433624141982], [-111.24079229854935, 25.51433099824552], [-111.24262680328552, 25.51349445268211], [-111.24629913735947, 25.513488328461282], [-111.2490516673993, 25.512650157391064], [-111.25126901721634, 25.512717179908734], [-111.25226319390316, 25.511811145642255], [-111.25547643911315, 25.511805581091], [-111.25822886557168, 25.51096723829004], [-111.26220417348341, 25.51096018209358], [-111.26450115700102, 25.511789575803153], [-111.27000957039517, 25.51177953361891], [-111.27138854715943, 25.512610506882016], [-111.27460275675112, 25.513021280879734], [-111.2755227369837, 25.513853073936417], [-111.27735890481695, 25.513849611233216], [-111.27781890594284, 25.514265499707136], [-111.27905265639305, 25.513700240989575], [-111.27942890320949, 25.511761882003555], [-111.28240348958141, 25.511756181954205], [-111.28332351333526, 25.51258792582632], [-111.2847006238874, 25.512585257794225], [-111.28684692254049, 25.513693778523518], [-111.28990600564727, 25.51257505595028], [-111.2908220706706, 25.511739722716676], [-111.29663352550979, 25.5117280786364], [-111.29939289173379, 25.513806264857816], [-111.30398749754367, 25.515463844464506], [-111.31042701646331, 25.52045145126613]], [[-111.27242054475015, 25.524340080791788], [-111.27126102409729, 25.52329175158931], [-111.26988378980062, 25.523294294360554], [-111.26903621442358, 25.524066857330627], [-111.26903792550075, 25.524834185146133], [-111.26981079972238, 25.525532962320135], [-111.27134405465988, 25.525530131259075], [-111.27242054475015, 25.524340080791788]]]}}]}
