{"type": "FeatureCollection", "features": [{"type": "Feature", "properties": {"uga": "85", "politica": "preservacion", "procedencia": {"metodo": "digitalizacion-semiautomatica", "fuente": "Mapa de ubicación de la ficha UGA 85, Boletín Oficial No. 12 (12-mar-2014), p. 454 del PDF", "datum": "UTM 12N con desplazamiento de +30 m E y +170 m N ajustado contra la costa (INC-011)", "correccion_borde_px": 1.4, "precision_aprox_m": 143.0, "escala_por_superficie": false, "revisada_en_qgis": false}, "control": {"residuo_georreferencia_m": 116.0, "area_digitalizada_ha": 11409.64, "escala_por_superficie": false, "superficie_ficha_ha": 11360.75, "diferencia_area_pct": 0.4}, "georreferencia": {"a_x": 35.78423061356032, "b_x": 485373.092929009, "a_y": -35.52203612747915, "b_y": 2821837.1717123734, "factor_render": 2, "pagina_mapa": 454, "ficha_mapa": "85"}}, "geometry": {"type": "MultiPolygon", "coordinates": [[[[-110.95739780194805, 25.209311510913693], [-110.95869262180122, 25.21048156525958], [-110.95869225915901, 25.2115558637006], [-110.95739661349047, 25.21272518263902], [-110.95124845028367, 25.21272328320718], [-110.94698624335246, 25.21143864227121], [-110.93940339405943, 25.211645454673814], [-110.93750372086413, 25.212718112213008], [-110.93432341570352, 25.212075146768967], [-110.9343246200434, 25.20983116253264], [-110.93633122557257, 25.20802076608734], [-110.9460313167647, 25.208024624503622], [-110.9467414707379, 25.208666469358636], [-110.95171452928363, 25.208668176908862], [-110.95242471684155, 25.209309994465226], [-110.95739780194805, 25.209311510913693]]], [[[-110.96532480196309, 25.21551152799817], [-110.96543921452509, 25.219898223590434], [-110.9608200248966, 25.222784209915627], [-110.96081913630195, 25.22555785960519], [-110.95479601133512, 25.225556140142007], [-110.95350106948152, 25.224386053885585], [-110.95361839322415, 25.21999942502133], [-110.95279252229767, 25.219253139331645], [-110.9527931844606, 25.21753725558726], [-110.95480011788987, 25.214443436603382], [-110.95680849773893, 25.214555104805065], [-110.96048429679, 25.21316189118406], [-110.9620313272854, 25.21176563473208], [-110.96203188927345, 25.209954360796925], [-110.96698857976492, 25.20995555049457], [-110.96828349823646, 25.211125520860996], [-110.96828291659244, 25.213369505839978], [-110.9669876588308, 25.213369222301328], [-110.96532480196309, 25.21551152799817]]], [[[-111.00013818219867, 25.225139392098185], [-111.00025385892357, 25.232733983415887], [-110.99812209831812, 25.23465872775508], [-110.99883264975442, 25.238508245681682], [-110.9981220293153, 25.23914982326345], [-110.99812198987767, 25.241716162328206], [-110.99682640122872, 25.242885822200336], [-110.99080237247804, 25.24352715447584], [-110.99080267781392, 25.23947034134357], [-110.99002105765757, 25.238764547254505], [-110.98545637754826, 25.241601971172873], [-110.98014319341486, 25.24095976788275], [-110.98014406097775, 25.235619783352664], [-110.9787066360789, 25.23454371809771], [-110.97751470798909, 25.236468297010163], [-110.97621920545355, 25.236468094174835], [-110.9749116987517, 25.237648180314896], [-110.97538213663587, 25.240317466509534], [-110.9723100407686, 25.240316922643466], [-110.97153553812623, 25.241015888700534], [-110.97182856164615, 25.242355072719484], [-110.96982191658304, 25.244165942652664], [-110.96626905396766, 25.242882005236435], [-110.9636556161789, 25.244598833506018], [-110.96365517281106, 25.246089306917803], [-110.95692038137844, 25.246087496241255], [-110.95562520196104, 25.24491743152855], [-110.95562648284623, 25.241390287590615], [-110.95976496838101, 25.240108303428126], [-110.96202305974094, 25.238391451992978], [-110.9606024246201, 25.236578242537185], [-110.96060335464355, 25.233692679620304], [-110.96616214467537, 25.234335642411732], [-110.9680648352424, 25.232297822618612], [-110.96806514078166, 25.231128139100026], [-110.972202856998, 25.23112897536471], [-110.97374998137059, 25.22973259974934], [-110.97446105319419, 25.227279868690122], [-110.97646700360629, 25.227280201718628], [-110.98002035887946, 25.223431208511688], [-110.98298813194033, 25.223431579886682], [-110.98298853372238, 25.220542871438145], [-110.98192298310595, 25.219131254594366], [-110.98035966101335, 25.220542545519812], [-110.9803594731928, 25.221712230827215], [-110.97847663349721, 25.221600900921], [-110.97680664376115, 25.223108376127406], [-110.97680642193737, 25.224278061001534], [-110.97019835710923, 25.224918462406134], [-110.96877999571726, 25.214333562081528], [-110.97149707403575, 25.210598075648186], [-110.97480333832875, 25.210598676030937], [-110.97551365830869, 25.211240382660673], [-110.97906602855804, 25.210599340986892], [-110.97977637091203, 25.21124102715359], [-110.99114355865866, 25.211883732252506], [-110.99398535065309, 25.212525462379993], [-110.99611666840131, 25.21445029503512], [-110.99753760998101, 25.21445032552987], [-111.00037950110524, 25.217016693192054], [-111.00309576907557, 25.217016661264832], [-111.00309582299137, 25.219147157259496], [-110.99931376061224, 25.219147188084072], [-110.99836191874844, 25.220006692548946], [-110.99931375096814, 25.22086621188061], [-111.00167485039357, 25.22086620398504], [-111.00167488990829, 25.223751772594156], [-111.00013818219867, 25.225139392098185]], [[-110.98192305653147, 25.21863438501422], [-110.98239403852803, 25.21808089334127], [-110.98185216174697, 25.217591437927744], [-110.98131013976707, 25.218080760277914], [-110.98192305653147, 25.21863438501422]], [[-110.98320126055887, 25.223637339982695], [-110.98439250896503, 25.225356493285194], [-110.98541284461118, 25.224657482735545], [-110.98428346996474, 25.223637459019468], [-110.98320126055887, 25.223637339982695]], [[-110.99375223745186, 25.229638561229102], [-110.9964879421994, 25.227810132086738], [-110.99648796662588, 25.226959670732857], [-110.9949412524759, 25.225562966463006], [-110.99197611464623, 25.225451767549448], [-110.99030623861952, 25.226959394548945], [-110.99001281364703, 25.22850738092532], [-110.99375223745186, 25.229638561229102]]], [[[-111.08736037425722, 25.46603323844806], [-111.08924693517972, 25.46592103956909], [-111.08924779813914, 25.467090684554414], [-111.09280950157859, 25.46965473322016], [-111.0935236948312, 25.47253974857147], [-111.08820030943616, 25.472543044381293], [-111.08392576373164, 25.46869616542135], [-111.08250185077725, 25.468696972700172], [-111.07822845185993, 25.46613305409743], [-111.07347693275403, 25.46506209824358], [-111.06588139638419, 25.470630067494533], [-111.06374549190947, 25.47063101071941], [-111.06018660873723, 25.47255720649342], [-111.05378221659926, 25.480258461500757], [-111.05235844446278, 25.480900540135913], [-111.04274605495355, 25.48090365541222], [-111.03728170606561, 25.48679270025594], [-111.03941880218291, 25.489567261920676], [-111.0394191526248, 25.490641519674696], [-111.03812130693731, 25.491811505012627], [-111.03551948096877, 25.491812158134767], [-111.0291100233066, 25.489247318518686], [-111.02270023500377, 25.48347438075105], [-111.0209037967265, 25.48422969468497], [-111.02090399901884, 25.485399338099096], [-111.01700415209184, 25.485399841946855], [-111.01285710082314, 25.47909811065416], [-111.01356879544495, 25.476212578058412], [-111.01771476724821, 25.475570571903297], [-111.01926448232065, 25.474173764420282], [-111.01926419378754, 25.47236255471184], [-111.02161372371498, 25.472362227499904], [-111.02161412478047, 25.474606133080993], [-111.02043041859255, 25.475673083291124], [-111.02090257643593, 25.47717249304377], [-111.01971883885707, 25.47823943716045], [-111.02079612580867, 25.479209833961956], [-111.0222290265615, 25.477918296350964], [-111.02282442945254, 25.4741732539237], [-111.02483408493464, 25.472361717900146], [-111.02810211455967, 25.4735867306835], [-111.02495956008663, 25.47011465058717], [-111.02525289814422, 25.46749238418387], [-111.02447696863864, 25.466793423860892], [-111.02211109084598, 25.46679379931602], [-111.02139831409744, 25.462097219420862], [-111.02814508271435, 25.462096080967918], [-111.02956923290344, 25.463378931712075], [-111.03086715502688, 25.46337866453674], [-111.03086761715905, 25.46518987630102], [-111.03200698713235, 25.466216136410637], [-111.03278993260643, 25.46551024203535], [-111.03278935474596, 25.46337824777239], [-111.03656256147191, 25.463377356483896], [-111.03798758615076, 25.467112901450044], [-111.04108550677462, 25.469902873847804], [-111.04368413575028, 25.46979105943639], [-111.04368455822082, 25.470960704888803], [-111.04510897750626, 25.472243402999393], [-111.04511029382036, 25.475772006176154], [-111.0463046462366, 25.476847463841775], [-111.04845655890055, 25.475450157310647], [-111.0484551898038, 25.472033467884696], [-111.04560607361701, 25.468826557909367], [-111.04560558981872, 25.467543428472258], [-111.04204472367415, 25.464336666612642], [-111.04204345855544, 25.460696143876294], [-111.04417794097337, 25.457278820206888], [-111.04346547507066, 25.45567511828139], [-111.04132946643256, 25.454599902236932], [-111.04132884796593, 25.452788688069315], [-111.039904698039, 25.45150594954063], [-111.03990370946897, 25.448506986858643], [-111.0410867605654, 25.446798309524652], [-111.03990222937435, 25.444016020083335], [-111.04108545437835, 25.44294890876052], [-111.04000832802893, 25.441978655891376], [-111.03634268804493, 25.442411456535698], [-111.03634233702763, 25.441241806430046], [-111.03306683353199, 25.436687451711617], [-111.03098673159313, 25.438563280371188], [-111.02767427050925, 25.438563941741613], [-111.02482688776506, 25.437281315498723], [-111.02197933246748, 25.43471549831203], [-111.0171230214329, 25.43535771237165], [-111.01569901501907, 25.431621948043436], [-111.01569862645046, 25.428622976625793], [-111.02055425911576, 25.42552801954186], [-111.02386636398985, 25.42552751896252], [-111.02742517110872, 25.426810034994443], [-111.03021792177385, 25.429326433255714], [-111.03093857776672, 25.42867651538229], [-111.02993237168789, 25.425845623027392], [-111.02850865944932, 25.424562768865936], [-111.02850795405129, 25.421563794827122], [-111.0292191701485, 25.41963894807404], [-111.03164736781052, 25.41744891040006], [-111.03092645079653, 25.416799294894037], [-111.03026966250742, 25.417391673391677], [-111.02281372830544, 25.417393019700885], [-111.02381852261624, 25.41424254020007], [-111.0230429427483, 25.413543566980692], [-111.0216743426513, 25.413272317873304], [-111.02089181594266, 25.414827027653168], [-111.01912916358191, 25.414827267595502], [-111.01770569508386, 25.41354430670034], [-111.01414760472689, 25.414186261840662], [-111.01285008555791, 25.41301672617206], [-111.01284983574959, 25.410659317083997], [-111.01485858742748, 25.408847902354577], [-111.01770510300922, 25.409489157183295], [-111.02055099637828, 25.406280936109546], [-111.02444829566956, 25.40628033973831], [-111.02540930195659, 25.407995167279], [-111.02630772143907, 25.407184846913413], [-111.02565756818234, 25.40424193789569], [-111.02844092901063, 25.400447959568552], [-111.02754220580687, 25.39963796744939], [-111.02386198492542, 25.403278314589937], [-111.0217272665859, 25.40327864550255], [-111.01816969089974, 25.405203839580842], [-111.01640717837486, 25.405204046810475], [-111.01640706355793, 25.404355175837132], [-111.01402306211126, 25.402526946407804], [-111.00963073249987, 25.40584621718707], [-111.0084539287052, 25.405846289556695], [-111.00525164429955, 25.402638586275206], [-111.00431015711999, 25.402638616884726], [-111.0035985343137, 25.40082740857437], [-111.00359850245107, 25.399753137429975], [-111.00502155366108, 25.39846995381798], [-111.00430989912248, 25.39537560547601], [-111.00774171357324, 25.39601703612597], [-111.01532195111828, 25.394091727908275], [-111.01953686750497, 25.397249756910842], [-111.02025739033222, 25.396599888659356], [-111.01704567311369, 25.39145952525883], [-111.01427084135878, 25.39173127870995], [-111.01427070383713, 25.390561620339763], [-111.01071287285447, 25.3867124913027], [-111.01071256164154, 25.383185414205602], [-111.01519464797946, 25.382543447242572], [-111.01638793023155, 25.384468036070373], [-111.0212586528187, 25.383825840681897], [-111.02292294550104, 25.38232452562632], [-111.01912370271279, 25.380182430422888], [-111.01770082789594, 25.38018260846771], [-111.01640363822439, 25.379013098583656], [-111.01640349312369, 25.377938824295622], [-111.01770033037016, 25.376769013456922], [-111.0230357175221, 25.375485129142678], [-111.02422841434361, 25.374200221659276], [-111.02308997546908, 25.373173887654357], [-111.02029929253338, 25.37440811745613], [-111.01711441995357, 25.37440852229017], [-111.0171142551582, 25.373238861182084], [-111.01490868115788, 25.37125022395338], [-111.01318518696459, 25.373767353645857], [-111.01058589443214, 25.373767563564176], [-111.00928884178127, 25.372597989891663], [-111.00928875963923, 25.37152371463711], [-111.01213396525911, 25.36810676865165], [-111.01142238746237, 25.36586131747215], [-111.00845102543897, 25.364144097941463], [-111.00678205102454, 25.364144184291924], [-111.00464809407912, 25.366068988891968], [-111.0029928421058, 25.365637179357876], [-110.99895722821276, 25.36927692706268], [-110.99648386356357, 25.36927688875906], [-110.99648398090837, 25.365221714652073], [-110.99873383330132, 25.364362256168366], [-110.99891168242908, 25.36291871598375], [-110.99819126445307, 25.362268935063916], [-110.99753461123807, 25.362861171753934], [-110.99351287994168, 25.362861049470027], [-110.9907224196592, 25.36034393110788], [-110.98958414490694, 25.36221924979132], [-110.98497684794621, 25.36286042585948], [-110.98225742289588, 25.362218549108015], [-110.9822577809508, 25.359765737469882], [-110.980835347538, 25.358482410349282], [-110.98083561804886, 25.35676655849833], [-110.98675625886308, 25.353031246723884], [-110.98794909824751, 25.351955501169776], [-110.98794924595961, 25.350465048884125], [-110.99137975093932, 25.350465289640535], [-110.99351360982104, 25.349182248586764], [-110.99753488862409, 25.34918237079556], [-110.9992036492528, 25.350465539776174], [-111.00133741854393, 25.34854081001849], [-111.00381036129133, 25.348540766800106], [-111.00459279745452, 25.35009535470657], [-111.00549092785566, 25.3492851551751], [-111.00204863100853, 25.34618023225154], [-110.99719576999642, 25.34618021980369], [-110.99766721620753, 25.343511059114736], [-110.99635883885787, 25.34233074707694], [-110.98795011550374, 25.341688723296595], [-110.98723926142037, 25.33827505046415], [-110.993514294006, 25.336350731344623], [-110.99753514864425, 25.336350853482973], [-110.99895749956555, 25.337634023151605], [-111.00025407736698, 25.337634026621025], [-111.00013831163409, 25.339340833632537], [-111.00459251884459, 25.342717235914566], [-111.00501914589857, 25.340200246141293], [-111.01045991701612, 25.340952602289608], [-111.01129417518813, 25.340199898693623], [-111.01389275006674, 25.340199676546018], [-111.01596283435202, 25.34206666697556], [-111.01525170044768, 25.342708318206732], [-111.01632774765159, 25.3436787662947], [-111.01704797020564, 25.343028909187243], [-111.01562536544601, 25.341745915196274], [-111.01568694919142, 25.33827319804168], [-111.01449423300164, 25.337197470065945], [-111.00573023817215, 25.337839647939468], [-111.00620149752558, 25.335812033429075], [-111.00430772659377, 25.33410372340307], [-111.00430764716455, 25.3318597747917], [-111.00773762755598, 25.33185963459547], [-111.00844873772097, 25.33121801869751], [-111.0169826385447, 25.3318588590834], [-111.0191158002479, 25.329933867151357], [-111.02196025813677, 25.329291893716047], [-111.02362379631276, 25.327790560132495], [-111.02290345450743, 25.32714089695165], [-111.0202915824062, 25.328214711606847], [-111.01710791951238, 25.328215115601626], [-111.01639615330843, 25.323516852501264], [-111.01562293561231, 25.322819400915904], [-111.01675147019968, 25.32180095249926], [-111.01781778548326, 25.31955530525648], [-111.01685763047323, 25.318159626161513], [-111.01518683306513, 25.319988304826683], [-111.01596026790057, 25.322498575971803], [-111.01447620539673, 25.32383784234592], [-111.01447651056345, 25.32640415187484], [-111.013180179079, 25.327573942094357], [-111.00773731435429, 25.32693275116972], [-111.0058363420697, 25.325859406620395], [-111.00322438077198, 25.32821607338997], [-110.99966871540848, 25.32757453113202], [-110.99824643757518, 25.328857675337495], [-110.99707037916919, 25.32885765664958], [-110.99292948868302, 25.326404693291142], [-110.99364077908635, 25.32319683856005], [-110.99221865290058, 25.32191361509309], [-110.9922187215547, 25.320839332441437], [-110.99493737642098, 25.319028203324713], [-110.99920385076594, 25.31966986601995], [-111.00075178970205, 25.318273224372156], [-110.99943630676746, 25.31687743289756], [-110.99824659466027, 25.317950856954578], [-110.9955254253923, 25.317198155116028], [-110.99398015387354, 25.317950744461942], [-110.9907967592267, 25.31795058008199], [-110.99008585933628, 25.315818496620842], [-110.98758088532064, 25.314100875110864], [-110.98402512557382, 25.317950001756525], [-110.98118083186348, 25.317949666069175], [-110.97975847174311, 25.319232633506548], [-110.97716034459647, 25.319232253824925], [-110.97431656230904, 25.31666547380506], [-110.96933926272554, 25.316022944473477], [-110.96804322219201, 25.314852998895393], [-110.96804364260477, 25.31325062313066], [-110.96933996054162, 25.31325089842483], [-110.97218487678782, 25.31004356999551], [-110.97336075337034, 25.310043787141645], [-110.97478254221647, 25.311327194413895], [-110.97716182689197, 25.311327582174986], [-110.97929525827136, 25.30940316123691], [-110.98178393654767, 25.308761910932333], [-110.98297650445295, 25.306837316768785], [-110.98646041627373, 25.30710913902627], [-110.98653204368827, 25.302346630143862], [-110.98878080406547, 25.301487316016043], [-110.98758225859069, 25.3006277175159], [-110.98189390797506, 25.30447660493256], [-110.97645211645835, 25.304475836356428], [-110.97218644090138, 25.303191935070863], [-110.9707647742677, 25.301908501453468], [-110.96792085534564, 25.30190791025109], [-110.96365574245264, 25.299340602996786], [-110.96200409023123, 25.299340186734593], [-110.96200515431586, 25.295926554854088], [-110.96755052383294, 25.29592787907041], [-110.96850977343976, 25.297963892957732], [-110.97076605472732, 25.296570131294924], [-110.97265274990465, 25.29657049317467], [-110.97348661014088, 25.297323291832477], [-110.97787600674901, 25.294005049262335], [-110.98118452971961, 25.294005508391475], [-110.98260621404422, 25.295288842957184], [-110.9838049003007, 25.2944294762758], [-110.97929827495503, 25.291644668767045], [-110.97658034690025, 25.291644262308502], [-110.97658057156903, 25.29047458810752], [-110.97361174878188, 25.287794278507366], [-110.9712327721819, 25.28843541438545], [-110.96662852220601, 25.287792864192294], [-110.96662945629532, 25.284379226795803], [-110.97478798383679, 25.285022427317983], [-110.9759771580164, 25.286096063712762], [-110.97669725529445, 25.285446398633198], [-110.97658186494668, 25.28373956112017], [-110.98077597781429, 25.284011629213126], [-110.97942563111401, 25.2821344625359], [-110.98013696546884, 25.279249014317017], [-110.98260850165286, 25.27924932629309], [-110.98397538088702, 25.280483315230768], [-110.98469540243435, 25.279833610580365], [-110.98369154715783, 25.276681554096612], [-110.98290973001342, 25.275975725838], [-110.98047623370985, 25.277530049448767], [-110.97432467212401, 25.278170688883712], [-110.9730289857069, 25.277000781415556], [-110.973740327632, 25.27464345718226], [-110.97503647447456, 25.273474005184802], [-110.97681350949996, 25.273474295049837], [-110.97918781131489, 25.27101118822581], [-110.97788039099508, 25.269830701032234], [-110.97479099061496, 25.270471787890983], [-110.97089819235545, 25.269829489592347], [-110.97089839476995, 25.26898060309545], [-110.9692283426824, 25.267793337183615], [-110.96308005466831, 25.267902994528416], [-110.9630807333962, 25.265659026236], [-110.96437688675427, 25.264489666422612], [-110.96757531407003, 25.264490403549466], [-110.96876767257844, 25.262565912518202], [-110.9714849527556, 25.26256646233874], [-110.97314820186038, 25.261065684372248], [-110.97232193428877, 25.260319511582033], [-110.97232258836169, 25.257433957593054], [-110.97550427461368, 25.25807610291022], [-110.97763609515523, 25.260001190535437], [-110.97846984958107, 25.26011238162205], [-110.98014032492772, 25.258604895479664], [-110.97658758881225, 25.253904416763827], [-110.9765880189486, 25.251660443937244], [-110.979305056637, 25.251660849664642], [-110.98143741025372, 25.249736381514072], [-110.98332338159463, 25.249736606507156], [-110.98557819692203, 25.25177266276367], [-110.99114076962641, 25.25037886623542], [-110.99611544533735, 25.25294541602071], [-110.99753683444577, 25.25294544656842], [-111.00002426615407, 25.25679496818284], [-111.00146211870651, 25.256039890601414], [-111.00146210470268, 25.254870210660116], [-111.00677597043313, 25.25487006243965], [-111.00961894502349, 25.256794654891817], [-111.01091466320038, 25.256794564802846], [-111.0109147677485, 25.257964244418382], [-111.0128175079848, 25.260002327870748], [-111.01601590235268, 25.260643598599287], [-111.02086588678488, 25.263737420218213], [-111.0208662897522, 25.266094876224617], [-111.01826324294605, 25.268445196817947], [-111.01933865809252, 25.26941563304505], [-111.02194893321479, 25.266417080383434], [-111.02550239564286, 25.264491761622484], [-111.02868439449124, 25.264491177659785], [-111.02939682854873, 25.271434956264105], [-111.03081940497694, 25.27528415716183], [-111.03224139306818, 25.276567016601515], [-111.03224258001197, 25.28105808590839], [-111.03579931882786, 25.289397816203387], [-111.03580044911416, 25.293247297511137], [-111.03864619977105, 25.299662377441635], [-111.03935882398433, 25.304794823371452], [-111.04078124643999, 25.306077594876776], [-111.04149443558944, 25.31249318264394], [-111.04362870885235, 25.31570045771285], [-111.04363008797057, 25.319549924923518], [-111.04505320269183, 25.32211580740938], [-111.04505415236538, 25.324682116823244], [-111.04790087469894, 25.33045541248886], [-111.04790264242823, 25.33494644811214], [-111.04932576763731, 25.336870707475086], [-111.05004064599252, 25.345852528049377], [-111.05146420439304, 25.348418338804255], [-111.05217834566834, 25.35515305419792], [-111.04614881607502, 25.35515506733472], [-111.04211321078738, 25.35408284901348], [-111.04045827680488, 25.354515166112357], [-111.03832401131008, 25.3532325874316], [-111.03547889320357, 25.35323330039347], [-111.0347674302028, 25.35259189518119], [-111.0220901630402, 25.351952767538457], [-111.02089711014276, 25.350028216301656], [-111.01911895792851, 25.35002845787901], [-111.01810661647883, 25.34911555094826], [-111.01720870761055, 25.35088819015868], [-111.01732550845274, 25.358049935498332], [-111.02171965440846, 25.360729135798472], [-111.02372780184969, 25.36072882584939], [-111.02372828072014, 25.363181637073495], [-111.02586284034847, 25.365747573286026], [-111.02586325001718, 25.36767229442921], [-111.02728641046804, 25.3695967581908], [-111.02799852512801, 25.372804491152834], [-111.03013350332353, 25.376011934773743], [-111.0301341400503, 25.378578225846457], [-111.03226893529819, 25.380502490981094], [-111.03226961728494, 25.383068780435327], [-111.03511728997546, 25.389483848290993], [-111.03511784682993, 25.391408563059326], [-111.03654123932613, 25.392691359329575], [-111.03607010956311, 25.394190968673072], [-111.03725353767932, 25.395257465918778], [-111.03796626772001, 25.39910670986797], [-111.0401021846989, 25.402955567074702], [-111.03963105928563, 25.404455185727826], [-111.04223980147289, 25.411295380462054], [-111.04366350283314, 25.412578103949265], [-111.04508962037376, 25.42027650526559], [-111.04793910114235, 25.427332858707224], [-111.04794087801581, 25.43182383519682], [-111.04936488113664, 25.433106499449007], [-111.05150285191088, 25.43952144098452], [-111.0531762094349, 25.441028527653486], [-111.05506241348782, 25.440916768316228], [-111.05625690398506, 25.442841016778], [-111.0579105078199, 25.442840374133496], [-111.05791091378055, 25.443689240260802], [-111.06004687653328, 25.444764216797328], [-111.06004745659575, 25.445933865933164], [-111.0615977243252, 25.447329841065624], [-111.06943117762829, 25.453100442411174], [-111.07144085362847, 25.45309947841773], [-111.07144154401708, 25.45426912595786], [-111.07299204983715, 25.455664978731544], [-111.07940149470697, 25.459511045329187], [-111.08367557148428, 25.46335806203776], [-111.08568541716421, 25.46335690265899], [-111.0856862455907, 25.464526548164397], [-111.08736037425722, 25.46603323844806]], [[-111.01631882884708, 25.344953718999488], [-111.01811532568954, 25.346557447969534], [-111.01668348928348, 25.344624690597843], [-111.01631882884708, 25.344953718999488]], [[-111.01775292159196, 25.30004312034544], [-111.0155559299548, 25.297419521596986], [-111.01211048623851, 25.297419844743143], [-111.01044724809321, 25.299241844295274], [-111.01211084829491, 25.30106358897559], [-111.01662285732901, 25.30106314942612], [-111.01775292159196, 25.30004312034544]], [[-111.04035600035081, 25.417278185470536], [-111.03596290673448, 25.417390390719984], [-111.03465403542518, 25.418570978455325], [-111.03512611354233, 25.419958439631962], [-111.03631982615858, 25.42103398743612], [-111.04083629016617, 25.421032801946236], [-111.04202931790091, 25.419956627737342], [-111.04202891182443, 25.41878540425893], [-111.04035600035081, 25.417278185470536]]], [[[-111.02512779008723, 25.250905091146674], [-111.02584003340407, 25.258281608524243], [-111.02407964742372, 25.25828190609761], [-111.02217948532432, 25.25656717840096], [-111.01412934089939, 25.257000026987722], [-111.01283349763473, 25.255830465525577], [-111.01283331732577, 25.254114589734076], [-111.01709707627606, 25.250906239154713], [-111.01709691256235, 25.24973655845224], [-111.01933560984246, 25.25016814160245], [-111.02005526440014, 25.24951826189116], [-111.01768153829995, 25.24737588847567], [-111.01638592007104, 25.247376037891048], [-111.01638554829356, 25.244603965769603], [-111.02240973080634, 25.245244759033607], [-111.02370555333319, 25.24641423816054], [-111.02512779008723, 25.250905091146674]]]]}}]}
