{"type": "FeatureCollection", "features": [{"type": "Feature", "properties": {"uga": "86", "politica": "preservacion", "procedencia": {"metodo": "digitalizacion-semiautomatica", "fuente": "Mapa de ubicación de la ficha UGA 86, Boletín Oficial No. 12 (12-mar-2014), p. 457 del PDF", "datum": "UTM 12N con desplazamiento de +30 m E y +170 m N ajustado contra la costa (INC-011)", "correccion_borde_px": 1.4, "precision_aprox_m": 22.0, "escala_por_superficie": false, "revisada_en_qgis": false}, "control": {"residuo_georreferencia_m": 9.7, "area_digitalizada_ha": 83.11, "escala_por_superficie": false, "superficie_ficha_ha": 83.1, "diferencia_area_pct": 0.0}, "georreferencia": {"a_x": 10.88920607251607, "b_x": 495522.42943599477, "a_y": -10.923860544955254, "b_y": 2819014.3075885572, "factor_render": 1, "pagina_mapa": 457, "ficha_mapa": "86"}}, "geometry": {"type": "Polygon", "coordinates": [[[-111.02815656200427, 25.463307191480084], [-111.02799411609772, 25.463455194847008], [-111.02782280402754, 25.463299244654902], [-111.02641464284237, 25.463299504790534], [-111.02631509887755, 25.46320888492866], [-111.02615265084812, 25.463356886261558], [-111.02576468027237, 25.463102323898834], [-111.02522306012489, 25.463003769753985], [-111.02359812800209, 25.462313502477258], [-111.02348477433046, 25.4623135206548], [-111.02359311277881, 25.462412151498555], [-111.02296582299776, 25.462412250972335], [-111.02220762410747, 25.462609664055044], [-111.02144938776148, 25.462609776800328], [-111.02099653656968, 25.46292366218513], [-111.02099660505097, 25.463318254999763], [-111.02078834608724, 25.463705305108466], [-111.02208012749429, 25.465078618798184], [-111.02208018151097, 25.46537456332216], [-111.0222510079529, 25.46553008212098], [-111.02175550223744, 25.466968127102028], [-111.02175557320702, 25.467362719697277], [-111.0215389960032, 25.467757344222882], [-111.02143080905857, 25.468531400506407], [-111.02182084233766, 25.46888647631006], [-111.0221004437833, 25.468845120867748], [-111.02219998923515, 25.468935743517143], [-111.02242743362133, 25.468728547869183], [-111.02296885234226, 25.467643334632303], [-111.02370735983719, 25.466970555441332], [-111.02392398708896, 25.46687187213966], [-111.02522185093632, 25.466970303018748], [-111.02543901261501, 25.469418593671726], [-111.02554735902415, 25.469517222971714], [-111.02543917860645, 25.470207778556542], [-111.02619776171862, 25.47158871850267], [-111.0282564454807, 25.473561298096644], [-111.02836500615824, 25.47454775771106], [-111.02847335955107, 25.47464638477626], [-111.02847347926289, 25.475154769619543], [-111.02795156538404, 25.47563023489439], [-111.02771730963802, 25.47563027932704], [-111.02676167940321, 25.474365907396262], [-111.02576690775604, 25.47355902570799], [-111.0244846294517, 25.473953837490566], [-111.02329296545142, 25.47375673534887], [-111.02284009596906, 25.474169274024415], [-111.02284017050083, 25.474563866229573], [-111.02273185886234, 25.474662531097927], [-111.02273198867874, 25.47535306739714], [-111.02263199042257, 25.475444158571328], [-111.02273209995374, 25.475944955601886], [-111.02262378699082, 25.476043620372828], [-111.0226239900329, 25.477128748610415], [-111.02252399022784, 25.477219839690022], [-111.02268651683744, 25.477367786675345], [-111.02251573103429, 25.477523357319615], [-111.02251578614744, 25.477819301340862], [-111.02219094980431, 25.478707182843507], [-111.02203679036987, 25.478847605750342], [-111.02214514246145, 25.47894623743141], [-111.02175775624862, 25.47949643164463], [-111.02175780951113, 25.47979237558782], [-111.0211729290701, 25.480522456180886], [-111.02045989128007, 25.480169278985283], [-111.01982941647071, 25.479595352899054], [-111.01982934926495, 25.47918561632007], [-111.0202625047029, 25.478100429169086], [-111.02069550040555, 25.476127408376218], [-111.02106623491777, 25.475493715714276], [-111.02095788680188, 25.47539508318758], [-111.02156185404095, 25.474450266917316], [-111.02156181886076, 25.474252970812614], [-111.02199499769232, 25.47347886668575], [-111.02091153498267, 25.47249254433389], [-111.02080310483635, 25.47190067123854], [-111.02058638206871, 25.4715061094345], [-111.01928626393757, 25.470322508816775], [-111.01928615140874, 25.469616827372473], [-111.01971930967605, 25.46872893668811], [-111.01982750526759, 25.4679397370202], [-111.02008994473132, 25.467602005160632], [-111.02004396011993, 25.466771074487575], [-111.0199355718836, 25.466376496607925], [-111.01961055534973, 25.46608059589526], [-111.01928546177172, 25.465291453588993], [-111.01928533596126, 25.46450226814233], [-111.01917699914937, 25.464403634146436], [-111.01906852257505, 25.463417166315267], [-111.01841852626544, 25.462924008276286], [-111.01841849392385, 25.46271156718719], [-111.0191569810371, 25.461940162219953], [-111.02034845553425, 25.4617427054582], [-111.02088996388626, 25.461249388261773], [-111.02143150276895, 25.460953365505276], [-111.02199068408802, 25.46095328280941], [-111.02328193059537, 25.46212885196511], [-111.02435612832576, 25.461150205893485], [-111.02567347492685, 25.460854036730804], [-111.02610678910872, 25.461051256780504], [-111.02762351247544, 25.462234757902028], [-111.02892341286626, 25.46253045218496], [-111.02950801042766, 25.463161246230587], [-111.02924858072511, 25.463397615701897], [-111.0282561074281, 25.463397810090832], [-111.02815656200427, 25.463307191480084]], [[-111.02285914803615, 25.471113911268912], [-111.02316653649342, 25.471113863070595], [-111.02340277816067, 25.470898654128685], [-111.02340272382473, 25.47061785448417], [-111.02316640027361, 25.470402720499948], [-111.02279604625022, 25.470361464890807], [-111.02262275350363, 25.470519328675444], [-111.02257696851818, 25.470857031761486], [-111.02285914803615, 25.471113911268912]]]}}]}
