{"type": "FeatureCollection", "features": [{"type": "Feature", "properties": {"uga": "87", "politica": "preservacion", "procedencia": {"metodo": "digitalizacion-semiautomatica", "fuente": "Mapa de ubicación de la ficha UGA 87, Boletín Oficial No. 12 (12-mar-2014), p. 460 del PDF", "datum": "UTM 12N con desplazamiento de +30 m E y +165 m N ajustado contra la costa (INC-011)", "correccion_borde_px": 1.4, "precision_aprox_m": 27.0, "escala_por_superficie": false, "revisada_en_qgis": false}, "control": {"residuo_georreferencia_m": 10.2, "area_digitalizada_ha": 364.7, "escala_por_superficie": false, "superficie_ficha_ha": 360.09, "diferencia_area_pct": 1.3}}, "geometry": {"type": "Polygon", "coordinates": [[[-111.04797887647105, 25.473063698720107], [-111.04827186932661, 25.4734510420636], [-111.04827201580916, 25.473817995541086], [-111.04867753128524, 25.474307132931997], [-111.04867776099178, 25.474877750234445], [-111.04854285005291, 25.47536706619006], [-111.0482727319077, 25.475611790915618], [-111.04827282957365, 25.47585642649727], [-111.04773273377704, 25.47671282775829], [-111.04773331326496, 25.47818064091728], [-111.04721716385737, 25.478525888824624], [-111.04685808736087, 25.478526003930476], [-111.04620651162953, 25.478058811871282], [-111.04620641813494, 25.477814176355746], [-111.04580094719314, 25.477447350140135], [-111.04566569836186, 25.477080438939254], [-111.0453712188966, 25.476814022320113], [-111.04510099984078, 25.47681410562016], [-111.04458454912985, 25.476346864640742], [-111.04458433872497, 25.475776247419212], [-111.04498948178697, 25.475286852514596], [-111.04498896594448, 25.473900384798004], [-111.04485381430112, 25.4737781083255], [-111.04485363282213, 25.47328883699163], [-111.044583331451, 25.473044283647916], [-111.04458306088472, 25.47231037655877], [-111.04408584995477, 25.471799382867687], [-111.04374809013605, 25.47179948393783], [-111.04307239623662, 25.47131041226868], [-111.04255609831728, 25.471188244994867], [-111.04255604145223, 25.471026640579517], [-111.04210332481698, 25.470678165149554], [-111.04091049381879, 25.47057712344982], [-111.04009979729905, 25.470332711379086], [-111.03971853554611, 25.469987733731468], [-111.03944809235354, 25.469253899160996], [-111.03915364565152, 25.46898746974049], [-111.03890760225407, 25.46898753516873], [-111.03850199533987, 25.46803097104115], [-111.03796144287571, 25.467541840040198], [-111.03796138529422, 25.46735836312189], [-111.03755602460559, 25.46715311804417], [-111.03755595544251, 25.466930354552936], [-111.03661004382214, 25.46619668569702], [-111.0359342647314, 25.46521830879737], [-111.03593415573015, 25.4648513548316], [-111.03509916651271, 25.46397345837456], [-111.03469381075348, 25.463728918699807], [-111.0339720839443, 25.463729087497878], [-111.03313748047493, 25.46417926375983], [-111.03313763124802, 25.464729694768277], [-111.03284491836293, 25.465117200464196], [-111.03300274659559, 25.46550460495342], [-111.0328677493841, 25.46587158921013], [-111.03313801104694, 25.466116164413744], [-111.03313832892195, 25.46727649984702], [-111.03145245467609, 25.467276870777717], [-111.03120635726788, 25.467054159790585], [-111.0312062941559, 25.466809523864747], [-111.0308009055976, 25.466442655565544], [-111.03080084330733, 25.466198019618385], [-111.03012514162111, 25.465341933920115], [-111.03012501978063, 25.46485266194119], [-111.02985473684268, 25.46448576313554], [-111.02971938606414, 25.46344777266013], [-111.03050579669929, 25.46344761134407], [-111.03077592370725, 25.46320291890088], [-111.03158648978173, 25.46320274673051], [-111.03199170812694, 25.462958022914627], [-111.0326671454537, 25.462835556128805], [-111.03401787842597, 25.46210134108836], [-111.03498745078403, 25.461284173430023], [-111.0349874040533, 25.461122568782105], [-111.03539262003798, 25.460917122119298], [-111.03539257276684, 25.460755517464005], [-111.0357505717123, 25.460776369610272], [-111.03620300606768, 25.460366493197448], [-111.03620293287244, 25.460121857061335], [-111.03717084980582, 25.45900026648101], [-111.0371481560856, 25.458776121947235], [-111.03795830876325, 25.457552733622794], [-111.03795811692908, 25.456941143045015], [-111.03809305026513, 25.456451835561083], [-111.03831824031357, 25.45624781382752], [-111.0382279052386, 25.45571789164459], [-111.03849780483408, 25.4548615940237], [-111.03836266805254, 25.454698339363592], [-111.03836220281624, 25.453230521327622], [-111.03809188243133, 25.452741318914974], [-111.03809172845673, 25.452252046136966], [-111.03768612033826, 25.45109012771563], [-111.03701041707599, 25.45011175367157], [-111.03701032358464, 25.44980595807583], [-111.03660502333972, 25.449600709813804], [-111.03660491899532, 25.449255627538026], [-111.03482427700881, 25.447644050534926], [-111.0344432000172, 25.447644140401497], [-111.03444313664225, 25.44742137631069], [-111.03401364333521, 25.447032649045756], [-111.03320311848054, 25.446788197920494], [-111.03279779100885, 25.44642133407479], [-111.03239256416856, 25.446421424008527], [-111.03090657628584, 25.445810152649567], [-111.02955582693835, 25.44581043068089], [-111.02847516991267, 25.445566007521894], [-111.0270782053885, 25.445688590045368], [-111.0265379597959, 25.44593332530429], [-111.0260207776728, 25.44591247891071], [-111.02559248596718, 25.446178129740503], [-111.02491710921274, 25.446178245874147], [-111.02464700830991, 25.446422928084985], [-111.02442310261537, 25.446422965489432], [-111.02417706057365, 25.446200242042543], [-111.02417701990497, 25.44599657732136], [-111.02458202185008, 25.44489564510621], [-111.0245819266182, 25.44442655899192], [-111.02417666542361, 25.444221276246967], [-111.0241765965235, 25.443876193678552], [-111.02399421554385, 25.443711093799855], [-111.02356874092862, 25.443732101627727], [-111.02359129974597, 25.443407501367425], [-111.02340942056266, 25.443242853645412], [-111.02259894243481, 25.442998343836475], [-111.02192349482098, 25.442509172692784], [-111.02086703548208, 25.442264689807], [-111.02086699709635, 25.44204192552744], [-111.02009982975777, 25.44128624963135], [-111.01992137757672, 25.441286273941632], [-111.01992130069011, 25.4408188728177], [-111.01965112223854, 25.440574272383277], [-111.0196510230012, 25.43996268029282], [-111.01924573998089, 25.43947346023031], [-111.01884038412571, 25.43849496523863], [-111.01775963460415, 25.437027278311135], [-111.01775957208115, 25.43660084887856], [-111.01793801736102, 25.43660082719831], [-111.0184106693584, 25.43611149478014], [-111.01976123082699, 25.43562204534647], [-111.02293229433212, 25.435254629087353], [-111.02306743486218, 25.435660850165473], [-111.02347266552236, 25.435866136231784], [-111.02347270868934, 25.436088900694692], [-111.02387797332489, 25.436455790840117], [-111.02387800949379, 25.43663926855503], [-111.02437497828193, 25.4370891741096], [-111.02518536956481, 25.437089037413703], [-111.02613087883071, 25.43733350921197], [-111.02653615567874, 25.43770039195298], [-111.02745754816553, 25.438067177996054], [-111.02745764026038, 25.43847342004924], [-111.02786288776392, 25.438678693913694], [-111.02786305157132, 25.439390732001556], [-111.02848451006291, 25.44001443677918], [-111.02941913815258, 25.439167664243918], [-111.03063468400491, 25.4389227789105], [-111.03146901155598, 25.438044500943825], [-111.03160395016198, 25.43755519815748], [-111.03200905036346, 25.43718815506496], [-111.03200898571492, 25.43694351814601], [-111.03225490468142, 25.436720699924887], [-111.03261385721646, 25.436720620675754], [-111.03355944632557, 25.43720968157926], [-111.03475122717366, 25.438410716510102], [-111.03475133246151, 25.438777671801905], [-111.03556205820664, 25.43987834361033], [-111.03596773539725, 25.441468384082018], [-111.03754569383746, 25.443080000590793], [-111.03806465123395, 25.442957548657184], [-111.03837923449427, 25.44303956491645], [-111.03887504240961, 25.44283501804547], [-111.03982054362737, 25.44283476476046], [-111.04022567716663, 25.442590017637922], [-111.04150599342746, 25.442589661431573], [-111.04177645198943, 25.443505287210353], [-111.04137136032301, 25.44387235691398], [-111.04123644674044, 25.444339795734123], [-111.04105799009471, 25.44433984572822], [-111.04069632542112, 25.44485109219982], [-111.04002111789015, 25.44534055103896], [-111.03975112972832, 25.445829897631572], [-111.03975126365664, 25.44623782443828], [-111.04018077253917, 25.446626534948518], [-111.04112638644784, 25.446870909793553], [-111.04164265576877, 25.44721584671839], [-111.04164280996602, 25.447664147913418], [-111.04123774566297, 25.448153535321733], [-111.0412378215424, 25.448376299372796], [-111.04099182005613, 25.44837636824298], [-111.04056256291028, 25.448765314703866], [-111.0400224926728, 25.449499372431195], [-111.03988791078926, 25.451008199816858], [-111.0404526204047, 25.45170266802195], [-111.04083371014606, 25.451702562546657], [-111.04123982235559, 25.454249258664227], [-111.04180449149437, 25.45476024411076], [-111.04288538743504, 25.455371523180396], [-111.04329064418846, 25.455371404256876], [-111.04369598926503, 25.455615920486842], [-111.04434747911759, 25.456205443420664], [-111.04421340549459, 25.458977828623457], [-111.04394352927955, 25.45981226379715], [-111.04376504982731, 25.459812317110483], [-111.04340330658978, 25.46020125115978], [-111.04340343037421, 25.460546332892402], [-111.04275213007217, 25.46054652400051], [-111.04216508293268, 25.460833688256237], [-111.04232293538826, 25.461221082922794], [-111.04223320517077, 25.462484962321735], [-111.04245927238136, 25.464768266292502], [-111.04275371606998, 25.4650346892388], [-111.0429997514154, 25.465034617373576], [-111.04322668449893, 25.465401504685218], [-111.04340517219785, 25.465401452015623], [-111.04340529601653, 25.465746533503776], [-111.04383488595882, 25.466135232188844], [-111.0446456069921, 25.466501941748014], [-111.04516201583573, 25.466969183196067], [-111.04529725178091, 25.46733609538423], [-111.04516242686088, 25.468070044594675], [-111.04556797958564, 25.468742667875787], [-111.04597335916606, 25.468947890757946], [-111.04597344383829, 25.469170654163985], [-111.04678433363915, 25.46990430540355], [-111.04678440461178, 25.470087782237226], [-111.04773043244742, 25.470882543950754], [-111.04773057727024, 25.471249497559594], [-111.0480009780761, 25.471738680883185], [-111.04800115601329, 25.47218698054163], [-111.04786610007442, 25.472309342517512], [-111.04797887647105, 25.473063698720107]], [[-111.0329089070274, 25.44334241189279], [-111.03263876267043, 25.44334247217045], [-111.03229880320364, 25.443650481427863], [-111.03232149601098, 25.443915599107747], [-111.03261586662308, 25.444182043220078], [-111.03306729725973, 25.444059623932933], [-111.03336152300609, 25.443793048209788], [-111.03336147801772, 25.443629757939238], [-111.0329089070274, 25.44334241189279]]]}}]}
