{"type": "FeatureCollection", "features": [{"type": "Feature", "properties": {"uga": "88a", "politica": "aprovechamiento-sustentable", "procedencia": {"metodo": "digitalizacion-semiautomatica", "fuente": "Mapa de ubicación de la ficha UGA 88a, Boletín Oficial No. 12 (12-mar-2014), p. 463 del PDF", "datum": "UTM 12N con desplazamiento de +30 m E y +165 m N ajustado contra la costa (INC-011)", "correccion_borde_px": 1.4, "precision_aprox_m": 37.0, "escala_por_superficie": false, "revisada_en_qgis": false}, "control": {"residuo_georreferencia_m": 9.3, "area_digitalizada_ha": 222.74, "escala_por_superficie": false, "superficie_ficha_ha": 201.79, "diferencia_area_pct": 10.4}}, "geometry": {"type": "Polygon", "coordinates": [[[-111.37805768668916, 26.187410016052326], [-111.37787386213276, 26.188334094944313], [-111.377410601836, 26.18833531073161], [-111.37706961076303, 26.18802943903397], [-111.37706744053025, 26.187355269046122], [-111.37669220652977, 26.186850619991258], [-111.37650215305352, 26.185839853629417], [-111.3753770229161, 26.184494440946896], [-111.37462524392016, 26.183063775595826], [-111.37406394830553, 26.182782097304276], [-111.37406296888723, 26.182475333902442], [-111.37312523021413, 26.181297959448617], [-111.37293628997587, 26.18062427266026], [-111.37237430301965, 26.18012009533451], [-111.3714355318443, 26.17860562347889], [-111.37009057399568, 26.17739895618897], [-111.36878040410282, 26.176559597577302], [-111.36822004321698, 26.176561032141766], [-111.36616275327316, 26.175723558666693], [-111.3643279763092, 26.175559669885722], [-111.36432597481942, 26.174915819767012], [-111.36376352905941, 26.17424306467558], [-111.363384214357, 26.172390034153505], [-111.36207102456441, 26.170539353785227], [-111.36206894225961, 26.16986518101559], [-111.36169278930409, 26.169023403907964], [-111.36100330495577, 26.168320633946497], [-111.36075674584943, 26.168321251965875], [-111.36038070057528, 26.167509793155624], [-111.3603734478216, 26.16515018675116], [-111.36018616111757, 26.164982110736073], [-111.35999232420039, 26.16268031552538], [-111.36021025578636, 26.1624825530868], [-111.36017711164749, 26.162035996918892], [-111.36042365755328, 26.162035380029373], [-111.3609225180614, 26.161498174078414], [-111.36104576724637, 26.160879285839], [-111.36035687347761, 26.159756797772694], [-111.36035376631139, 26.15874553688836], [-111.35960156376142, 26.15706196897827], [-111.35962928847435, 26.155742213701178], [-111.358688143111, 26.154561355435625], [-111.35787986837052, 26.154676306947827], [-111.35753902670395, 26.154370385989232], [-111.35753663301853, 26.15358501282655], [-111.35790704896449, 26.152572823150674], [-111.357897537204, 26.149454764350196], [-111.35845416494601, 26.148273564994433], [-111.3582657039237, 26.147711053049278], [-111.35838706973313, 26.146475335840684], [-111.35788553906364, 26.14552091174387], [-111.35769263684807, 26.1434988490277], [-111.35731762835972, 26.142994144051155], [-111.35712781753853, 26.14198334346071], [-111.35675332867031, 26.141647180794035], [-111.35675179182931, 26.141141548898386], [-111.35600180144303, 26.140132132433738], [-111.35599924563043, 26.139289412341604], [-111.35562247096891, 26.138194798260322], [-111.35506143614447, 26.13791304141562], [-111.35487072619341, 26.13659547084333], [-111.3543069947806, 26.135417040354866], [-111.35411112315984, 26.13238370393575], [-111.35392389821178, 26.13221561838313], [-111.3539147547086, 26.129181821571116], [-111.35322555357851, 26.128479007602916], [-111.35297907796574, 26.12847961145032], [-111.35297815596243, 26.128172845015854], [-111.35216376784976, 26.12744166382129], [-111.34989433296926, 26.127138768188452], [-111.34989241486923, 26.1264949127256], [-111.34914307913729, 26.125654001431503], [-111.34895086495584, 26.12380046409738], [-111.34854277881678, 26.12343403744556], [-111.34820296225578, 26.123434858708816], [-111.34801485126309, 26.122959998222598], [-111.34819655760035, 26.121274101636658], [-111.34782116278784, 26.120600824644388], [-111.34781816888136, 26.119589556890347], [-111.34688145071448, 26.118496265735242], [-111.34632053112138, 26.11821447292872], [-111.34600541266971, 26.117709591866795], [-111.34575895946192, 26.117710183141277], [-111.34575756078087, 26.117234871284225], [-111.34500781939566, 26.116225391761457], [-111.34509697768549, 26.114799319782374], [-111.34562019307641, 26.11496322583654], [-111.34599596392586, 26.115774731833316], [-111.34696558212642, 26.116645453863217], [-111.34790103848698, 26.11731738318218], [-111.34824083736501, 26.117316562808657], [-111.3482427456386, 26.11796041920498], [-111.34880532977918, 26.11880178846453], [-111.34862013465529, 26.119307873956878], [-111.3489955297975, 26.119981148984603], [-111.34899753250812, 26.120655327381854], [-111.3503079391641, 26.121831969442358], [-111.35062317776958, 26.12236716279033], [-111.35096299115403, 26.122366335852973], [-111.35065729099796, 26.124414905924915], [-111.35100363064709, 26.12472587689849], [-111.35200117426565, 26.124891989982], [-111.35259327008605, 26.12435458333897], [-111.35296465265277, 26.123679491688176], [-111.3529632244473, 26.12320418059084], [-111.35352247940587, 26.122919669070715], [-111.35352180982044, 26.122697174648952], [-111.35386162405337, 26.12269634086886], [-111.35460690383397, 26.12218887232093], [-111.35510349285515, 26.12218764988126], [-111.35585182730316, 26.122691441551886], [-111.3565650443826, 26.122689679125422], [-111.35675608648495, 26.124118449038935], [-111.35638370173012, 26.124456461478793], [-111.35639383799491, 26.127797025816044], [-111.35594254036839, 26.127983545557754], [-111.35602204351153, 26.128333903801398], [-111.35564964340817, 26.12867191430724], [-111.35565057240996, 26.128978680631622], [-111.35540409581331, 26.128979288636817], [-111.35490534612956, 26.129516476729936], [-111.35491010388039, 26.131090720380264], [-111.35541210441404, 26.131625442156423], [-111.35565858656445, 26.131624834080505], [-111.35566155773786, 26.13260577707391], [-111.35603703647723, 26.133279031673524], [-111.35604214740385, 26.134964473158075], [-111.35641712436036, 26.13546918233763], [-111.35641917105664, 26.136143358746025], [-111.35679364122058, 26.136479522728916], [-111.35679671467226, 26.137490787134436], [-111.35717426713859, 26.138838214192475], [-111.35754926151006, 26.139342919976663], [-111.35755080166427, 26.139848551954493], [-111.35829977445272, 26.14052087237004], [-111.35830080342629, 26.140857960276396], [-111.35867529412853, 26.14119411893768], [-111.35886614756171, 26.142542005281488], [-111.35942841113432, 26.143214784338355], [-111.35961772740048, 26.144057037650715], [-111.36021317348522, 26.144591507844467], [-111.36077338213764, 26.144590106037494], [-111.36223878546912, 26.14624155726286], [-111.36224016927756, 26.146689843348444], [-111.36130958533909, 26.14770345063412], [-111.36112491901987, 26.148378093806933], [-111.36059974919431, 26.14885472211281], [-111.35948032384854, 26.1491946100934], [-111.35907454018222, 26.149620380176337], [-111.35944983588517, 26.15020935167247], [-111.36001094019012, 26.150491090228105], [-111.35998054149532, 26.150937805996072], [-111.36076249372113, 26.15197579215063], [-111.36095209376865, 26.152902314249353], [-111.36188844052258, 26.153742689170667], [-111.3624559836176, 26.156100889994736], [-111.3632056110299, 26.156941725496864], [-111.3632090035035, 26.158037258043745], [-111.36424184877511, 26.15865487840126], [-111.36535977469373, 26.157809322809477], [-111.36600967213427, 26.157807672568495], [-111.36601168135883, 26.158451524096186], [-111.36619896576376, 26.158619592708416], [-111.36620457566504, 26.160416224703237], [-111.366019297832, 26.160892007479564], [-111.36549261139132, 26.16089334523048], [-111.36512013675153, 26.16123137948951], [-111.3642797049556, 26.16123350799017], [-111.36378086108714, 26.16177072541825], [-111.36341403046147, 26.163932409915073], [-111.36251379628035, 26.16393467918441], [-111.36232755011184, 26.16410369260549], [-111.36189205129003, 26.163991847163405], [-111.36154819012587, 26.164530408681088], [-111.36198935823663, 26.165262469373147], [-111.36248420769708, 26.165232556113853], [-111.36248567714675, 26.165707863942643], [-111.36304755216153, 26.166212082064348], [-111.36323902235966, 26.16772850021952], [-111.3636473096827, 26.168094880918325], [-111.3651420230718, 26.168259642351355], [-111.36551662165274, 26.168595780822827], [-111.36604334269109, 26.168594442619344], [-111.36604482678844, 26.169069750037636], [-111.36698186784409, 26.17007863131758], [-111.3669843265499, 26.170864001858938], [-111.36642610022409, 26.171539601492622], [-111.36642786012277, 26.172102575630873], [-111.36792527347465, 26.17311002264033], [-111.36849144671342, 26.174962562197607], [-111.36908709152816, 26.17549699132207], [-111.36946066202847, 26.175496032973964], [-111.37039618622536, 26.17599926157843], [-111.3718947531045, 26.177343751552133], [-111.37245511749964, 26.17734230264217], [-111.37279606519554, 26.177648186193608], [-111.37279767373748, 26.17815381462026], [-111.37335965295097, 26.178657990512388], [-111.37336233805026, 26.179500704364564], [-111.37373860903712, 26.18034244850147], [-111.37542622523546, 26.182360585358037], [-111.3753954357713, 26.182669081162672], [-111.37598931782844, 26.18320183560537], [-111.37711661255604, 26.185221414047728], [-111.37711769770236, 26.18555849914762], [-111.37749238618, 26.185894604679685], [-111.37749401557689, 26.186400232254357], [-111.37805768668916, 26.187410016052326]], [[-111.36090830850114, 26.146553313972987], [-111.36087567485296, 26.146271905321832], [-111.36034225278823, 26.145877159642513], [-111.35947051355492, 26.145992278465535], [-111.35906456531255, 26.146360703425287], [-111.35956682649454, 26.146952753884797], [-111.36056405287147, 26.146950261334187], [-111.36090830850114, 26.146553313972987]]]}}]}
