{"type": "FeatureCollection", "features": [{"type": "Feature", "properties": {"uga": "88b", "politica": "aprovechamiento-sustentable", "procedencia": {"metodo": "digitalizacion-semiautomatica", "fuente": "Mapa de ubicación de la ficha UGA 88b, Boletín Oficial No. 12 (12-mar-2014), p. 466 del PDF", "datum": "UTM 12N con desplazamiento de +30 m E y +165 m N ajustado contra la costa (INC-011)", "correccion_borde_px": 1.4, "precision_aprox_m": 46.0, "escala_por_superficie": true, "revisada_en_qgis": false}, "control": {"residuo_georreferencia_m": 0.0, "area_digitalizada_ha": 202.52, "escala_por_superficie": true, "superficie_ficha_ha": 201.79, "diferencia_area_pct": 0.4}}, "geometry": {"type": "Polygon", "coordinates": [[[-111.36280037707185, 26.80773841104838], [-111.36281013934084, 26.810805568071938], [-111.3623471234745, 26.811852873827473], [-111.36235631667007, 26.814744346000314], [-111.35143949731362, 26.814981094664827], [-111.34883973292418, 26.81732662876961], [-111.34814465426055, 26.818792907913117], [-111.34744700578851, 26.81942229406443], [-111.34744880507475, 26.820012322269992], [-111.34687051742131, 26.820013740716234], [-111.34640286517028, 26.81959643817729], [-111.34597843731514, 26.81959747631332], [-111.34597759863428, 26.819321281603273], [-111.34527696766152, 26.81897151737398], [-111.34527581370168, 26.818590711396183], [-111.34476610926677, 26.818135866669913], [-111.34434168677876, 26.81813689984592], [-111.3443405359863, 26.817756093785626], [-111.34359702359644, 26.817092589288897], [-111.3427802497766, 26.816885345564643], [-111.33962353941462, 26.81396381672457], [-111.33787222455521, 26.81313111072524], [-111.33670325321027, 26.8120877745888], [-111.33511113706297, 26.81146387946524], [-111.33510838132867, 26.810526582038108], [-111.33557349115227, 26.810107031579577], [-111.33557225924436, 26.80968858574828], [-111.3362699150327, 26.809059257201525], [-111.3371965088461, 26.807002448456842], [-111.33785343374083, 26.806791657933516], [-111.33940625326706, 26.806787943962156], [-111.34104277652517, 26.808248581986533], [-111.34150910867758, 26.808247457874284], [-111.34291125192023, 26.809290190270534], [-111.34361138708778, 26.809497716989632], [-111.34442747705954, 26.809495733894064], [-111.34512824965529, 26.809912475780255], [-111.34668457563782, 26.810258098720762], [-111.35057175533177, 26.810317548998064], [-111.35080428148768, 26.810107748827736], [-111.35134797534798, 26.81024660185363], [-111.35262943887567, 26.80992957948392], [-111.3529015124853, 26.80968408813871], [-111.35383418733215, 26.80968176014239], [-111.35453239190613, 26.80926156509395], [-111.35569823091942, 26.809258640750866], [-111.35662893827038, 26.808628626932027], [-111.35767753083596, 26.80841675750881], [-111.36058416393989, 26.805898694843698], [-111.36097116373337, 26.80589770871527], [-111.36167130977361, 26.806105146103338], [-111.36233072310075, 26.806693493282964], [-111.36280037707185, 26.80773841104838]], [[-111.35170789178228, 26.81201990762445], [-111.35115809680933, 26.81142498376695], [-111.34967973698372, 26.811428643184765], [-111.34924987467686, 26.81192138107634], [-111.34995666444624, 26.8127607376745], [-111.3511617711627, 26.812617552075707], [-111.35170789178228, 26.81201990762445]]]}}]}
