{"type": "FeatureCollection", "features": [{"type": "Feature", "properties": {"uga": "88c", "politica": "aprovechamiento-sustentable", "procedencia": {"metodo": "digitalizacion-semiautomatica", "fuente": "Mapa de ubicación de la ficha UGA 88c, Boletín Oficial No. 12 (12-mar-2014), p. 469 del PDF", "datum": "UTM 12N con desplazamiento de +30 m E y +170 m N ajustado contra la costa (INC-011)", "correccion_borde_px": 1.4, "precision_aprox_m": 22.0, "escala_por_superficie": false, "revisada_en_qgis": false}, "control": {"residuo_georreferencia_m": 8.7, "area_digitalizada_ha": 299.66, "escala_por_superficie": false, "superficie_ficha_ha": 193.88, "diferencia_area_pct": 54.6}, "georreferencia": {"a_x": 11.235955051971553, "b_x": 470657.0828991709, "a_y": -11.249192210368957, "b_y": 2850112.2696720418, "factor_render": 1, "pagina_mapa": 469, "ficha_mapa": "88c"}}, "geometry": {"type": "Polygon", "coordinates": [[[-111.27958965190405, 25.7540390851475], [-111.27958827246911, 25.75344991608223], [-111.2794110187095, 25.75328988636567], [-111.27969908356982, 25.75292580068745], [-111.27969626610103, 25.751722825809672], [-111.27935801792425, 25.750809242815084], [-111.27855162070871, 25.749979813061824], [-111.27776643119483, 25.74957498727226], [-111.27754236207534, 25.74957541448547], [-111.27731782123682, 25.749372679448815], [-111.2768898927026, 25.74937349372077], [-111.27688946419957, 25.749188655163714], [-111.27664467385017, 25.748967634123787], [-111.276373495717, 25.748925523608698], [-111.27626169670712, 25.74902731715039], [-111.27585973199281, 25.74866437886544], [-111.27485049344718, 25.748259961394293], [-111.27463498383811, 25.748065370398578], [-111.27446728420614, 25.748218058703312], [-111.27372899590917, 25.747754166461238], [-111.27316883144974, 25.74775521824841], [-111.27227117898337, 25.747147410483297], [-111.27036478980857, 25.746338310228477], [-111.27014026718278, 25.746135563887165], [-111.26980417296475, 25.746136186899566], [-111.26834525449951, 25.745021485745283], [-111.26756035930262, 25.74471818521295], [-111.26666389172664, 25.744618247785997], [-111.26655163506202, 25.74451687174565], [-111.2658794555252, 25.7445181003604], [-111.26554268836716, 25.744213970135068], [-111.26487051047951, 25.74421519408008], [-111.26442194219258, 25.744012846048285], [-111.26363773590187, 25.74401426763792], [-111.26341322899923, 25.743811510736943], [-111.26128400585591, 25.743510601241493], [-111.2601630519438, 25.743207863075693], [-111.25736211401777, 25.74311125754821], [-111.25691356239304, 25.74290888623148], [-111.25637619470378, 25.742909833082425], [-111.25838553237365, 25.740775396245994], [-111.25894324324469, 25.739657007988036], [-111.25916685345923, 25.73945344705026], [-111.2596114233195, 25.737827349094655], [-111.25972057700993, 25.73650659288658], [-111.2598323786224, 25.736404811847805], [-111.25960461745676, 25.734694325161858], [-111.25949237613243, 25.734592943424094], [-111.25953833599073, 25.734026164197402], [-111.25942609535494, 25.733924782394023], [-111.26248803252415, 25.73062821758208], [-111.26315991049448, 25.730525423891674], [-111.26360752980898, 25.73032145126909], [-111.2643916462524, 25.73032003054417], [-111.26495127909797, 25.73011585050654], [-111.26551136125366, 25.73011483097588], [-111.26568803317826, 25.72995397100176], [-111.2658654187063, 25.730114185366155], [-111.26607144337906, 25.730113809292348], [-111.26635990447127, 25.7298511625973], [-111.26676155006172, 25.730112547461637], [-111.26707739357303, 25.73011196886492], [-111.26707780654014, 25.73029680805702], [-111.26781623108893, 25.730963731770743], [-111.26764854645295, 25.731116412460647], [-111.26808868956273, 25.731513932103425], [-111.26808914521537, 25.731717094663107], [-111.26921252724732, 25.733137166834652], [-111.26999872702045, 25.73404994692576], [-111.2705802251007, 25.73457509983435], [-111.27078405974609, 25.734574721117045], [-111.27078493882894, 25.73496272256356], [-111.27563239495161, 25.73944154506703], [-111.27605772112896, 25.739440739644948], [-111.27578960780717, 25.739684875872808], [-111.27601651497802, 25.739889769370876], [-111.27612830572556, 25.739787975958215], [-111.2777646493774, 25.74106279925708], [-111.27798870252637, 25.74106237183307], [-111.28000851350662, 25.74248064402314], [-111.28023256927148, 25.74248021312567], [-111.28315059029433, 25.744709361739826], [-111.2846093995597, 25.745722332584194], [-111.28481325297898, 25.745721934078333], [-111.2849269743394, 25.746430453964773], [-111.28414710305145, 25.748260442698285], [-111.28258200180825, 25.749685627321448], [-111.28224709822216, 25.750194183644666], [-111.28224781839829, 25.750498926337215], [-111.28191291113609, 25.751007481866157], [-111.28157915535805, 25.752005617684233], [-111.28137529115693, 25.752006011752655], [-111.2810197315499, 25.752329765827266], [-111.28102020962372, 25.752532927585623], [-111.27958965190405, 25.7540390851475]], [[-111.2681125773521, 25.741182466772052], [-111.26840320966835, 25.740816070539083], [-111.26811093543886, 25.74045074779094], [-111.26768084078897, 25.74045153879417], [-111.26721325141337, 25.740775465522248], [-111.26745819911318, 25.741082088221724], [-111.2681125773521, 25.741182466772052]]]}}]}
