{"type": "FeatureCollection", "features": [{"type": "Feature", "properties": {"uga": "88d", "politica": "aprovechamiento-sustentable", "procedencia": {"metodo": "digitalizacion-semiautomatica", "fuente": "Mapa de ubicación de la ficha UGA 88d, Boletín Oficial No. 12 (12-mar-2014), p. 472 del PDF", "datum": "UTM 12N con desplazamiento de +30 m E y +170 m N ajustado contra la costa (INC-011)", "correccion_borde_px": 1.4, "precision_aprox_m": 25.0, "escala_por_superficie": false, "revisada_en_qgis": false}, "control": {"residuo_georreferencia_m": 9.0, "area_digitalizada_ha": 197.11, "escala_por_superficie": false, "superficie_ficha_ha": 133.85, "diferencia_area_pct": 47.3}, "georreferencia": {"a_x": 6.2111801233812765, "b_x": 481360.24844867375, "a_y": -6.194136127500817, "b_y": 2830626.6005954, "factor_render": 2, "pagina_mapa": 472, "ficha_mapa": "88d"}}, "geometry": {"type": "Polygon", "coordinates": [[[-111.17993569653315, 25.570865858946377], [-111.18045072975157, 25.570286716368393], [-111.18065573507472, 25.570286463463248], [-111.18100513920491, 25.570601644245066], [-111.18088271706124, 25.571439312434514], [-111.1806574653364, 25.571439590659416], [-111.18038835717402, 25.571683663221513], [-111.18038866244605, 25.57188740467087], [-111.18016340987671, 25.571887682139895], [-111.17942231979146, 25.572559816219172], [-111.17917495492823, 25.572560119280073], [-111.17841177366779, 25.573252274657285], [-111.17841207561604, 25.57345601608508], [-111.17818682008732, 25.57345629052751], [-111.17732235482127, 25.574352305253996], [-111.17705298657518, 25.574428566084233], [-111.17705336851004, 25.574688242684203], [-111.17658074138667, 25.57468881374662], [-111.17596280877495, 25.575025169815046], [-111.17522069883638, 25.575026060280827], [-111.17460259839429, 25.57525054023522], [-111.17336703504817, 25.576146973857384], [-111.1731408136453, 25.57612808638463], [-111.17297434716946, 25.576483050272365], [-111.17256355614991, 25.5764835352807], [-111.17235639520457, 25.576819391130073], [-111.1720692898807, 25.57681972901859], [-111.17186191593436, 25.577007777954254], [-111.17171795245618, 25.57730634772191], [-111.17211038336468, 25.577772093238334], [-111.1721108632778, 25.578107704315773], [-111.17260625772599, 25.57855460293956], [-111.17285427766747, 25.57900179228558], [-111.17285470589619, 25.579299954662847], [-111.17260780842568, 25.579635857692864], [-111.1715178005351, 25.580400233731392], [-111.1711467289118, 25.58040066824873], [-111.17040521925821, 25.580849015772532], [-111.16927298529833, 25.581185941589535], [-111.16883928076835, 25.58062709014293], [-111.16818078125439, 25.58040410749094], [-111.16818049653318, 25.58020036614607], [-111.16642452560292, 25.578616186957927], [-111.16619926027514, 25.578616442996907], [-111.16619866997358, 25.578188960805903], [-111.16557915115807, 25.577406569145822], [-111.16557607340897, 25.575169160702593], [-111.16532839570829, 25.57494569950158], [-111.16532808841691, 25.574721958609974], [-111.16483227716095, 25.573939423517828], [-111.16379854963283, 25.573230205618202], [-111.1634708151054, 25.573249727399208], [-111.16347053844653, 25.57304598580644], [-111.16295306240261, 25.572579080883994], [-111.16233419706462, 25.5722441566609], [-111.16208683262916, 25.572244430835415], [-111.16109632699809, 25.57146242974744], [-111.16072528273011, 25.571462837702395], [-111.1604776216509, 25.57123936809758], [-111.15961140833339, 25.57090470325616], [-111.15924036575723, 25.57090510743824], [-111.15874519980703, 25.570570033249616], [-111.15825033068516, 25.570458698464417], [-111.15787884937976, 25.570123487520007], [-111.15750780917992, 25.57012388729831], [-111.1569109623294, 25.56969704491846], [-111.15691071955439, 25.569510752484543], [-111.15703398737311, 25.569195007499086], [-111.1574047792074, 25.56900680368132], [-111.15740443974421, 25.56874712661867], [-111.15762968670309, 25.568746884206337], [-111.1580621214261, 25.568410805624843], [-111.15876362475166, 25.567774757858423], [-111.15876342987359, 25.567626951362367], [-111.15911235221586, 25.567626572474445], [-111.15987568383781, 25.566990452123623], [-111.15987548760161, 25.566842645619754], [-111.16071866644647, 25.566506109938196], [-111.16135838173918, 25.565926052878144], [-111.16135818369251, 25.56577824636354], [-111.16158342505457, 25.565777997893388], [-111.16207752511642, 25.565329968533124], [-111.16232487534762, 25.56532969444324], [-111.16318969157723, 25.564657508187626], [-111.1634368885951, 25.564545361612282], [-111.16372499999733, 25.564620130385638], [-111.16417862938025, 25.56432078999867], [-111.16442597751276, 25.564320512368504], [-111.16590821693123, 25.56297639044853], [-111.16623688264158, 25.562976017584703], [-111.16683403880289, 25.563626563550628], [-111.16683450370888, 25.563962175368587], [-111.16720645665617, 25.56463297561756], [-111.16720707794438, 25.56508045796805], [-111.16745473870832, 25.565303916374923], [-111.1678269331501, 25.56614252073528], [-111.16855088349197, 25.56646052049334], [-111.16885999564727, 25.566404228850594], [-111.16927386266714, 25.566084919217403], [-111.1692734190304, 25.56576930692445], [-111.16972661365025, 25.56550631684317], [-111.16970562457689, 25.565301324068283], [-111.1704462498115, 25.56429362674723], [-111.17069264648353, 25.56362211503946], [-111.17069201228553, 25.563174632680443], [-111.1710622363787, 25.56261484661112], [-111.17106191860556, 25.562391105408572], [-111.17165756039086, 25.56196292443179], [-111.17233512893554, 25.56196212834907], [-111.17233568700475, 25.562352162633704], [-111.17184195669307, 25.563023967728505], [-111.17159556764418, 25.563695481386443], [-111.17159705555692, 25.56473976524423], [-111.17184488334748, 25.565075086754195], [-111.17184552188327, 25.56552256896999], [-111.17196935688658, 25.565634294272204], [-111.17160048286374, 25.567144981973808], [-111.17187029462785, 25.56738840623867], [-111.17240735714604, 25.567387774619192], [-111.17290158390858, 25.56705157951183], [-111.17357901978181, 25.566938907005007], [-111.17357979724673, 25.56747826020043], [-111.17370363587241, 25.567589983986753], [-111.17358135591944, 25.568559516534595], [-111.17222249400828, 25.56967982859539], [-111.17209982743921, 25.570388645638147], [-111.17247231048516, 25.57139504304554], [-111.17336134665928, 25.572197086493702], [-111.17476453001389, 25.5724191588374], [-111.17513525147866, 25.572194974419045], [-111.17600102604673, 25.572193935788874], [-111.17699015371056, 25.571969001672343], [-111.17736086961388, 25.57174481163166], [-111.17785559603499, 25.57174421124206], [-111.17859685587702, 25.571183955425887], [-111.17909157996014, 25.57118335087048], [-111.17933860871958, 25.5709593071243], [-111.17993569653315, 25.570865858946377]], [[-111.16769399537634, 25.571270001126067], [-111.16750593280675, 25.570988596049684], [-111.16674254145227, 25.570896752436735], [-111.16647340612663, 25.571140799569804], [-111.16639127686038, 25.571439294012688], [-111.16661989675373, 25.57164556368292], [-111.16750687208834, 25.57166370650763], [-111.16769399537634, 25.571270001126067]]]}}]}
