{"type": "FeatureCollection", "features": [{"type": "Feature", "properties": {"uga": "88e", "politica": "aprovechamiento-sustentable", "procedencia": {"metodo": "digitalizacion-semiautomatica", "fuente": "Mapa de ubicación de la ficha UGA 88e, Boletín Oficial No. 12 (12-mar-2014), p. 475 del PDF", "datum": "UTM 12N con desplazamiento de +30 m E y +170 m N ajustado contra la costa (INC-011)", "correccion_borde_px": 1.4, "precision_aprox_m": 31.0, "escala_por_superficie": false, "revisada_en_qgis": false}, "control": {"residuo_georreferencia_m": 14.2, "area_digitalizada_ha": 212.54, "escala_por_superficie": false, "superficie_ficha_ha": 30.12, "diferencia_area_pct": 605.6}, "georreferencia": {"a_x": 15.474120784577257, "b_x": 494070.8629542367, "a_y": -15.477447312839004, "b_y": 2818394.497670149, "factor_render": 1, "pagina_mapa": 475, "ficha_mapa": "88e"}}, "geometry": {"type": "Polygon", "coordinates": [[[-111.03075585209663, 25.463429007970458], [-111.02952750408302, 25.46342926018417], [-111.02952744199742, 25.463174877943654], [-111.02888388441855, 25.4625907713151], [-111.02780635974825, 25.462451209872142], [-111.02574034313596, 25.460995186540238], [-111.02475218017146, 25.46119383099794], [-111.02367489147382, 25.462172395286974], [-111.02318848617804, 25.462172472923534], [-111.02198457659954, 25.461079658726646], [-111.02213837485169, 25.460383669245086], [-111.02288026748413, 25.460243785954614], [-111.02380367716488, 25.459544791392297], [-111.02426544807545, 25.459544715796966], [-111.02481641875639, 25.459184020035973], [-111.02497037077607, 25.459323763493288], [-111.0253428549797, 25.459264994654557], [-111.02583223414179, 25.458820443948454], [-111.02629382005887, 25.45798174455127], [-111.02629357710869, 25.456863587837365], [-111.02660129466405, 25.456304453966933], [-111.02660080313336, 25.454068139863523], [-111.02712713928541, 25.453589987468693], [-111.02690848605276, 25.453391510914674], [-111.02690829961766, 25.452552892875126], [-111.0266003779872, 25.452133639903998], [-111.02660028584118, 25.45171433082331], [-111.0252148298395, 25.45059641753594], [-111.02536841990164, 25.449058923944897], [-111.02506054143355, 25.448779437290792], [-111.02506048356746, 25.44849989777524], [-111.0245986411991, 25.44794089677475], [-111.02444459121561, 25.44724207358113], [-111.02413671950258, 25.446962584916157], [-111.02413663648473, 25.44654615684004], [-111.02457065650758, 25.4465460848709], [-111.0250322911345, 25.44612669749539], [-111.025494010853, 25.44612661807475], [-111.02610957685994, 25.44584697030841], [-111.02764860709439, 25.4457069188327], [-111.02780248103618, 25.44556711996739], [-111.02921225472745, 25.44556684633526], [-111.02936619448298, 25.445706585453316], [-111.03044353671181, 25.445706366093127], [-111.03096994808676, 25.445904730967356], [-111.03112381844102, 25.44576492862934], [-111.03136704531684, 25.44598571138696], [-111.03213661433935, 25.446125314820698], [-111.0341376360733, 25.4469634821173], [-111.03672703503281, 25.44917401687292], [-111.03826706717754, 25.452108787635893], [-111.03842142500247, 25.45350644404905], [-111.0385753854843, 25.453646173340697], [-111.03857597171493, 25.455485453915934], [-111.0384220976356, 25.455625263881284], [-111.03842236388121, 25.456463881473407], [-111.03811487665493, 25.45758211835211], [-111.03765341772511, 25.458560624428642], [-111.03611481979284, 25.460657554131412], [-111.03444973970522, 25.462030492714714], [-111.03214113494874, 25.46314917224497], [-111.03090974495647, 25.463289206169392], [-111.03075585209663, 25.463429007970458]], [[-111.03351482970032, 25.454217631915572], [-111.03303752287259, 25.453784412098226], [-111.0321386477236, 25.453784611587572], [-111.03180319223286, 25.454089380678774], [-111.03180325983338, 25.454346644533263], [-111.03229283255014, 25.454791003350024], [-111.03303779759395, 25.454790837621765], [-111.03351482970032, 25.454217631915572]]]}}]}
