{"type": "FeatureCollection", "features": [{"type": "Feature", "properties": {"uga": "88f", "politica": "aprovechamiento-sustentable", "procedencia": {"metodo": "digitalizacion-semiautomatica", "fuente": "Mapa de ubicación de la ficha UGA 88f, Boletín Oficial No. 12 (12-mar-2014), p. 478 del PDF", "datum": "UTM 12N con desplazamiento de +30 m E y +170 m N ajustado contra la costa (INC-011)", "correccion_borde_px": 1.4, "precision_aprox_m": 25.0, "escala_por_superficie": false, "revisada_en_qgis": false}, "control": {"residuo_georreferencia_m": 14.0, "area_digitalizada_ha": 201.38, "escala_por_superficie": false, "superficie_ficha_ha": 212.69, "diferencia_area_pct": -5.3}, "georreferencia": {"a_x": 12.459235069576156, "b_x": 498642.4625135681, "a_y": -12.387413399478756, "b_y": 2808258.728437873, "factor_render": 1, "pagina_mapa": 478, "ficha_mapa": "88f"}}, "geometry": {"type": "Polygon", "coordinates": [[[-111.00236905661227, 25.379963257836415], [-111.00086361911106, 25.379963274373075], [-111.00013010469378, 25.379748217551196], [-111.0000158544468, 25.37985141077706], [-110.99963469459183, 25.379748217155253], [-110.99944891504214, 25.37991601577274], [-110.99925353480366, 25.37973954275332], [-110.99863427222056, 25.379739538308762], [-110.99851042107612, 25.37962767097423], [-110.99801500963765, 25.379739531258053], [-110.9978911590637, 25.37962766340233], [-110.99677649041153, 25.37951577707101], [-110.99628109496147, 25.37906830082976], [-110.99548567449807, 25.378685420032927], [-110.99419482359404, 25.37895636717119], [-110.9938040640376, 25.378956351236578], [-110.99357835875766, 25.378752468847253], [-110.99370232727499, 25.37649598893415], [-110.994321599466, 25.375936683206344], [-110.99443486603246, 25.37538693756474], [-110.99424910186104, 25.37521913112397], [-110.99444549326878, 25.37494905416204], [-110.99308325213921, 25.373494735641724], [-110.99256590976228, 25.373027385906248], [-110.99234020472056, 25.373027374332366], [-110.99234021757589, 25.372823501456498], [-110.99169904357355, 25.372244275890996], [-110.99010827268539, 25.37213231132748], [-110.9893651747591, 25.37246785824037], [-110.98847905568374, 25.372467791542938], [-110.98738649200598, 25.37192823033262], [-110.98738651523603, 25.371704497833047], [-110.98713885028076, 25.37148074389132], [-110.98713895889244, 25.37045478551621], [-110.98738667982799, 25.370119208131495], [-110.98738672422155, 25.369691602617454], [-110.98761242306247, 25.36969162178559], [-110.98788211759299, 25.369448052063852], [-110.98825372832388, 25.36857231385685], [-110.98786026613753, 25.36810495711125], [-110.98736492679689, 25.367881182807572], [-110.98563118733396, 25.367657291152334], [-110.98503405191654, 25.367005893349926], [-110.98503410702897, 25.366558428049174], [-110.98483776411051, 25.366381027447424], [-110.98496161684825, 25.366269173818967], [-110.98491058982718, 25.3639663273708], [-110.98526016632802, 25.363538756914764], [-110.98570322722192, 25.363250461682696], [-110.98582704987935, 25.36336234003527], [-110.98669397409112, 25.36269122263975], [-110.9868177970915, 25.362803100167657], [-110.98786086753944, 25.36208473129703], [-110.98835621632406, 25.361972904908136], [-110.98885159498153, 25.361525477637855], [-110.98984231330776, 25.360966217266128], [-110.99008998006366, 25.360966234145383], [-110.99058534823644, 25.360518800976898], [-110.99120452903884, 25.360295106419215], [-110.99157605038208, 25.3599595288572], [-110.99184291649003, 25.35995954388449], [-110.99214110188369, 25.360228947570317], [-110.9907169113259, 25.36173906127869], [-110.99097594051976, 25.36197308879523], [-110.99332878806703, 25.36208508061495], [-110.99370027422856, 25.362420696172194], [-110.99506243952275, 25.36286821372604], [-110.99543394547486, 25.36286822571734], [-110.99580544370525, 25.36309196954413], [-110.99628158399008, 25.36309198234056], [-110.99677693507265, 25.36275639485625], [-110.99727227839819, 25.362644538476598], [-110.99759147275006, 25.36235620507734], [-110.9977153054431, 25.36246807344656], [-110.99813913259086, 25.36208522000539], [-110.99863447067058, 25.36208522543316], [-110.99920132877428, 25.36179689061024], [-110.99939668008383, 25.36197336412861], [-110.99976818330182, 25.361973365182322], [-110.99999386780271, 25.362177238542916], [-110.9999938677566, 25.363091331713466], [-110.99813630884674, 25.36476931550166], [-110.99702173242673, 25.366447292372953], [-110.99652635098367, 25.36734221213401], [-110.9965263419373, 25.36765864906629], [-110.99665017905265, 25.367770518251312], [-110.99677398966449, 25.368889184070717], [-110.99778669221958, 25.369692126421672], [-110.99826285836832, 25.36969213281168], [-110.99927558703138, 25.36888921764038], [-110.9996471130176, 25.368329887493754], [-110.99977095491835, 25.367790415797305], [-111.00013969320663, 25.36779041590923], [-111.00048923012656, 25.368106154489343], [-111.00073692161547, 25.36978414789981], [-111.00098461178726, 25.370455344121005], [-111.00073693937475, 25.37271183270105], [-111.00036540736095, 25.37405422883675], [-110.99999386718633, 25.374389827938074], [-110.99999386716938, 25.37472542657059], [-110.99974617189471, 25.374949158764995], [-110.99949847385996, 25.37562035532802], [-110.9991269264995, 25.37595595216916], [-110.99895175554661, 25.376561634043664], [-110.99952045488575, 25.377075313374352], [-110.99989200428473, 25.37707531411608], [-111.00013970414142, 25.377299046431116], [-111.00075895497949, 25.3774109107086], [-111.00099705494851, 25.377625968654993], [-111.00118282885605, 25.377458168030838], [-111.00150205998116, 25.377746503494475], [-111.00236901555144, 25.377858358252798], [-111.00298827679906, 25.37819394545446], [-111.00335982961967, 25.378193937440162], [-111.00360753814584, 25.378417663883372], [-111.00408095930126, 25.378529517666696], [-111.00402965750884, 25.379022638158155], [-111.00415351311999, 25.379134500856196], [-111.00395713351153, 25.37931188647334], [-111.0039571401547, 25.379515759170786], [-111.00311217021333, 25.37985137786639], [-111.00249290706054, 25.379851389660853], [-111.00236905661227, 25.379963257836415]], [[-110.99294722317094, 25.370018899961813], [-110.99320730577476, 25.36978399300408], [-110.9932073172122, 25.3695794224514], [-110.99263766769613, 25.369176676419773], [-110.99206796937357, 25.369579365461522], [-110.9920679560177, 25.369783936013686], [-110.99232801014915, 25.370018868988442], [-110.99244225767696, 25.36991568159264], [-110.99294722317094, 25.370018899961813]]]}}]}
