{"type": "FeatureCollection", "features": [{"type": "Feature", "properties": {"uga": "89", "politica": "aprovechamiento-sustentable", "procedencia": {"metodo": "digitalizacion-semiautomatica", "fuente": "Mapa de ubicación de la ficha UGA 89, Boletín Oficial No. 12 (12-mar-2014), p. 481 del PDF", "datum": "UTM 12N con desplazamiento de +30 m E y +165 m N ajustado contra la costa (INC-011)", "correccion_borde_px": 1.4, "precision_aprox_m": 50.0, "escala_por_superficie": true, "revisada_en_qgis": false}, "control": {"residuo_georreferencia_m": 0.0, "area_digitalizada_ha": 446.94, "escala_por_superficie": true, "superficie_ficha_ha": 446.43, "diferencia_area_pct": 0.1}}, "geometry": {"type": "Polygon", "coordinates": [[[-110.98553022561525, 25.242624287092216], [-110.9852830159135, 25.244569456512373], [-110.9845419357754, 25.245692497916774], [-110.98454176525208, 25.24704023819059], [-110.98380072287264, 25.247714028829208], [-110.9838006388746, 25.248347489302688], [-110.98220015544229, 25.248571928410378], [-110.98145922722662, 25.2483472139433], [-110.979977489423, 25.2472239038317], [-110.97898955059557, 25.247223766604716], [-110.9780016926679, 25.24677437606715], [-110.97569472476445, 25.2472232611782], [-110.97367401894245, 25.24906031089304], [-110.97367392212634, 25.249509557442252], [-110.97268566349716, 25.25085711751068], [-110.9724384687196, 25.25175556446756], [-110.97165530800109, 25.252467494452286], [-110.97169722690323, 25.252878540217466], [-110.97050641917917, 25.25396101348979], [-110.96976542424433, 25.253960863640422], [-110.96927131459236, 25.254410007909076], [-110.96828331772649, 25.254409799016997], [-110.96519531547051, 25.25620608821407], [-110.96185986515086, 25.25912536353575], [-110.96148935204745, 25.259125267364546], [-110.96082720046913, 25.259727060012743], [-110.96082699723632, 25.260360519332465], [-110.96037741184433, 25.260360399367507], [-110.95934465462145, 25.26118670823704], [-110.95934455588122, 25.261483233121897], [-110.95815377189658, 25.26193214618842], [-110.9576151354577, 25.262421647700158], [-110.95761499351892, 25.262830483942075], [-110.95728890715847, 25.262830389966858], [-110.95539117618333, 25.264667220700964], [-110.95539092992895, 25.26534108895654], [-110.95464944879484, 25.266463976778322], [-110.95464816846182, 25.26990973365049], [-110.95617429374734, 25.271298339680964], [-110.95687095275696, 25.271298544886932], [-110.9568708082681, 25.27170738063325], [-110.95765610417254, 25.272421885079613], [-110.95889105532747, 25.27309610184665], [-110.95958772462468, 25.273096294242674], [-110.95992099069763, 25.273808461219936], [-110.96037305850813, 25.273770374770095], [-110.96279846474184, 25.27552757665004], [-110.96403327713077, 25.276875617449512], [-110.96378580041562, 25.278331087443892], [-110.96308910119326, 25.27833091483005], [-110.96234781971079, 25.27877997231255], [-110.96169079110031, 25.278555180839074], [-110.96070252650505, 25.278779543349987], [-110.95897348908929, 25.277880583274133], [-110.95823234903128, 25.277880375372334], [-110.95749136551127, 25.27743091900216], [-110.95551508126675, 25.277205714109076], [-110.9550211562702, 25.276756319573632], [-110.95353897543815, 25.276531237976847], [-110.9491745890979, 25.274357677710757], [-110.94810486892341, 25.274507825202072], [-110.94662282654481, 25.274058051694922], [-110.9461289470754, 25.273608627277785], [-110.94543227498959, 25.27360837134955], [-110.9454324578148, 25.27319953577843], [-110.94469165176572, 25.272525392491392], [-110.94469192254826, 25.271927942033233], [-110.9454334280539, 25.271029727792936], [-110.94543382978472, 25.270131237599983], [-110.94592819024366, 25.26945755169151], [-110.94617621040021, 25.267211415781922], [-110.94642333403937, 25.266986882985453], [-110.9464242548859, 25.264888861651585], [-110.94568389346429, 25.263316231631606], [-110.94568445908125, 25.26204491202223], [-110.94733262077021, 25.260771874805133], [-110.94692024884114, 25.260396584210365], [-110.94692063943803, 25.259498092701275], [-110.94667372810056, 25.2592733808041], [-110.94667423426165, 25.25811437194479], [-110.9471239883306, 25.257705697181528], [-110.94819343470508, 25.257856596357275], [-110.94910012850697, 25.25748176861141], [-110.94967556403638, 25.25763248594127], [-110.95107653145824, 25.256583944624968], [-110.95181754214296, 25.256584188273337], [-110.9532998212383, 25.255910795379396], [-110.9550288367085, 25.25591133206183], [-110.95749948425546, 25.25411507913573], [-110.95873462899968, 25.253666183199687], [-110.96071104404727, 25.252318983332437], [-110.96145202895056, 25.252319178602285], [-110.96244028512459, 25.25142094049356], [-110.9634282577532, 25.251421188450582], [-110.96416943490446, 25.25074750048234], [-110.96466341850316, 25.250747619500338], [-110.96693121491207, 25.24913537241098], [-110.96693132558421, 25.248726535366856], [-110.96767238860222, 25.248349354975957], [-110.96866065336799, 25.247114139692513], [-110.96866076860829, 25.246664893017478], [-110.9699381501023, 25.244829962763596], [-110.96989623985182, 25.24441891605905], [-110.97207496988061, 25.24288738936825], [-110.97643651495622, 25.2428881494728], [-110.97742433570996, 25.24333755068873], [-110.97874324197868, 25.243337746364748], [-110.98096617360555, 25.242439555575007], [-110.98318888715963, 25.24288907222945], [-110.9839299036323, 25.242215284207372], [-110.98483380861295, 25.24199075626005], [-110.98553022561525, 25.242624287092216]], [[-110.95412591583802, 25.25953871570181], [-110.95354568695954, 25.25889835888572], [-110.95296763775438, 25.258898175891822], [-110.95207804661952, 25.25981884391248], [-110.95354507164352, 25.260515643817882], [-110.95412574705213, 25.25998796151656], [-110.95412591583802, 25.25953871570181]], [[-110.95171750617799, 25.259706414990124], [-110.9515273522927, 25.259533370338918], [-110.9512752861856, 25.25976242545273], [-110.95146544006921, 25.259935470423198], [-110.95171750617799, 25.259706414990124]]]}}]}
