{"type": "FeatureCollection", "features": [{"type": "Feature", "properties": {"uga": "9", "politica": "preservacion", "procedencia": {"metodo": "digitalizacion-semiautomatica", "fuente": "Mapa de ubicación de la ficha UGA 9, Boletín Oficial No. 12 (12-mar-2014), p. 179 del PDF", "datum": "UTM 12N con desplazamiento de +30 m E y +165 m N ajustado contra la costa (INC-011)", "correccion_borde_px": 1.4, "precision_aprox_m": 75.0, "escala_por_superficie": true, "revisada_en_qgis": false}, "control": {"residuo_georreferencia_m": 0.0, "area_digitalizada_ha": 283.65, "escala_por_superficie": true, "superficie_ficha_ha": 285.11, "diferencia_area_pct": -0.5}}, "geometry": {"type": "MultiPolygon", "coordinates": [[[[-111.47004096991269, 26.478268961937406], [-111.46854539584847, 26.48166968302546], [-111.4662909152536, 26.48405412711615], [-111.46479106223902, 26.4864360808781], [-111.4578710359848, 26.492367142555672], [-111.45727269121197, 26.49183255801051], [-111.45658582478144, 26.491834756738385], [-111.45657377924861, 26.488785397223044], [-111.45732582877025, 26.488103828909516], [-111.4573233835938, 26.48748576586362], [-111.4580102241111, 26.487483563920836], [-111.45958192413018, 26.486059100499507], [-111.45957787436544, 26.485040371801794], [-111.46032988191239, 26.484358787853697], [-111.4603271778522, 26.48367963531448], [-111.46183115767555, 26.482316455702414], [-111.46182597648611, 26.481019239898192], [-111.46251277815409, 26.481017016794553], [-111.46439403576017, 26.479652587705626], [-111.46520900962916, 26.479649934792956], [-111.4670695555119, 26.480635470591306], [-111.46857959689567, 26.478925794129403], [-111.46709502699194, 26.477599467530265], [-111.4670881972688, 26.47590841191065], [-111.46777496807135, 26.47590616389656], [-111.46934501307852, 26.474142018049577], [-111.46933699387637, 26.472165649384163], [-111.47234652886831, 26.471816146499236], [-111.47325541195642, 26.472628131528413], [-111.47153784181324, 26.47520780089841], [-111.47154061070091, 26.475886953158238], [-111.47078872447945, 26.476568595353484], [-111.4707928714962, 26.47758732363475], [-111.47004096991269, 26.478268961937406]]], [[[-111.47490521948683, 26.41489369747205], [-111.47400344700894, 26.415711689129015], [-111.47249492991135, 26.41571668052026], [-111.4713752358797, 26.41673229963064], [-111.47136999050674, 26.415441899568098], [-111.47061297731172, 26.41476522524645], [-111.47060608733246, 26.4130673297252], [-111.469089363223, 26.41103480922643], [-111.46908524321833, 26.410016071207764], [-111.46832827909188, 26.40933938363042], [-111.46832553705748, 26.408660224732383], [-111.4660547112017, 26.4066301364649], [-111.46453815207175, 26.40459756370466], [-111.46453138138263, 26.402906490194596], [-111.46640924177127, 26.402900380919718], [-111.46716615223863, 26.403577079967576], [-111.46792033248224, 26.403574615409205], [-111.47239530021788, 26.407913410854704], [-111.472780708397, 26.409949640509968], [-111.47430303694485, 26.413340437425646], [-111.4743072033828, 26.41435917420367], [-111.47490521948683, 26.41489369747205]]], [[[-111.47452438729822, 26.467387549360474], [-111.47415265642182, 26.468747107763832], [-111.47415933688187, 26.47037707393667], [-111.47189479429645, 26.4683539141619], [-111.47120048460692, 26.468356206411908], [-111.46932842445277, 26.470053449571047], [-111.46932159202558, 26.46836921853843], [-111.47082526815892, 26.46700594532447], [-111.47232475048492, 26.464623926735328], [-111.47231920632866, 26.463265620162215], [-111.4730709982399, 26.46258396992405], [-111.47305711792885, 26.459188202401457], [-111.473808879341, 26.45850654830657], [-111.47380632136976, 26.4578816583111], [-111.47298089358952, 26.457144139970186], [-111.47153832285457, 26.45680932679746], [-111.47151091038019, 26.450078872757185], [-111.47075366671031, 26.449402205493932], [-111.47074681971814, 26.4477179699372], [-111.47445873482879, 26.451373178265385], [-111.47636591986792, 26.456460556648025], [-111.4763913013493, 26.46262720005608], [-111.47526921833179, 26.46500800568663], [-111.47527479753978, 26.466366311347528], [-111.47452438729822, 26.467387549360474]]], [[[-111.47210690013851, 26.42970196286778], [-111.46992864929918, 26.43201830237876], [-111.46992203953789, 26.43038832645888], [-111.46916493561797, 26.429711647074846], [-111.46915259179548, 26.42666226647061], [-111.46983907035622, 26.426660012411055], [-111.47065824620655, 26.425917061571965], [-111.47080921686826, 26.424075989804958], [-111.47043068217297, 26.423737652446707], [-111.471400142714, 26.42285836955149], [-111.47137970880928, 26.417832603892318], [-111.47320305900311, 26.41917809006431], [-111.47544999426502, 26.41713996398836], [-111.47509645952634, 26.42290040156397], [-111.47434771246432, 26.424261219489274], [-111.47435327094298, 26.4256195330776], [-111.47285293694587, 26.427662000230054], [-111.47210690013851, 26.42970196286778]]]]}}]}
