{"type": "FeatureCollection", "features": [{"type": "Feature", "properties": {"uga": "90", "politica": "aprovechamiento-sustentable", "procedencia": {"metodo": "digitalizacion-semiautomatica", "fuente": "Mapa de ubicación de la ficha UGA 90, Boletín Oficial No. 12 (12-mar-2014), p. 484 del PDF", "datum": "UTM 12N con desplazamiento de +30 m E y +170 m N ajustado contra la costa (INC-011)", "correccion_borde_px": 1.4, "precision_aprox_m": 35.0, "escala_por_superficie": false, "revisada_en_qgis": false}, "control": {"residuo_georreferencia_m": 10.7, "area_digitalizada_ha": 189.4, "escala_por_superficie": false, "superficie_ficha_ha": 191.11, "diferencia_area_pct": -0.9}, "georreferencia": {"a_x": 17.71591176769238, "b_x": 452194.88355497934, "a_y": -17.652261136409106, "b_y": 2924195.301226111, "factor_render": 1, "pagina_mapa": 484, "ficha_mapa": "90"}}, "geometry": {"type": "Polygon", "coordinates": [[[-111.46096492621429, 26.40016414037037], [-111.4600812806384, 26.400326369851435], [-111.45919127726596, 26.39985107239137], [-111.45651692180313, 26.397309461087527], [-111.45063944479516, 26.393184062869786], [-111.44957315812279, 26.393028030708113], [-111.44814672940598, 26.39159803236623], [-111.4477915110329, 26.39159914421958], [-111.44690162426437, 26.39112376823402], [-111.44586444281876, 26.39128638898839], [-111.4452304595618, 26.391699326905204], [-111.44494915240027, 26.39144862334984], [-111.44459393432926, 26.391449727261236], [-111.44426929479124, 26.391160401834462], [-111.44426614322465, 26.39033687375021], [-111.44479652261543, 26.38969768285172], [-111.44532445080361, 26.388420953951393], [-111.44812531399494, 26.386049861714504], [-111.44883510064241, 26.385888251903538], [-111.44918906835304, 26.38556836969065], [-111.44954426820735, 26.385567254604304], [-111.45043041296283, 26.385086311098764], [-111.45185120611401, 26.385081833219832], [-111.45238276159675, 26.38476138249178], [-111.45400900481577, 26.384756233796583], [-111.45418722678968, 26.38491505430551], [-111.45543041833439, 26.384911104329188], [-111.45560864246522, 26.385069923036564], [-111.45703006170926, 26.385224777599813], [-111.45827514317163, 26.38569895429458], [-111.46059026387722, 26.387285381159014], [-111.4609137799778, 26.387284339757564], [-111.46127203755063, 26.38805167611608], [-111.462519706047, 26.389163349619984], [-111.4627004872408, 26.38995969362766], [-111.46305760704337, 26.390436695601874], [-111.46305951427495, 26.390914846334468], [-111.46341663854045, 26.39139184729103], [-111.46360644774701, 26.39444616692653], [-111.46342947094804, 26.394606125689183], [-111.46343392561633, 26.395721809973107], [-111.46255474303153, 26.397956051546632], [-111.46096377292389, 26.39987381130602], [-111.46096492621429, 26.40016414037037]], [[-111.45544144930284, 26.391274001421234], [-111.45599009489119, 26.39077815870626], [-111.4559889473289, 26.390485999316205], [-111.45542244879394, 26.38998120763134], [-111.45509509282645, 26.389982248903696], [-111.45453308725219, 26.39062340761547], [-111.45544144930284, 26.391274001421234]]]}}]}
