{"type": "FeatureCollection", "features": [{"type": "Feature", "properties": {"uga": "91", "politica": "aprovechamiento-sustentable", "procedencia": {"metodo": "digitalizacion-semiautomatica", "fuente": "Mapa de ubicación de la ficha UGA 91, Boletín Oficial No. 12 (12-mar-2014), p. 487 del PDF", "datum": "UTM 12N con desplazamiento de +30 m E y +170 m N ajustado contra la costa (INC-011)", "correccion_borde_px": 1.4, "precision_aprox_m": 36.0, "escala_por_superficie": false, "revisada_en_qgis": false}, "control": {"residuo_georreferencia_m": 7.8, "area_digitalizada_ha": 1102.05, "escala_por_superficie": false, "superficie_ficha_ha": 0.01, "diferencia_area_pct": 11020371.7}}, "geometry": {"type": "Polygon", "coordinates": [[[-111.51360335371606, 26.181886269583543], [-111.51377207875882, 26.18203757298453], [-111.51378664468143, 26.18535893256927], [-111.51360637064408, 26.185824160494036], [-111.51254615175614, 26.185992723436694], [-111.51145515776817, 26.18665573646663], [-111.50781532555479, 26.18815167299369], [-111.50563394189, 26.18964240049269], [-111.50305859717172, 26.19198815142533], [-111.50305988498656, 26.192287948544084], [-111.50272817300363, 26.192289107963493], [-111.5012731232318, 26.19311809892724], [-111.50014978298495, 26.193122008338435], [-111.4996337629466, 26.192659216682006], [-111.49962381125219, 26.190326536146994], [-111.50016513890178, 26.18900639200599], [-111.5014335980161, 26.187189364854536], [-111.50197206687166, 26.1852100917028], [-111.5021467188617, 26.183422623687495], [-111.49903624781835, 26.180796913323984], [-111.49885183889334, 26.18030320314673], [-111.49884412222843, 26.178490614864106], [-111.49866112033655, 26.178326465791], [-111.4988270153932, 26.17781866401195], [-111.49829161469478, 26.17717426287155], [-111.4982867101953, 26.176020797053802], [-111.49792071629716, 26.17569249700051], [-111.4975512266646, 26.17454029153589], [-111.4966362625738, 26.17371953449085], [-111.49663416791043, 26.173225191658435], [-111.49590151185147, 26.17240380055034], [-111.49571225186396, 26.17075661829093], [-111.4947973304473, 26.16993584851933], [-111.4946122619283, 26.169277350578948], [-111.49406331912505, 26.16878488498643], [-111.49369389020566, 26.167632667664442], [-111.49296059727936, 26.16664647897218], [-111.49109851138994, 26.165140025785778], [-111.48948807099164, 26.165310293298823], [-111.48894260401003, 26.16564171394838], [-111.48836501952319, 26.16616778932407], [-111.48836903058948, 26.167130722878362], [-111.49074699012225, 26.169100039950756], [-111.49076089535316, 26.17242141725824], [-111.49039907016278, 26.173081784162758], [-111.49023528012599, 26.177505739484243], [-111.49060332822638, 26.17832840219019], [-111.49191801975033, 26.179671945506062], [-111.49224969655363, 26.17967081151476], [-111.49225095601547, 26.179970609640122], [-111.49280063758899, 26.180627861621073], [-111.49281044918962, 26.18296054771684], [-111.49245068209379, 26.184115261540082], [-111.49264050585067, 26.185901471955138], [-111.49282351146081, 26.18606562846342], [-111.49283471254182, 26.18872787417513], [-111.49203556453134, 26.189455654548773], [-111.49185255462827, 26.189291497175024], [-111.49032129223926, 26.190189744410105], [-111.48865380038556, 26.19170822880123], [-111.4883962302406, 26.19210818370882], [-111.48830152500828, 26.194675519343182], [-111.48775729209663, 26.195336497460595], [-111.48669887781828, 26.19596944986664], [-111.48451298451798, 26.196471177253216], [-111.48357193157652, 26.197328022687746], [-111.483393002811, 26.198152539037697], [-111.48266639330376, 26.198814110768993], [-111.48230715861007, 26.200133579469487], [-111.48231530552309, 26.202110947442012], [-111.48195470043, 26.20310085361106], [-111.48195944984045, 26.204254317912138], [-111.48159680136625, 26.2047498812499], [-111.48159951346133, 26.205409003614047], [-111.48141784819556, 26.205574394646618], [-111.48142259283217, 26.206727858642235], [-111.48124092529719, 26.206893249453007], [-111.48125041192117, 26.20920017689542], [-111.47983186743824, 26.21098776330803], [-111.47946716385773, 26.210988979727823], [-111.47910380963702, 26.211319756247256], [-111.47852734802404, 26.21132167563153], [-111.47816129660053, 26.210993327687596], [-111.4778295303703, 26.210994430433214], [-111.47782830613527, 26.210694632959196], [-111.47727856356266, 26.210037327304683], [-111.47727184296237, 26.20838952129667], [-111.47708882338412, 26.208225345694512], [-111.47708210599112, 26.206577539225634], [-111.47689908955171, 26.206413363298125], [-111.47689562744749, 26.205563705696935], [-111.47707729918444, 26.205398320288158], [-111.47688152895732, 26.20210331029607], [-111.47742383867845, 26.200948030311633], [-111.47742115062563, 26.200288907134862], [-111.47778447595772, 26.19995813476788], [-111.47778044104352, 26.198969449896012], [-111.47850707953036, 26.198307902462666], [-111.47868739043659, 26.197812953390688], [-111.47850381750145, 26.197509752516947], [-111.47849899829434, 26.19633053233783], [-111.47903934917213, 26.194706657479077], [-111.4782992746947, 26.19207258896229], [-111.47828234650108, 26.187927309315313], [-111.47871828837683, 26.187530379752694], [-111.47890127736407, 26.18769455416749], [-111.47919190362136, 26.18742993337242], [-111.47917852788477, 26.184160065793872], [-111.47881054047946, 26.18333737367052], [-111.47698007320655, 26.18153083422256], [-111.47624348173278, 26.179720655074775], [-111.47624013311905, 26.178896748521556], [-111.47605716175401, 26.17873257028207], [-111.47622315576044, 26.178224793204986], [-111.47568319391702, 26.176426836665318], [-111.47584274565698, 26.170823664802867], [-111.47510958092758, 26.169837383804587], [-111.4749239551658, 26.169014077424517], [-111.47426932165186, 26.16842661481287], [-111.47445094044751, 26.168261232609147], [-111.47401230994055, 26.167867604762822], [-111.47470408844376, 26.167865325519927], [-111.47561417535849, 26.167532754340947], [-111.47597740585871, 26.16720198636387], [-111.47634197331095, 26.167200780661883], [-111.47907084185793, 26.16587345619491], [-111.48344152159933, 26.164870144809502], [-111.48401912222637, 26.164344088869896], [-111.48419935992221, 26.16384913161652], [-111.48436938647389, 26.160882451516507], [-111.48506295467, 26.160250745844976], [-111.48651976874885, 26.159916263685382], [-111.48910096957353, 26.15990751993506], [-111.49111148212282, 26.161218947167928], [-111.49381550593651, 26.16104491597983], [-111.49672909217072, 26.16037576043027], [-111.49891215639876, 26.15937951174203], [-111.49945686398009, 26.15888327265438], [-111.50163917197504, 26.157722201967555], [-111.50364200015306, 26.157220860755448], [-111.50546467446722, 26.157214475027917], [-111.50655685545058, 26.156881070381306], [-111.50746818963316, 26.156877861994374], [-111.50775515776698, 26.15661638936374], [-111.50793813775414, 26.156780527679], [-111.50902959224203, 26.156282323394734], [-111.5101992472934, 26.157003232020024], [-111.51020283122173, 26.157827136856785], [-111.51049160909187, 26.15808616603535], [-111.51020509368776, 26.158347233936645], [-111.5102086778694, 26.15917113861888], [-111.50984771901896, 26.159996334341205], [-111.5098547710631, 26.161618389112544], [-111.51040517947594, 26.162440356209164], [-111.51042454698471, 26.166889437699478], [-111.51097498476773, 26.167711401594065], [-111.51097785761219, 26.168370524410886], [-111.5111608606774, 26.168534658026708], [-111.51154412639885, 26.17281765954374], [-111.51191230779808, 26.173640266333596], [-111.51282809751287, 26.174625705236718], [-111.51301255563519, 26.175119397162085], [-111.51302265441683, 26.177426323645047], [-111.5135717167123, 26.177918714588863], [-111.51375618338642, 26.178412405212846], [-111.51377074653351, 26.18173376647907], [-111.51360335371606, 26.181886269583543]]]}}]}
