{"type": "FeatureCollection", "features": [{"type": "Feature", "properties": {"uga": "92", "politica": "conservacion", "procedencia": {"metodo": "digitalizacion-semiautomatica", "fuente": "Mapa de ubicación de la ficha UGA 92, Boletín Oficial No. 12 (12-mar-2014), p. 490 del PDF", "datum": "UTM 12N con desplazamiento de +30 m E y +165 m N ajustado contra la costa (INC-011)", "correccion_borde_px": 1.4, "precision_aprox_m": 17.0, "escala_por_superficie": false, "revisada_en_qgis": false}, "control": {"residuo_georreferencia_m": 4.5, "area_digitalizada_ha": 101.87, "escala_por_superficie": false, "superficie_ficha_ha": 99.75, "diferencia_area_pct": 2.1}}, "geometry": {"type": "Polygon", "coordinates": [[[-111.56146747080139, 26.52817357681082], [-111.56121410353425, 26.5283019121474], [-111.56121502603422, 26.528491586078992], [-111.56096214526195, 26.528720194143876], [-111.56079503245884, 26.52917607756182], [-111.56029000209755, 26.529785030933795], [-111.56023493770826, 26.530063416576183], [-111.56038289477719, 26.53147906956011], [-111.56046792796528, 26.531554606353556], [-111.56047222816717, 26.532439799893815], [-111.56033360301325, 26.532946126867405], [-111.5603912481186, 26.53319882802657], [-111.56013982905495, 26.533730912795654], [-111.56014086849831, 26.53394499019718], [-111.55983177277344, 26.533933180757707], [-111.55922684434897, 26.53440380392405], [-111.55863527896916, 26.53463373586141], [-111.55829807981422, 26.534938540546925], [-111.55779117716166, 26.535168137476816], [-111.557017799343, 26.53594340224095], [-111.55684992844196, 26.536247541897797], [-111.55649869660131, 26.536565017909886], [-111.55651375269235, 26.53676641989013], [-111.556401850318, 26.53676685664446], [-111.55609193814782, 26.537085081113737], [-111.55584085659757, 26.53769302800242], [-111.5556722490932, 26.537845427201734], [-111.55559013791446, 26.538376843978604], [-111.55542152909095, 26.538529242887744], [-111.55542262515533, 26.538756851503727], [-111.55508723123891, 26.53944099642089], [-111.55508832668717, 26.539668605020683], [-111.55491971533367, 26.53982100334887], [-111.55492147546131, 26.5401868198171], [-111.55445798242835, 26.54026449419355], [-111.55411820419835, 26.540038202426857], [-111.55377952017781, 26.54003951846074], [-111.55335507307161, 26.539813553716975], [-111.5529317188122, 26.53981519635461], [-111.5519988868344, 26.53951532744549], [-111.55125158916192, 26.53944234803464], [-111.55125032398846, 26.53917764189038], [-111.5514189393504, 26.539025247827496], [-111.55141785117385, 26.5387976390658], [-111.55167077289309, 26.53856904760688], [-111.5517532652263, 26.538113502409008], [-111.55218773152443, 26.537492231602357], [-111.55233469023368, 26.535759249909354], [-111.55241899478654, 26.535683052274916], [-111.55233323713206, 26.535455771466665], [-111.55258367061056, 26.53470962231993], [-111.55290723883469, 26.534708367928232], [-111.55324408796606, 26.534327706157494], [-111.55494771462796, 26.533321230894412], [-111.55494704980384, 26.53318302288782], [-111.55505894872954, 26.53318258732966], [-111.55528455297095, 26.532940564398224], [-111.55545132756139, 26.532408817644594], [-111.55587209562356, 26.531876080736048], [-111.55587106419452, 26.531662003116384], [-111.55612444489586, 26.531533677123665], [-111.55620782947875, 26.531267803276148], [-111.55637642681825, 26.531115403465815], [-111.55637532923761, 26.530887794642773], [-111.55696504904327, 26.530278524164885], [-111.55669666028403, 26.5272953595324], [-111.55661163271436, 26.52721982035657], [-111.55660907106599, 26.526688732822553], [-111.55652404400736, 26.52661319358016], [-111.55652148282987, 26.526082105993027], [-111.55635033256284, 26.52570341833238], [-111.55643389557562, 26.52547547904385], [-111.55634886953902, 26.52539993966834], [-111.55625774864721, 26.52405985677438], [-111.556342042166, 26.52398365687087], [-111.5563380192682, 26.523149090311044], [-111.55658760457399, 26.52223766306552], [-111.55658540944304, 26.52178244486173], [-111.55675362670257, 26.521554174926354], [-111.55675143098237, 26.52109895669181], [-111.55716922305659, 26.51995925815655], [-111.5571677582466, 26.51965577929038], [-111.5575027180984, 26.518895758968156], [-111.55758444187933, 26.51828847027498], [-111.55775228562534, 26.517984329433535], [-111.55774971976183, 26.517453241314968], [-111.55798718354492, 26.51716235942372], [-111.55829673808668, 26.51716114819856], [-111.55855180176441, 26.51738776316923], [-111.55870601246649, 26.51738715924349], [-111.55887745933087, 26.517828183087275], [-111.55930330554351, 26.51835761201428], [-111.55930404071105, 26.518509351421265], [-111.55955910936163, 26.518735964469574], [-111.55956021263769, 26.518963573556796], [-111.56024187485332, 26.519871351341045], [-111.56041413380818, 26.520477643580257], [-111.56042592164195, 26.522905472518584], [-111.56068284518068, 26.52351143140043], [-111.56068468805806, 26.52389077954798], [-111.56094124648422, 26.524420868205855], [-111.5610299629468, 26.52525510094279], [-111.56128652610279, 26.525785188805248], [-111.56123171206512, 26.526114203510875], [-111.56145843082967, 26.52631560946382], [-111.56146027648201, 26.52669495741169], [-111.56163033718069, 26.526846029850784], [-111.56171647562003, 26.52714917473221], [-111.5617189379563, 26.527655020770066], [-111.56146642915864, 26.527959499284727], [-111.56146747080139, 26.52817357681082]], [[-111.55900659113152, 26.52934746244471], [-111.55880685326265, 26.529094479999387], [-111.5585237994459, 26.529095588917293], [-111.55834017388038, 26.529261581537583], [-111.55834084670704, 26.529400626944188], [-111.55848355723869, 26.529527406102765], [-111.55885127533618, 26.529525965474555], [-111.55900659113152, 26.52934746244471]]]}}]}
