{"type": "FeatureCollection", "features": [{"type": "Feature", "properties": {"uga": "93", "politica": "aprovechamiento-sustentable", "procedencia": {"metodo": "digitalizacion-semiautomatica", "fuente": "Mapa de ubicación de la ficha UGA 93, Boletín Oficial No. 12 (12-mar-2014), p. 493 del PDF", "datum": "UTM 12N con desplazamiento de +30 m E y +170 m N ajustado contra la costa (INC-011)", "correccion_borde_px": 1.4, "precision_aprox_m": 35.0, "escala_por_superficie": false, "revisada_en_qgis": false}, "control": {"residuo_georreferencia_m": 4.3, "area_digitalizada_ha": 274.34, "escala_por_superficie": false, "superficie_ficha_ha": 273.3, "diferencia_area_pct": 0.4}}, "geometry": {"type": "Polygon", "coordinates": [[[-111.63552493115098, 26.539994556183103], [-111.63324253941946, 26.540004712792268], [-111.63236164727131, 26.539691768011625], [-111.63113083352167, 26.53969722229764], [-111.63060074320073, 26.53922428552161], [-111.63027742926201, 26.53922571528792], [-111.63000087936224, 26.53947734914384], [-111.62954489918673, 26.539070524437136], [-111.62866488727751, 26.53891598022508], [-111.62834341389255, 26.538629155246603], [-111.62834082471927, 26.53815388389374], [-111.62745565041462, 26.537048789093397], [-111.62745392684944, 26.53673194140409], [-111.62710055193439, 26.536416640865806], [-111.62709796813165, 26.535941369251987], [-111.62639036682027, 26.535152341383075], [-111.62638778608587, 26.53467706962024], [-111.62567676062575, 26.533254341974665], [-111.62567418304472, 26.532779070020347], [-111.62415561525121, 26.53158167420837], [-111.62398065363608, 26.531740867770782], [-111.62318733021698, 26.53134826761327], [-111.62302647059558, 26.531494628198086], [-111.6222939987844, 26.531339398883237], [-111.62179574209873, 26.53150000035764], [-111.62000921398264, 26.531507779694053], [-111.61895260333571, 26.531195514284327], [-111.61824678447526, 26.530723292503474], [-111.61789514982885, 26.530724816662538], [-111.61754181928377, 26.530409491386145], [-111.61719018554686, 26.5304110137902], [-111.61616126838749, 26.529335080551686], [-111.61615957641523, 26.52901823183877], [-111.61527374443578, 26.52775463231565], [-111.61491620917421, 26.526647177925096], [-111.61118720977535, 26.523003516944602], [-111.60959750183098, 26.52492730229238], [-111.60959917548571, 26.525244151576953], [-111.60770605164488, 26.526966328594792], [-111.60490302547178, 26.528879384697156], [-111.6045513955669, 26.528880875856075], [-111.6008766057574, 26.532223400994408], [-111.59999915263754, 26.532543952399756], [-111.59919755636534, 26.533273020486742], [-111.59891835139136, 26.53302378097726], [-111.59859846283348, 26.533025124285555], [-111.59787726378525, 26.529571340874014], [-111.59681335275802, 26.527833085594054], [-111.59681076652242, 26.527333034549752], [-111.59712914788888, 26.52704345805292], [-111.59786074040363, 26.52704039283868], [-111.59803737380169, 26.527198080599046], [-111.59891561451094, 26.527035966537213], [-111.59907801152059, 26.52718094254518], [-111.59941388559804, 26.526875444696824], [-111.60099619395491, 26.526868785124762], [-111.60187360134847, 26.52654822811122], [-111.60348087971904, 26.525245396098768], [-111.6037288393087, 26.524860664160816], [-111.60355220192653, 26.524702983470103], [-111.6041783118479, 26.52413344489696], [-111.60417680293948, 26.52384520767648], [-111.60467247300599, 26.52384310701419], [-111.60519823334182, 26.52352402028949], [-111.60610470877724, 26.52269941617072], [-111.60627718557566, 26.522064969744797], [-111.6067704997303, 26.52161619994707], [-111.6076478507084, 26.521295608131013], [-111.60817526058777, 26.521293360208897], [-111.60992994453278, 26.520652154156316], [-111.61505823646266, 26.520946988420455], [-111.61646888705639, 26.521733039240225], [-111.61982276810204, 26.5242533528242], [-111.6221150957671, 26.525510795826953], [-111.62246671424407, 26.52550926154055], [-111.62289413489414, 26.525890695037887], [-111.62306908934248, 26.525731502808785], [-111.62422994785707, 26.52645212221667], [-111.62528652821824, 26.52676434924139], [-111.62571396274416, 26.527145773973324], [-111.62588891509188, 26.526986578347618], [-111.62687399108262, 26.52770794709951], [-111.62793058974276, 26.52802015414792], [-111.62846061684095, 26.528493102701393], [-111.63075312083348, 26.52975040294292], [-111.63198469628958, 26.529903377668926], [-111.63374720283565, 26.530687693705193], [-111.63459960380649, 26.53160585556712], [-111.63478326692743, 26.53303088647611], [-111.63534525688179, 26.533532279043218], [-111.63566855454603, 26.53353083806973], [-111.6359450778677, 26.533279193487846], [-111.63622436189311, 26.533528359061386], [-111.63707171245292, 26.53352457554445], [-111.63743383779897, 26.53542025079637], [-111.63586190269746, 26.537328399934935], [-111.63552493115098, 26.539994556183103]], [[-111.62097130918733, 26.527958644204375], [-111.62142620477034, 26.527544749960747], [-111.62142463189771, 26.527252677534033], [-111.62103939619352, 26.526908886786146], [-111.62036449331123, 26.526911824310687], [-111.61998297389847, 26.527258952446804], [-111.61998454312274, 26.527551024953212], [-111.62036977793126, 26.527894818537607], [-111.62097130918733, 26.527958644204375]]]}}]}
