{
  "type": "FeatureCollection",
  "features": [
    {
      "type": "Feature",
      "geometry": {
        "type": "Polygon",
        "coordinates": [
          [
            [
              -111.131221049087,
              25.5385583700905
            ],
            [
              -111.132619550548,
              25.5441523759341
            ],
            [
              -111.134577452593,
              25.5448516266645
            ],
            [
              -111.135276703323,
              25.5452711771028
            ],
            [
              -111.135276703323,
              25.547089229002
            ],
            [
              -111.136255654346,
              25.5469493788559
            ],
            [
              -111.136535354638,
              25.5484877304629
            ],
            [
              -111.137514305661,
              25.5491869811933
            ],
            [
              -111.139891758144,
              25.5500260820698
            ],
            [
              -111.139751907998,
              25.5531027852838
            ],
            [
              -111.141010559313,
              25.5550606873291
            ],
            [
              -111.142688761066,
              25.5558997882056
            ],
            [
              -111.142968461358,
              25.5577178401048
            ],
            [
              -111.143947412381,
              25.5577178401048
            ],
            [
              -111.144366962819,
              25.5603749928805
            ],
            [
              -111.143667712089,
              25.5610742436109
            ],
            [
              -111.142269210628,
              25.5621930447796
            ],
            [
              -111.141989510336,
              25.565968998724
            ],
            [
              -111.145625614134,
              25.5670877998928
            ],
            [
              -111.14576546428,
              25.5676472004771
            ],
            [
              -111.148142916764,
              25.5670877998928
            ],
            [
              -111.153457222315,
              25.5676472004771
            ],
            [
              -111.154296323192,
              25.5696051025224
            ],
            [
              -111.157373026406,
              25.5698848028146
            ],
            [
              -111.157652726698,
              25.5710036039833
            ],
            [
              -111.159330928451,
              25.5724021054442
            ],
            [
              -111.161288830496,
              25.5729615060285
            ],
            [
              -111.162547481811,
              25.5735209066129
            ],
            [
              -111.162687331957,
              25.575199108366
            ],
            [
              -111.164645234002,
              25.5758983590964
            ],
            [
              -111.164924934294,
              25.5803735637713
            ],
            [
              -111.167442236924,
              25.5806532640634
            ],
            [
              -111.168421187947,
              25.587785621514
            ],
            [
              -111.1700993897,
              25.5879254716601
            ],
            [
              -111.170239239846,
              25.5890442728288
            ],
            [
              -111.170379089992,
              25.5947781288185
            ],
            [
              -111.173875343644,
              25.5947781288185
            ],
            [
              -111.173875343644,
              25.597155581302
            ],
            [
              -111.178210698173,
              25.597155581302
            ],
            [
              -111.178070848027,
              25.5985540827629
            ],
            [
              -111.180168600218,
              25.5988337830551
            ],
            [
              -111.17974904978,
              25.6026097369995
            ],
            [
              -111.184084404309,
              25.6026097369995
            ],
            [
              -111.184643804893,
              25.6045676390447
            ],
            [
              -111.187161107523,
              25.6048473393369
            ],
            [
              -111.187161107523,
              25.6062458407978
            ],
            [
              -111.188140058545,
              25.6086232932814
            ],
            [
              -111.189258859714,
              25.6105811953266
            ],
            [
              -111.189678410152,
              25.6123992472258
            ],
            [
              -111.191636312198,
              25.6139375988328
            ],
            [
              -111.191776162344,
              25.6167346017545
            ],
            [
              -111.190657361175,
              25.6181331032154
            ],
            [
              -111.190937061467,
              25.6219090571599
            ],
            [
              -111.192475413074,
              25.623727109059
            ],
            [
              -111.192755113366,
              25.6305797662174
            ],
            [
              -111.194573165265,
              25.6305797662174
            ],
            [
              -111.196531067311,
              25.6318384175322
            ],
            [
              -111.196531067311,
              25.6329572187009
            ],
            [
              -111.198069418918,
              25.6349151207462
            ],
            [
              -111.198908519794,
              25.6365933224993
            ],
            [
              -111.198908519794,
              25.6382715242523
            ],
            [
              -111.199887470817,
              25.6403692764437
            ],
            [
              -111.198069418918,
              25.6405091265898
            ],
            [
              -111.198209269064,
              25.6413482274663
            ],
            [
              -111.19904836994,
              25.6438655300959
            ],
            [
              -111.198209269064,
              25.6558926426596
            ],
            [
              -111.200027320963,
              25.6563121930979
            ],
            [
              -111.200167171109,
              25.657990394851
            ],
            [
              -111.203104024177,
              25.6577106945588
            ],
            [
              -111.203663424761,
              25.6610670980649
            ],
            [
              -111.203523574615,
              25.6641438012789
            ],
            [
              -111.204922076076,
              25.6649829021554
            ],
            [
              -111.20548147666,
              25.667500204785
            ],
            [
              -111.204222825346,
              25.6691784065381
            ],
            [
              -111.2022649233,
              25.6693182566842
            ],
            [
              -111.201146122132,
              25.6711363085834
            ],
            [
              -111.203663424761,
              25.6722551097521
            ],
            [
              -111.2040829752,
              25.6749122625278
            ],
            [
              -111.209117580459,
              25.6749122625278
            ],
            [
              -111.209956681335,
              25.6764506141348
            ],
            [
              -111.211774733234,
              25.6874987756758
            ],
            [
              -111.214012335572,
              25.6891769774289
            ],
            [
              -111.214292035864,
              25.6951905337108
            ],
            [
              -111.213592785134,
              25.6972882859021
            ],
            [
              -111.212194283673,
              25.6992461879474
            ],
            [
              -111.210236381627,
              25.6999454386778
            ],
            [
              -111.212054433527,
              25.703301842184
            ],
            [
              -111.213872485426,
              25.7055394445214
            ],
            [
              -111.215131136741,
              25.7073574964205
            ],
            [
              -111.214571736156,
              25.7094552486119
            ],
            [
              -111.217368739078,
              25.7100146491963
            ],
            [
              -111.217228888932,
              25.7133710527024
            ],
            [
              -111.219606341415,
              25.7144898538711
            ],
            [
              -111.219886041708,
              25.7170071565007
            ],
            [
              -111.220305592146,
              25.720503410153
            ],
            [
              -111.222403344337,
              25.7203635600069
            ],
            [
              -111.223941695944,
              25.7227410124904
            ],
            [
              -111.223522145506,
              25.7251184649739
            ],
            [
              -111.228277050473,
              25.7255380154122
            ],
            [
              -111.232053004417,
              25.7255380154122
            ],
            [
              -111.233171805586,
              25.7249786148278
            ],
            [
              -111.233311655732,
              25.722181611906
            ],
            [
              -111.234150756609,
              25.7212026608834
            ],
            [
              -111.238066560699,
              25.7202237098608
            ],
            [
              -111.240583863329,
              25.7203635600069
            ],
            [
              -111.244080116981,
              25.72204176176
            ],
            [
              -111.24589816888,
              25.7244192142435
            ],
            [
              -111.244639517566,
              25.7274959174574
            ],
            [
              -111.24589816888,
              25.7290342690644
            ],
            [
              -111.247995921072,
              25.7311320212558
            ],
            [
              -111.248695171802,
              25.7340688743237
            ],
            [
              -111.251072624286,
              25.7375651279759
            ],
            [
              -111.252750826039,
              25.7381245285602
            ],
            [
              -111.255827529253,
              25.7403621308977
            ],
            [
              -111.258484682028,
              25.7423200329429
            ],
            [
              -111.264218538018,
              25.7469350877639
            ],
            [
              -111.271910296053,
              25.7473546382022
            ],
            [
              -111.274567448829,
              25.7479140387865
            ],
            [
              -111.277504301897,
              25.75029149127
            ],
            [
              -111.285475760224,
              25.7599411513502
            ],
            [
              -111.287293812123,
              25.7610599525189
            ],
            [
              -111.287153961977,
              25.7635772551485
            ],
            [
              -111.294426169573,
              25.7688915606999
            ],
            [
              -111.298202123518,
              25.7704299123069
            ],
            [
              -111.301138976586,
              25.770569762453
            ],
            [
              -111.302117927608,
              25.7726675146444
            ],
            [
              -111.303935979507,
              25.7729472149365
            ],
            [
              -111.305614181261,
              25.7820374744324
            ],
            [
              -111.308271334036,
              25.7824570248706
            ],
            [
              -111.30813148389,
              25.7890299817368
            ],
            [
              -111.31064878652,
              25.7902886330516
            ],
            [
              -111.311907437835,
              25.7999382931318
            ],
            [
              -111.308271334036,
              25.8004976937162
            ],
            [
              -111.308271334036,
              25.8035743969301
            ],
            [
              -111.306033731699,
              25.8031548464919
            ],
            [
              -111.305893881553,
              25.8051127485371
            ],
            [
              -111.305474331114,
              25.808049601605
            ],
            [
              -111.306453282137,
              25.8118255555494
            ],
            [
              -111.303376578923,
              25.8119654056955
            ],
            [
              -111.30169837717,
              25.8104270540885
            ],
            [
              -111.301978077462,
              25.8077699013128
            ],
            [
              -111.300020175417,
              25.8060916995597
            ],
            [
              -111.29526527045,
              25.8060916995598
            ],
            [
              -111.293587068697,
              25.8073503508746
            ],
            [
              -111.293307368405,
              25.8091684027737
            ],
            [
              -111.291209616213,
              25.8094481030659
            ],
            [
              -111.289950964899,
              25.8133639071564
            ],
            [
              -111.293726918843,
              25.8150421089095
            ],
            [
              -111.295405120596,
              25.8182586622695
            ],
            [
              -111.298202123518,
              25.8193774634383
            ],
            [
              -111.299041224394,
              25.8214752156296
            ],
            [
              -111.301138976586,
              25.8227338669444
            ],
            [
              -111.302117927608,
              25.8253910197201
            ],
            [
              -111.3042156798,
              25.8279083223497
            ],
            [
              -111.307292383014,
              25.8308451754176
            ],
            [
              -111.309949535789,
              25.8335023281933
            ],
            [
              -111.312466838419,
              25.8339218786316
            ],
            [
              -111.313585639588,
              25.8351805299464
            ],
            [
              -111.315263841341,
              25.8360196308229
            ],
            [
              -111.315963092071,
              25.8390963340369
            ],
            [
              -111.314844290902,
              25.8406346856439
            ],
            [
              -111.315403691487,
              25.8427324378352
            ],
            [
              -111.316942043094,
              25.8427324378352
            ],
            [
              -111.31778114397,
              25.8417534868126
            ],
            [
              -111.318480394701,
              25.8413339363743
            ],
            [
              -111.318620244847,
              25.8403549853517
            ],
            [
              -111.318340544555,
              25.8382572331603
            ],
            [
              -111.318899945139,
              25.8367188815534
            ],
            [
              -111.319039795285,
              25.8364391812612
            ],
            [
              -111.319039795285,
              25.8357399305307
            ],
            [
              -111.319319495577,
              25.834621129362
            ],
            [
              -111.31959919587,
              25.8342015789237
            ],
            [
              -111.320578146892,
              25.8333624780472
            ],
            [
              -111.322536048937,
              25.8321038267324
            ],
            [
              -111.324913501421,
              25.8309850255637
            ],
            [
              -111.327710504343,
              25.8309850255637
            ],
            [
              -111.329109005804,
              25.8329429276089
            ],
            [
              -111.331346608141,
              25.8344812792159
            ],
            [
              -111.333724060625,
              25.8369985818455
            ],
            [
              -111.333584210478,
              25.8389564838908
            ],
            [
              -111.330507507264,
              25.8390963340369
            ],
            [
              -111.330227806972,
              25.8532211987919
            ],
            [
              -111.332884959748,
              25.8539204495224
            ],
            [
              -111.33316466004,
              25.8641295101869
            ],
            [
              -111.334423311355,
              25.8646889107713
            ],
            [
              -111.335122562085,
              25.8663671125243
            ],
            [
              -111.337080464131,
              25.8684648647157
            ],
            [
              -111.339318066468,
              25.8707024670531
            ],
            [
              -111.341695518952,
              25.8734994699749
            ],
            [
              -111.342674469974,
              25.875177671728
            ],
            [
              -111.341975219244,
              25.8782543749419
            ],
            [
              -111.341136118367,
              25.8796528764028
            ],
            [
              -111.339178216322,
              25.8807716775716
            ],
            [
              -111.338059415153,
              25.8839882309316
            ],
            [
              -111.337220314277,
              25.8865055335612
            ],
            [
              -111.334423311355,
              25.8859461329769
            ],
            [
              -111.333724060625,
              25.8872047842917
            ],
            [
              -111.335961662962,
              25.8874844845839
            ],
            [
              -111.335402262378,
              25.8902814875056
            ],
            [
              -111.335122562085,
              25.8918198391126
            ],
            [
              -111.334563161501,
              25.8937777411579
            ],
            [
              -111.335262412232,
              25.8948965423266
            ],
            [
              -111.336521063546,
              25.8951762426188
            ],
            [
              -111.337360164423,
              25.8960153434953
            ],
            [
              -111.337360164423,
              25.8976935452484
            ],
            [
              -111.337220314277,
              25.9003506980241
            ],
            [
              -111.337500014569,
              25.9018890496311
            ],
            [
              -111.337919565007,
              25.903287551092
            ],
            [
              -111.337500014569,
              25.9038469516763
            ],
            [
              -111.337360164423,
              25.904825902699
            ],
            [
              -111.337220314277,
              25.9052454531372
            ],
            [
              -111.337500014569,
              25.9070635050364
            ],
            [
              -111.338059415153,
              25.9088815569356
            ],
            [
              -111.338758665884,
              25.9083221563512
            ],
            [
              -111.33959776676,
              25.9088815569356
            ],
            [
              -111.341835369098,
              25.9116785598574
            ],
            [
              -111.342394769682,
              25.9139161621948
            ],
            [
              -111.344352671727,
              25.9228665715445
            ],
            [
              -111.345191772604,
              25.9214680700836
            ],
            [
              -111.346310573773,
              25.9206289692071
            ],
            [
              -111.347709075233,
              25.9206289692071
            ],
            [
              -111.350506078155,
              25.9225868712523
            ],
            [
              -111.355260983122,
              25.9248244735898
            ],
            [
              -111.356379784291,
              25.9365718858613
            ],
            [
              -111.354421882246,
              25.9374109867378
            ],
            [
              -111.352743680493,
              25.9393688887831
            ],
            [
              -111.35106547874,
              25.940767390244
            ],
            [
              -111.352184279908,
              25.9410470905361
            ],
            [
              -111.353023380785,
              25.942445591997
            ],
            [
              -111.353582781369,
              25.9441237937501
            ],
            [
              -111.35498128283,
              25.9480395978406
            ],
            [
              -111.358617386628,
              25.9544727045607
            ],
            [
              -111.359456487505,
              25.9578291080669
            ],
            [
              -111.359176787213,
              25.9631434136183
            ],
            [
              -111.357218885168,
              25.9681780188775
            ],
            [
              -111.353023380785,
              25.9726532235524
            ],
            [
              -111.349387276987,
              25.9754502264742
            ],
            [
              -111.346869974357,
              25.9768487279351
            ],
            [
              -111.342394769682,
              25.9796457308569
            ],
            [
              -111.340157167345,
              25.9846803361161
            ],
            [
              -111.339318066468,
              25.9891555407909
            ],
            [
              -111.337080464131,
              25.9919525437127
            ],
            [
              -111.337919565007,
              25.9961480480954
            ],
            [
              -111.338478965592,
              26.0003435524781
            ],
            [
              -111.334003760917,
              26.0003435524781
            ],
            [
              -111.332605259456,
              26.0039796562764
            ],
            [
              -111.338758665884,
              26.0053781577373
            ],
            [
              -111.340157167345,
              26.0165661694245
            ],
            [
              -111.344352671727,
              26.0207616738072
            ],
            [
              -111.34603087348,
              26.0229992761446
            ],
            [
              -111.344352671727,
              26.0280338814038
            ],
            [
              -111.342674469974,
              26.0302714837413
            ],
            [
              -111.338758665884,
              26.0381030919223
            ],
            [
              -111.335122562085,
              26.0397812936754
            ],
            [
              -111.330927057703,
              26.043976798058
            ],
            [
              -111.329808256534,
              26.0484520027329
            ],
            [
              -111.328689455365,
              26.0554445100374
            ],
            [
              -111.327570654197,
              26.0596400144201
            ],
            [
              -111.323934550398,
              26.061038515881
            ],
            [
              -111.319739046016,
              26.065793420848
            ],
            [
              -111.317501443678,
              26.0716671269838
            ],
            [
              -111.316942043094,
              26.0764220319508
            ],
            [
              -111.324773651275,
              26.0839739398397
            ],
            [
              -111.323934550398,
              26.0999168564939
            ],
            [
              -111.325053351567,
              26.1018747585391
            ],
            [
              -111.331206757995,
              26.1043920611687
            ],
            [
              -111.335961662962,
              26.1060702629218
            ],
            [
              -111.340157167345,
              26.1085875655514
            ],
            [
              -111.343233870559,
              26.1113845684732
            ],
            [
              -111.343793271143,
              26.1161394734402
            ],
            [
              -111.345471472896,
              26.1175379749011
            ],
            [
              -111.347709075233,
              26.1200552775307
            ],
            [
              -111.347429374941,
              26.12508988279
            ],
            [
              -111.350226377863,
              26.1256492833743
            ],
            [
              -111.353023380785,
              26.126768084543
            ],
            [
              -111.353862481661,
              26.1320823900944
            ],
            [
              -111.352463980201,
              26.1348793930162
            ],
            [
              -111.354701582538,
              26.1362778944771
            ],
            [
              -111.354701582538,
              26.1385154968146
            ],
            [
              -111.355820383707,
              26.1427110011972
            ],
            [
              -111.355540683415,
              26.1443892029503
            ],
            [
              -111.355540683415,
              26.1480253067487
            ],
            [
              -111.355260983122,
              26.1511020099626
            ],
            [
              -111.356100083999,
              26.1536193125922
            ],
            [
              -111.356659484583,
              26.1550178140531
            ],
            [
              -111.359736187797,
              26.156416315514
            ],
            [
              -111.359736187797,
              26.1592133184358
            ],
            [
              -111.359736187797,
              26.1631291225263
            ],
            [
              -111.359736187797,
              26.1670449266168
            ],
            [
              -111.360575288674,
              26.167324626909
            ],
            [
              -111.36141438955,
              26.1698419295386
            ],
            [
              -111.363372291596,
              26.1709607307073
            ],
            [
              -111.363372291596,
              26.1740374339213
            ],
            [
              -111.365050493349,
              26.1737577336291
            ],
            [
              -111.36784749627,
              26.1754359353822
            ],
            [
              -111.370644499192,
              26.1757156356744
            ],
            [
              -111.37288210153,
              26.1790720391805
            ],
            [
              -111.371763300361,
              26.1815893418101
            ],
            [
              -111.373721202406,
              26.1821487423945
            ],
            [
              -111.375679104451,
              26.1843863447319
            ],
            [
              -111.377077605912,
              26.1883021488224
            ],
            [
              -111.377637006497,
              26.1913788520364
            ],
            [
              -111.377637006497,
              26.19697285788
            ],
            [
              -111.377357306204,
              26.1997698608018
            ],
            [
              -111.377637006497,
              26.2131954748264
            ],
            [
              -111.587132525339,
              26.2123563739498
            ],
            [
              -111.587412225631,
              26.2062029675219
            ],
            [
              -111.584335522417,
              26.2056435669375
            ],
            [
              -111.584335522417,
              26.2025668637236
            ],
            [
              -111.582937020956,
              26.2022871634314
            ],
            [
              -111.580699418619,
              26.201727762847
            ],
            [
              -111.580699418619,
              26.2003292613861
            ],
            [
              -111.581538519495,
              26.1964134572956
            ],
            [
              -111.581258819203,
              26.1933367540817
            ],
            [
              -111.577343015112,
              26.1919382526208
            ],
            [
              -111.577622715405,
              26.1894209499912
            ],
            [
              -111.573986611606,
              26.189141249699
            ],
            [
              -111.57314751073,
              26.1871833476537
            ],
            [
              -111.572028709561,
              26.1866239470694
            ],
            [
              -111.568112905471,
              26.1855051459006
            ],
            [
              -111.572028709561,
              26.1821487423945
            ],
            [
              -111.572588110145,
              26.1737577336291
            ],
            [
              -111.567833205178,
              26.1737577336291
            ],
            [
              -111.568112905471,
              26.1776735377196
            ],
            [
              -111.565315902549,
              26.1771141371353
            ],
            [
              -111.563917401088,
              26.1726389324604
            ],
            [
              -111.56028129729,
              26.1723592321682
            ],
            [
              -111.560001596997,
              26.1687231283699
            ],
            [
              -111.565036202257,
              26.1687231283699
            ],
            [
              -111.565875303133,
              26.1656464251559
            ],
            [
              -111.566994104302,
              26.1656464251559
            ],
            [
              -111.566994104302,
              26.1611712204811
            ],
            [
              -111.568952006347,
              26.1608915201889
            ],
            [
              -111.568952006347,
              26.1566960158062
            ],
            [
              -111.565595602841,
              26.1550178140531
            ],
            [
              -111.56419710138,
              26.1578148169749
            ],
            [
              -111.558603095536,
              26.1583742175593
            ],
            [
              -111.557204594076,
              26.1603321196045
            ],
            [
              -111.557204594076,
              26.1600524193124
            ],
            [
              -111.556645193491,
              26.1566960158062
            ],
            [
              -111.554407591154,
              26.1552975143453
            ],
            [
              -111.553009089693,
              26.1572554163906
            ],
            [
              -111.550212086771,
              26.1572554163906
            ],
            [
              -111.549932386479,
              26.1550178140531
            ],
            [
              -111.545457181804,
              26.1530599120079
            ],
            [
              -111.544338380635,
              26.1578148169749
            ],
            [
              -111.542100778298,
              26.1578148169749
            ],
            [
              -111.539583475668,
              26.1578148169749
            ],
            [
              -111.536227072162,
              26.1569757160984
            ],
            [
              -111.534269170117,
              26.1538990128844
            ],
            [
              -111.531472167195,
              26.1530599120079
            ],
            [
              -111.53343006924,
              26.1502629090861
            ],
            [
              -111.532031567779,
              26.1466268052878
            ],
            [
              -111.530633066319,
              26.1471862058721
            ],
            [
              -111.52951426515,
              26.1502629090861
            ],
            [
              -111.526717262228,
              26.1522208111313
            ],
            [
              -111.524199959598,
              26.1511020099626
            ],
            [
              -111.525878161352,
              26.1480253067486
            ],
            [
              -111.525878161352,
              26.145508004119
            ],
            [
              -111.525878161352,
              26.1415922000285
            ],
            [
              -111.523920259306,
              26.1415922000285
            ],
            [
              -111.522242057553,
              26.1427110011972
            ],
            [
              -111.520284155508,
              26.1452283038269
            ],
            [
              -111.513291648204,
              26.1466268052878
            ],
            [
              -111.513571348496,
              26.143829802366
            ],
            [
              -111.515808950833,
              26.1413124997364
            ],
            [
              -111.515808950833,
              26.1368372950615
            ],
            [
              -111.513011947911,
              26.1354387936006
            ],
            [
              -111.514969849957,
              26.1337605918475
            ],
            [
              -111.518605953755,
              26.1345996927241
            ],
            [
              -111.523360858722,
              26.1306838886335
            ],
            [
              -111.521402956677,
              26.1278868857118
            ],
            [
              -111.518885654047,
              26.1236913813291
            ],
            [
              -111.517487152586,
              26.1214537789916
            ],
            [
              -111.520284155508,
              26.1169785743168
            ],
            [
              -111.518326253463,
              26.1147409719793
            ],
            [
              -111.514690149664,
              26.1147409719793
            ],
            [
              -111.512452547327,
              26.114181571395
            ],
            [
              -111.510774345574,
              26.1166988740246
            ],
            [
              -111.507138241776,
              26.1183770757777
            ],
            [
              -111.510774345574,
              26.1214537789916
            ],
            [
              -111.51021494499,
              26.1239710816212
            ],
            [
              -111.509935244697,
              26.1262086839587
            ],
            [
              -111.502663037101,
              26.1262086839587
            ],
            [
              -111.501544235932,
              26.1287259865883
            ],
            [
              -111.499306633595,
              26.1301244880492
            ],
            [
              -111.49874723301,
              26.1287259865883
            ],
            [
              -111.496789330965,
              26.1256492833743
            ],
            [
              -111.493992328043,
              26.1248101824978
            ],
            [
              -111.490635924537,
              26.1248101824978
            ],
            [
              -111.488678022492,
              26.1211740786995
            ],
            [
              -111.485321618986,
              26.1200552775307
            ],
            [
              -111.484482518109,
              26.1231319807447
            ],
            [
              -111.484202817817,
              26.1253695830821
            ],
            [
              -111.480287013726,
              26.1273274851274
            ],
            [
              -111.476371209636,
              26.1306838886335
            ],
            [
              -111.473294506422,
              26.1315229895101
            ],
            [
              -111.470217803208,
              26.1228522804525
            ],
            [
              -111.472735105838,
              26.1214537789916
            ],
            [
              -111.474693007883,
              26.1183770757777
            ],
            [
              -111.478049411389,
              26.1180973754855
            ],
            [
              -111.478888512265,
              26.1074687643827
            ],
            [
              -111.481685515187,
              26.1046717614609
            ],
            [
              -111.487559221323,
              26.0982386547408
            ],
            [
              -111.491195325121,
              26.0901273462676
            ],
            [
              -111.483084016648,
              26.0901273462676
            ],
            [
              -111.474693007883,
              26.1018747585391
            ],
            [
              -111.4704975035,
              26.1013153579547
            ],
            [
              -111.470777203792,
              26.0979589544486
            ],
            [
              -111.469938102916,
              26.0948822512346
            ],
            [
              -111.464344097072,
              26.0948822512346
            ],
            [
              -111.458190690644,
              26.0948822512346
            ],
            [
              -111.456792189183,
              26.0971198535721
            ],
            [
              -111.460987693566,
              26.098518355033
            ],
            [
              -111.461267393858,
              26.1004762570782
            ],
            [
              -111.462106494735,
              26.1010356576626
            ],
            [
              -111.464623797364,
              26.1021544588313
            ],
            [
              -111.466022298825,
              26.1043920611687
            ],
            [
              -111.46406439678,
              26.1077484646749
            ],
            [
              -111.462665895319,
              26.1102657673045
            ],
            [
              -111.459589192105,
              26.1113845684732
            ],
            [
              -111.455673388015,
              26.1153003725637
            ],
            [
              -111.455953088307,
              26.1200552775307
            ],
            [
              -111.455393687722,
              26.1264883842509
            ],
            [
              -111.449799681879,
              26.1259289836665
            ],
            [
              -111.448960581002,
              26.1225725801604
            ],
            [
              -111.447282379249,
              26.1214537789916
            ],
            [
              -111.447562079541,
              26.1214537789916
            ],
            [
              -111.449799681879,
              26.1158597731481
            ],
            [
              -111.447562079541,
              26.1158597731481
            ],
            [
              -111.446163578081,
              26.117258274609
            ],
            [
              -111.441408673113,
              26.1166988740246
            ],
            [
              -111.443925975743,
              26.1130627702263
            ],
            [
              -111.448121480126,
              26.1099860670123
            ],
            [
              -111.452316984508,
              26.1046717614609
            ],
            [
              -111.454834287138,
              26.1024341591235
            ],
            [
              -111.453715485969,
              26.0982386547408
            ],
            [
              -111.450079382171,
              26.0987980553251
            ],
            [
              -111.450359082463,
              26.1024341591235
            ],
            [
              -111.445883877788,
              26.1021544588313
            ],
            [
              -111.440010171653,
              26.10327326
            ],
            [
              -111.436933468439,
              26.1035529602922
            ],
            [
              -111.439171070776,
              26.1057905626296
            ],
            [
              -111.43973047136,
              26.1097063667201
            ],
            [
              -111.436094367562,
              26.1166988740246
            ],
            [
              -111.434136465517,
              26.1139018711028
            ],
            [
              -111.433577064932,
              26.1088672658436
            ],
            [
              -111.427703358797,
              26.1035529602922
            ],
            [
              -111.424067254998,
              26.1066296635062
            ],
            [
              -111.420151450908,
              26.1113845684732
            ],
            [
              -111.416795047402,
              26.10327326
            ],
            [
              -111.419312350031,
              26.0993574559095
            ],
            [
              -111.419592050324,
              26.0926446488972
            ],
            [
              -111.41651534711,
              26.0862115421771
            ],
            [
              -111.415116845649,
              26.0794987351648
            ],
            [
              -111.413718344188,
              26.0778205334117
            ],
            [
              -111.414277744772,
              26.0730656284447
            ],
            [
              -111.408963439221,
              26.0685904237698
            ],
            [
              -111.409243139513,
              26.0632761182184
            ],
            [
              -111.413438643896,
              26.0632761182184
            ],
            [
              -111.417074747694,
              26.0646746196793
            ],
            [
              -111.419312350031,
              26.0632761182184
            ],
            [
              -111.419592050324,
              26.0604791152966
            ],
            [
              -111.418193548863,
              26.0576821123748
            ],
            [
              -111.416795047402,
              26.0588009135435
            ],
            [
              -111.408963439221,
              26.0596400144201
            ],
            [
              -111.407844638052,
              26.0537663082843
            ],
            [
              -111.405607035715,
              26.0534866079921
            ],
            [
              -111.402530332501,
              26.0534866079921
            ],
            [
              -111.398894228702,
              26.0543257088687
            ],
            [
              -111.393579923151,
              26.0599197147122
            ],
            [
              -111.390782920229,
              26.0504099047782
            ],
            [
              -111.389104718476,
              26.0504099047782
            ],
            [
              -111.386867116139,
              26.0487317030251
            ],
            [
              -111.391062620521,
              26.0484520027329
            ],
            [
              -111.395537825196,
              26.0487317030251
            ],
            [
              -111.396936326657,
              26.0467738009798
            ],
            [
              -111.396936326657,
              26.0425782965971
            ],
            [
              -111.393859623443,
              26.0434173974737
            ],
            [
              -111.391622021106,
              26.0411797951362
            ],
            [
              -111.387985917307,
              26.0420188960128
            ],
            [
              -111.384070113217,
              26.0389421927988
            ],
            [
              -111.384629513801,
              26.0367045904614
            ],
            [
              -111.389384418768,
              26.0353060890005
            ],
            [
              -111.389384418768,
              26.034466988124
            ],
            [
              -111.394139323735,
              26.0327887863709
            ],
            [
              -111.401411531332,
              26.0350263887083
            ],
            [
              -111.401411531332,
              26.0372639910457
            ],
            [
              -111.405886736007,
              26.0381030919223
            ],
            [
              -111.409802540097,
              26.0364248901692
            ],
            [
              -111.413438643896,
              26.0308308843256
            ],
            [
              -111.417354447986,
              26.0302714837413
            ],
            [
              -111.418752949447,
              26.0308308843256
            ],
            [
              -111.422389053245,
              26.0350263887083
            ],
            [
              -111.424906355875,
              26.0339075875396
            ],
            [
              -111.423228154122,
              26.0277541811117
            ],
            [
              -111.424906355875,
              26.0263556796508
            ],
            [
              -111.433017664348,
              26.0255165787742
            ],
            [
              -111.433577064932,
              26.0291526825725
            ],
            [
              -111.440849272529,
              26.0291526825725
            ],
            [
              -111.445604177496,
              26.0263556796508
            ],
            [
              -111.450079382171,
              26.0218804749759
            ],
            [
              -111.452037284216,
              26.0263556796508
            ],
            [
              -111.455393687722,
              26.0260759793586
            ],
            [
              -111.455393687722,
              26.020481973515
            ],
            [
              -111.456792189183,
              26.0193631723463
            ],
            [
              -111.457071889476,
              26.017405270301
            ],
            [
              -111.457351589768,
              26.0160067688401
            ],
            [
              -111.462665895319,
              26.012650365334
            ],
            [
              -111.468819301747,
              26.0104127629965
            ],
            [
              -111.476371209636,
              26.0045390568608
            ],
            [
              -111.459029791521,
              26.004818757153
            ],
            [
              -111.459029791521,
              26.0025811548155
            ],
            [
              -111.459029791521,
              25.996987148972
            ],
            [
              -111.460148592689,
              25.9944698463423
            ],
            [
              -111.457071889476,
              25.990833742544
            ],
            [
              -111.455393687722,
              25.9944698463424
            ],
            [
              -111.449799681879,
              25.993910445758
            ],
            [
              -111.448960581002,
              25.990833742544
            ],
            [
              -111.450638782755,
              25.9885961402066
            ],
            [
              -111.454834287138,
              25.9857991372848
            ],
            [
              -111.455673388015,
              25.9818833331943
            ],
            [
              -111.455673388015,
              25.9771284282272
            ],
            [
              -111.452876385093,
              25.9774081285194
            ],
            [
              -111.449519981587,
              25.9804848317334
            ],
            [
              -111.448121480126,
              25.978247229396
            ],
            [
              -111.446443278373,
              25.9743314253055
            ],
            [
              -111.448121480126,
              25.9732126241367
            ],
            [
              -111.448121480126,
              25.9698562206306
            ],
            [
              -111.448401180418,
              25.9653810159557
            ],
            [
              -111.444485376327,
              25.9648216153714
            ],
            [
              -111.443366575159,
              25.9623043127418
            ],
            [
              -111.441968073698,
              25.9623043127418
            ],
            [
              -111.441968073698,
              25.9651013156635
            ],
            [
              -111.441688373406,
              25.9684577191697
            ],
            [
              -111.437772569315,
              25.9704156212149
            ],
            [
              -111.433017664348,
              25.9709750217993
            ],
            [
              -111.430220661426,
              25.9701359209228
            ],
            [
              -111.431898863179,
              25.9670592177088
            ],
            [
              -111.436933468439,
              25.9648216153714
            ],
            [
              -111.436933468439,
              25.9631434136183
            ],
            [
              -111.434416165809,
              25.9631434136183
            ],
            [
              -111.431339462595,
              25.9648216153714
            ],
            [
              -111.428542459673,
              25.964262214787
            ],
            [
              -111.429101860258,
              25.9609058112809
            ],
            [
              -111.432737964056,
              25.9589479092356
            ],
            [
              -111.440569572237,
              25.9589479092356
            ],
            [
              -111.439171070776,
              25.9550321051451
            ],
            [
              -111.43581466727,
              25.9530742030999
            ],
            [
              -111.435255266686,
              25.9483192981328
            ],
            [
              -111.437213168731,
              25.9438440934579
            ],
            [
              -111.434975566393,
              25.9396485890753
            ],
            [
              -111.433017664348,
              25.9452425949188
            ],
            [
              -111.43329736464,
              25.9432846928736
            ],
            [
              -111.427983059089,
              25.9399282893674
            ],
            [
              -111.425465756459,
              25.9357327849847
            ],
            [
              -111.427143958212,
              25.9323763814786
            ],
            [
              -111.430220661426,
              25.9281808770959
            ],
            [
              -111.432458263764,
              25.9273417762194
            ],
            [
              -111.436653768146,
              25.9292996782646
            ],
            [
              -111.441968073698,
              25.9326560817708
            ],
            [
              -111.439450771068,
              25.9295793785568
            ],
            [
              -111.436933468439,
              25.9239853727132
            ],
            [
              -111.432737964056,
              25.9206289692071
            ],
            [
              -111.436374067854,
              25.9175522659931
            ],
            [
              -111.43973047136,
              25.9175522659931
            ],
            [
              -111.445883877788,
              25.9144755627791
            ],
            [
              -111.454554586846,
              25.9058048537216
            ],
            [
              -111.441128972821,
              25.9046860525529
            ],
            [
              -111.440849272529,
              25.9069236548903
            ],
            [
              -111.440289871945,
              25.906364254306
            ],
            [
              -111.436374067854,
              25.9049657528451
            ],
            [
              -111.434416165809,
              25.9035672513842
            ],
            [
              -111.431898863179,
              25.9035672513842
            ],
            [
              -111.429940961134,
              25.9007702484624
            ],
            [
              -111.427143958212,
              25.8979732455406
            ],
            [
              -111.426025157044,
              25.8999311475858
            ],
            [
              -111.425465756459,
              25.9010499487545
            ],
            [
              -111.426304857336,
              25.9097206578121
            ],
            [
              -111.424906355875,
              25.9127973610261
            ],
            [
              -111.421829652661,
              25.9150349633635
            ],
            [
              -111.419592050324,
              25.9102800583965
            ],
            [
              -111.417074747694,
              25.9091612572277
            ],
            [
              -111.41651534711,
              25.9113988595652
            ],
            [
              -111.414557445064,
              25.9147552630713
            ],
            [
              -111.412599543019,
              25.9100003581043
            ],
            [
              -111.410082240389,
              25.9083221563512
            ],
            [
              -111.409243139513,
              25.9066439545981
            ],
            [
              -111.408404038636,
              25.9016093493389
            ],
            [
              -111.406446136591,
              25.9063642543059
            ],
            [
              -111.404767934838,
              25.9105597586886
            ],
            [
              -111.410082240389,
              25.9125176607339
            ],
            [
              -111.410641640974,
              25.9161537645322
            ],
            [
              -111.406446136591,
              25.9155943639479
            ],
            [
              -111.403369433377,
              25.9122379604417
            ],
            [
              -111.399173928994,
              25.9102800583965
            ],
            [
              -111.396376926073,
              25.9100003581043
            ],
            [
              -111.398894228702,
              25.9139161621948
            ],
            [
              -111.400572430455,
              25.9161537645322
            ],
            [
              -111.399453629287,
              25.9183913668696
            ],
            [
              -111.391901721398,
              25.9211883697914
            ],
            [
              -111.390503219937,
              25.9164334648244
            ],
            [
              -111.39218142169,
              25.914195862487
            ],
            [
              -111.390782920229,
              25.9094409575199
            ],
            [
              -111.38323101234,
              25.9083221563512
            ],
            [
              -111.383510712632,
              25.914195862487
            ],
            [
              -111.381832510879,
              25.9144755627791
            ],
            [
              -111.379874608834,
              25.9122379604417
            ],
            [
              -111.375679104451,
              25.9102800583965
            ],
            [
              -111.370924199484,
              25.9083221563512
            ],
            [
              -111.370924199484,
              25.9044063522607
            ],
            [
              -111.372322700945,
              25.9035672513842
            ],
            [
              -111.375119703867,
              25.9004905481702
            ],
            [
              -111.376518205328,
              25.8943371417423
            ],
            [
              -111.37931520825,
              25.8907010379439
            ],
            [
              -111.381832510879,
              25.8873446344378
            ],
            [
              -111.384070113217,
              25.8901416373596
            ],
            [
              -111.387706217015,
              25.8879040350221
            ],
            [
              -111.392740822274,
              25.8879040350221
            ],
            [
              -111.396656626365,
              25.8834288303473
            ],
            [
              -111.39609722578,
              25.8800724268411
            ],
            [
              -111.384070113217,
              25.8817506285942
            ],
            [
              -111.381552810587,
              25.8831491300551
            ],
            [
              -111.379594908542,
              25.8853867323925
            ],
            [
              -111.375399404159,
              25.8873446344378
            ],
            [
              -111.372602401237,
              25.8912604385283
            ],
            [
              -111.371203899777,
              25.8934980408657
            ],
            [
              -111.359736187797,
              25.8929386402814
            ],
            [
              -111.362253490427,
              25.8909807382361
            ],
            [
              -111.364211392472,
              25.8879040350221
            ],
            [
              -111.358897086921,
              25.8831491300551
            ],
            [
              -111.358057986044,
              25.8811912280098
            ],
            [
              -111.352184279908,
              25.8722408186601
            ],
            [
              -111.358337686336,
              25.8778348245037
            ],
            [
              -111.361134689258,
              25.8747581212897
            ],
            [
              -111.36393169218,
              25.8700032163227
            ],
            [
              -111.362253490427,
              25.8674859136931
            ],
            [
              -111.365330193641,
              25.8635701096025
            ],
            [
              -111.367288095686,
              25.8576964034668
            ],
            [
              -111.371763300361,
              25.8632904093104
            ],
            [
              -111.379594908542,
              25.8688844151539
            ],
            [
              -111.378196407081,
              25.8652483113556
            ],
            [
              -111.379874608834,
              25.859654305512
            ],
            [
              -111.375958804744,
              25.8576964034668
            ],
            [
              -111.372602401237,
              25.8557385014215
            ],
            [
              -111.372602401237,
              25.8521023976232
            ],
            [
              -111.372322700945,
              25.8484662938249
            ],
            [
              -111.368686597147,
              25.8487459941171
            ],
            [
              -111.366728695102,
              25.8481865935327
            ],
            [
              -111.364770793056,
              25.8448301900266
            ],
            [
              -111.363092591303,
              25.8400752850595
            ],
            [
              -111.360575288674,
              25.8358797806768
            ],
            [
              -111.359736187797,
              25.8350406798003
            ],
            [
              -111.358897086921,
              25.8350406798003
            ],
            [
              -111.357778285752,
              25.8381173830143
            ],
            [
              -111.357218885168,
              25.8414737865204
            ],
            [
              -111.354142181954,
              25.8389564838908
            ],
            [
              -111.350785778447,
              25.8383970833064
            ],
            [
              -111.349107576694,
              25.8386767835986
            ],
            [
              -111.347149674649,
              25.8403549853517
            ],
            [
              -111.34603087348,
              25.8431519882735
            ],
            [
              -111.344352671727,
              25.8484662938249
            ],
            [
              -111.341835369098,
              25.8493053947014
            ],
            [
              -111.33959776676,
              25.8476271929483
            ],
            [
              -111.339038366176,
              25.8414737865204
            ],
            [
              -111.338199265299,
              25.840914385936
            ],
            [
              -111.338478965592,
              25.8381173830142
            ],
            [
              -111.33959776676,
              25.8358797806768
            ],
            [
              -111.340996268221,
              25.8333624780472
            ],
            [
              -111.343513570851,
              25.8347609795081
            ],
            [
              -111.347149674649,
              25.8347609795081
            ],
            [
              -111.350226377863,
              25.8322436768785
            ],
            [
              -111.354421882246,
              25.8316842762941
            ],
            [
              -111.356379784291,
              25.8291669736645
            ],
            [
              -111.356379784291,
              25.8246917689897
            ],
            [
              -111.354142181954,
              25.8207759648992
            ],
            [
              -111.35106547874,
              25.8168601608086
            ],
            [
              -111.347429374941,
              25.8140631578869
            ],
            [
              -111.34603087348,
              25.809587953212
            ],
            [
              -111.342954170266,
              25.8039939473684
            ],
            [
              -111.344912072312,
              25.798679641817
            ],
            [
              -111.344072971435,
              25.7964420394796
            ],
            [
              -111.342394769682,
              25.79392473685
            ],
            [
              -111.340436867637,
              25.7925262353891
            ],
            [
              -111.338478965592,
              25.7911277339282
            ],
            [
              -111.338199265299,
              25.7880510307142
            ],
            [
              -111.338478965592,
              25.7835758260393
            ],
            [
              -111.336521063546,
              25.7804991228254
            ],
            [
              -111.335122562085,
              25.7771427193192
            ],
            [
              -111.336800763838,
              25.7749051169818
            ],
            [
              -111.337639864715,
              25.7704299123069
            ],
            [
              -111.340716567929,
              25.7729472149365
            ],
            [
              -111.338758665884,
              25.7687517105539
            ],
            [
              -111.336800763838,
              25.7631577047103
            ],
            [
              -111.332325559164,
              25.7558854971136
            ],
            [
              -111.32924885595,
              25.7514102924388
            ],
            [
              -111.327850354489,
              25.7488929898091
            ],
            [
              -111.324773651275,
              25.7477741886404
            ],
            [
              -111.323375149814,
              25.7441380848421
            ],
            [
              -111.324773651275,
              25.7407816813359
            ],
            [
              -111.326172152736,
              25.7385440789985
            ],
            [
              -111.326172152736,
              25.7343485746158
            ],
            [
              -111.327570654197,
              25.7293139693566
            ],
            [
              -111.329528556242,
              25.7256778655583
            ],
            [
              -111.32673155332,
              25.7223214620521
            ],
            [
              -111.324493950983,
              25.7209229605912
            ],
            [
              -111.318060844263,
              25.7186853582538
            ],
            [
              -111.31386533988,
              25.7200838597147
            ],
            [
              -111.309949535789,
              25.7242793640974
            ],
            [
              -111.308271334036,
              25.7198041594225
            ],
            [
              -111.311907437835,
              25.7181259576694
            ],
            [
              -111.311068336958,
              25.7139304532868
            ],
            [
              -111.30743223316,
              25.7125319518259
            ],
            [
              -111.304355529946,
              25.7105740497806
            ],
            [
              -111.304355529946,
              25.7074973465666
            ],
            [
              -111.302677328193,
              25.7041409430605
            ],
            [
              -111.300160025563,
              25.7021830410152
            ],
            [
              -111.29848182381,
              25.7013439401387
            ],
            [
              -111.297363022641,
              25.6988266375091
            ],
            [
              -111.297363022641,
              25.6960296345873
            ],
            [
              -111.297363022641,
              25.6943514328342
            ],
            [
              -111.301558527024,
              25.6935123319577
            ],
            [
              -111.303236728777,
              25.6935123319577
            ],
            [
              -111.30491493053,
              25.6935123319577
            ],
            [
              -111.307991633744,
              25.6951905337108
            ],
            [
              -111.308830734621,
              25.6968687354638
            ],
            [
              -111.313305939295,
              25.7035815424761
            ],
            [
              -111.315543541633,
              25.7083364474432
            ],
            [
              -111.316382642509,
              25.7063785453979
            ],
            [
              -111.316382642509,
              25.7044206433527
            ],
            [
              -111.315823241925,
              25.7007845395543
            ],
            [
              -111.314984141049,
              25.697148435756
            ],
            [
              -111.313026239003,
              25.694071732542
            ],
            [
              -111.312466838419,
              25.6898762281594
            ],
            [
              -111.311068336958,
              25.6876386258219
            ],
            [
              -111.308551034328,
              25.689316827575
            ],
            [
              -111.305754031407,
              25.6895965278672
            ],
            [
              -111.3023976279,
              25.6884777266985
            ],
            [
              -111.300439725855,
              25.6870792252376
            ],
            [
              -111.297083322349,
              25.6887574269906
            ],
            [
              -111.296803622057,
              25.6909950293281
            ],
            [
              -111.294566019719,
              25.692393530789
            ],
            [
              -111.291489316505,
              25.6907153290359
            ],
            [
              -111.287853212707,
              25.6907153290359
            ],
            [
              -111.286454711246,
              25.6865198246532
            ],
            [
              -111.282818607448,
              25.6851213231923
            ],
            [
              -111.283378008032,
              25.6820446199783
            ],
            [
              -111.27918250365,
              25.6817649196862
            ],
            [
              -111.27918250365,
              25.6842822223158
            ],
            [
              -111.278902803357,
              25.6856807237767
            ],
            [
              -111.277224601604,
              25.6876386258219
            ],
            [
              -111.276385500728,
              25.6865198246532
            ],
            [
              -111.273588497806,
              25.686240124361
            ],
            [
              -111.273308797514,
              25.6881980264063
            ],
            [
              -111.269113293131,
              25.6881980264063
            ],
            [
              -111.266875690794,
              25.689316827575
            ],
            [
              -111.268553892547,
              25.6915544299124
            ],
            [
              -111.2702320943,
              25.694071732542
            ],
            [
              -111.272749396929,
              25.6929529313733
            ],
            [
              -111.274427598683,
              25.692393530789
            ],
            [
              -111.27666520102,
              25.6929529313733
            ],
            [
              -111.279741904234,
              25.6937920322499
            ],
            [
              -111.282818607448,
              25.697148435756
            ],
            [
              -111.278902803357,
              25.697148435756
            ],
            [
              -111.27666520102,
              25.6993860380934
            ],
            [
              -111.273029097222,
              25.70022513897
            ],
            [
              -111.273029097222,
              25.7027424415996
            ],
            [
              -111.27414789839,
              25.7055394445214
            ],
            [
              -111.273868198098,
              25.7091755483197
            ],
            [
              -111.273029097222,
              25.7060988451057
            ],
            [
              -111.26771479167,
              25.7033018421839
            ],
            [
              -111.26379898758,
              25.7005048392622
            ],
            [
              -111.252610975893,
              25.6943514328342
            ],
            [
              -111.253450076769,
              25.6982672369247
            ],
            [
              -111.25093277414,
              25.6982672369247
            ],
            [
              -111.249813972971,
              25.70022513897
            ],
            [
              -111.246737269757,
              25.7005048392622
            ],
            [
              -111.246457569465,
              25.703301842184
            ],
            [
              -111.245338768296,
              25.7052597442292
            ],
            [
              -111.245338768296,
              25.7072176462745
            ],
            [
              -111.247856070926,
              25.7072176462745
            ],
            [
              -111.25093277414,
              25.7083364474432
            ],
            [
              -111.253729777061,
              25.7102943494884
            ],
            [
              -111.253729777061,
              25.7130913524102
            ],
            [
              -111.249254572386,
              25.7130913524102
            ],
            [
              -111.249254572386,
              25.7147695541633
            ],
            [
              -111.24841547151,
              25.7161680556242
            ],
            [
              -111.245059068004,
              25.7136507529946
            ],
            [
              -111.243660566543,
              25.7130913524102
            ],
            [
              -111.243380866251,
              25.7108537500728
            ],
            [
              -111.239744762452,
              25.7091755483197
            ],
            [
              -111.237507160115,
              25.7088958480275
            ],
            [
              -111.234989857485,
              25.7066582456901
            ],
            [
              -111.23554925807,
              25.7041409430605
            ],
            [
              -111.233871056317,
              25.7021830410152
            ],
            [
              -111.232472554856,
              25.6993860380934
            ],
            [
              -111.23051465281,
              25.697148435756
            ],
            [
              -111.227158249304,
              25.6996657383856
            ],
            [
              -111.224361246383,
              25.7007845395543
            ],
            [
              -111.221004842876,
              25.7005048392622
            ],
            [
              -111.218767240539,
              25.6977078363404
            ],
            [
              -111.220165742,
              25.6954702340029
            ],
            [
              -111.219326641123,
              25.6926732310811
            ],
            [
              -111.221564243461,
              25.6901559284515
            ],
            [
              -111.225759747843,
              25.6870792252376
            ],
            [
              -111.228556750765,
              25.6873589255297
            ],
            [
              -111.233871056317,
              25.6890371272828
            ],
            [
              -111.232192854564,
              25.686240124361
            ],
            [
              -111.232192854564,
              25.6820446199783
            ],
            [
              -111.231074053395,
              25.6786882164722
            ],
            [
              -111.22911615135,
              25.6770100147191
            ],
            [
              -111.22659884872,
              25.6742130117973
            ],
            [
              -111.22911615135,
              25.6747724123817
            ],
            [
              -111.227997350181,
              25.6602279971884
            ],
            [
              -111.231353753687,
              25.6574309942666
            ],
            [
              -111.235828958362,
              25.65659189339
            ],
            [
              -111.236947759531,
              25.6540745907604
            ],
            [
              -111.237786860407,
              25.6501587866699
            ],
            [
              -111.240304163037,
              25.647082083456
            ],
            [
              -111.250373373555,
              25.6350549708923
            ],
            [
              -111.249534272679,
              25.6322579679705
            ],
            [
              -111.234710157193,
              25.6445647808263
            ],
            [
              -111.23554925807,
              25.6468023831638
            ],
            [
              -111.232752255148,
              25.6482008846247
            ],
            [
              -111.230234952518,
              25.6493196857934
            ],
            [
              -111.227717649889,
              25.6501587866699
            ],
            [
              -111.224640946675,
              25.6509978875465
            ],
            [
              -111.221004842876,
              25.6529557895917
            ],
            [
              -111.220165742,
              25.6551933919291
            ],
            [
              -111.219606341415,
              25.6574309942666
            ],
            [
              -111.219606341415,
              25.6593888963118
            ],
            [
              -111.219606341415,
              25.6630250001102
            ],
            [
              -111.218207839955,
              25.6630250001102
            ],
            [
              -111.215410837033,
              25.665822003032
            ],
            [
              -111.214851436448,
              25.6560324928057
            ],
            [
              -111.216809338494,
              25.6532354898839
            ],
            [
              -111.217368739078,
              25.6523963890074
            ],
            [
              -111.219606341415,
              25.6495993860856
            ],
            [
              -111.220725142584,
              25.6490399855012
            ],
            [
              -111.222962744922,
              25.6456835819951
            ],
            [
              -111.224361246383,
              25.6428865790733
            ],
            [
              -111.211774733234,
              25.6428865790733
            ],
            [
              -111.211495032942,
              25.6448444811185
            ],
            [
              -111.210935632358,
              25.6476414840403
            ],
            [
              -111.209537130897,
              25.6473617837481
            ],
            [
              -111.20869803002,
              25.6442850805342
            ],
            [
              -111.209257430605,
              25.6420474781967
            ],
            [
              -111.210935632358,
              25.6395301755671
            ],
            [
              -111.210935632358,
              25.6347752706001
            ],
            [
              -111.210655932066,
              25.6305797662174
            ],
            [
              -111.208977730313,
              25.6289015644643
            ],
            [
              -111.208977730313,
              25.6266639621269
            ],
            [
              -111.210376231774,
              25.6247060600816
            ],
            [
              -111.210376231774,
              25.6224684577442
            ],
            [
              -111.211774733234,
              25.6193917545302
            ],
            [
              -111.211774733234,
              25.6168744519006
            ],
            [
              -111.210935632358,
              25.614357149271
            ],
            [
              -111.20729952856,
              25.6149165498554
            ],
            [
              -111.20478222593,
              25.6171541521928
            ],
            [
              -111.204222825346,
              25.6185526536537
            ],
            [
              -111.201705522716,
              25.6185526536537
            ],
            [
              -111.201705522716,
              25.6149165498554
            ],
            [
              -111.201705522716,
              25.6146368495632
            ],
            [
              -111.203943125053,
              25.6118398466414
            ],
            [
              -111.205901027099,
              25.6110007457649
            ],
            [
              -111.205901027099,
              25.6093225440118
            ],
            [
              -111.204222825346,
              25.6073646419665
            ],
            [
              -111.201985223008,
              25.603448837876
            ],
            [
              -111.201985223008,
              25.598693932909
            ],
            [
              -111.203663424761,
              25.598693932909
            ],
            [
              -111.207579228852,
              25.6000924343699
            ],
            [
              -111.210096531481,
              25.6006518349542
            ],
            [
              -111.21121533265,
              25.5998127340777
            ],
            [
              -111.214012335572,
              25.5981345323246
            ],
            [
              -111.211495032942,
              25.5967360308637
            ],
            [
              -111.209537130897,
              25.5950578291107
            ],
            [
              -111.205901027099,
              25.5933796273576
            ],
            [
              -111.20478222593,
              25.592540526481
            ],
            [
              -111.202824323885,
              25.5911420250201
            ],
            [
              -111.200027320963,
              25.590862324728
            ],
            [
              -111.198628819502,
              25.590862324728
            ],
            [
              -111.196111516872,
              25.5936593276498
            ],
            [
              -111.193314513951,
              25.5933796273576
            ],
            [
              -111.192755113366,
              25.590862324728
            ],
            [
              -111.192475413074,
              25.5891841229749
            ],
            [
              -111.189958110444,
              25.5866668203453
            ],
            [
              -111.189958110444,
              25.5849886185922
            ],
            [
              -111.18548290577,
              25.5827510162548
            ],
            [
              -111.185203205477,
              25.5810728145017
            ],
            [
              -111.184923505185,
              25.5779961112877
            ],
            [
              -111.183525003724,
              25.5791149124564
            ],
            [
              -111.182406202556,
              25.5810728145017
            ],
            [
              -111.180168600218,
              25.5805134139173
            ],
            [
              -111.177930997881,
              25.5805134139173
            ],
            [
              -111.17653249642,
              25.5791149124564
            ],
            [
              -111.177091897004,
              25.5746397077816
            ],
            [
              -111.179609199634,
              25.5740803071972
            ],
            [
              -111.181846801971,
              25.572122405152
            ],
            [
              -111.184364104601,
              25.5696051025224
            ],
            [
              -111.184084404309,
              25.5684863013536
            ],
            [
              -111.18296560314,
              25.5648501975553
            ],
            [
              -111.182685902848,
              25.5626125952179
            ],
            [
              -111.180168600218,
              25.5626125952179
            ],
            [
              -111.177651297589,
              25.5628922955101
            ],
            [
              -111.176252796128,
              25.5623328949257
            ],
            [
              -111.17653249642,
              25.5609343934648
            ],
            [
              -111.17401519379,
              25.5592561917117
            ],
            [
              -111.172336992037,
              25.5592561917117
            ],
            [
              -111.171218190869,
              25.5595358920039
            ],
            [
              -111.170938490576,
              25.5603749928804
            ],
            [
              -111.169539989115,
              25.5617734943414
            ],
            [
              -111.169260288823,
              25.5592561917117
            ],
            [
              -111.168421187947,
              25.5553403876212
            ],
            [
              -111.166742986194,
              25.5531027852838
            ],
            [
              -111.167302386778,
              25.5514245835307
            ],
            [
              -111.168980588531,
              25.550305782362
            ],
            [
              -111.168421187947,
              25.5489072809011
            ],
            [
              -111.168421187947,
              25.5480681800246
            ],
            [
              -111.168700888239,
              25.5469493788559
            ],
            [
              -111.169260288823,
              25.5441523759341
            ],
            [
              -111.170379089992,
              25.5419147735966
            ],
            [
              -111.169260288823,
              25.5413553730123
            ],
            [
              -111.168980588531,
              25.5396771712592
            ],
            [
              -111.16758208707,
              25.539397470967
            ],
            [
              -111.166742986194,
              25.5382786697983
            ],
            [
              -111.131221049087,
              25.5385583700905
            ]
          ]
        ]
      },
      "properties": {
        "Zona_Influ": "Zona_Influ"
      }
    }
  ]
}