{"type": "FeatureCollection", "name": "aguas_subterraneas", "features": [{"type": "Feature", "id": 1, "properties": {"AGRESIVA": "NEUTRA", "CA": 28, "CACO3": 198.5, "CALIDAD": "C3-S1", "CE": 0.99, "CL": 181, "CO3": 0, "DTD": 5.1, "EQUIPO": "COMBUSTIBLE", "FC": 562, "FECHA": "1983/09/10", "HCO3": 207.4, "ID": 5, "K": 7.4, "MG": 30.8, "NA": 142.6, "ND": 999.99, "NE": 7, "NO3": 2.5, "OBRA": "NORIA", "OBSERVACIO": "NINGUNA", "PH": 8.2, "PTO": 8, "Q": 9999.99, "RAS": 4.4, "SO4": 62.4, "SOLIDOS": 662, "T": 999.9, "USO": "DOMESTICO", "UTM_X": 422953.813, "UTM_Y": 2936328.8, "fid": 1, "layer": "Pozos_Norias_Loreto", "path": "C:/Users/Brenda Garcia/Eco Alianza de Loreto A.C/Conservacion Marino Costera - Documentos/Conservacion de Cuencas/Prototipo Plataforma WEB/POEL/geojson en proceso/Capas x Convertir a geojson/CONAGUA Aguas subterráneas Loreto/ag1205v.shp"}, "geometry": {"type": "Point", "coordinates": [-111.77346467971802, 26.54549869194168]}}, {"type": "Feature", "id": 1, "properties": {"AGRESIVA": "AGRESIVA", "CA": 46, "CACO3": 237.5, "CALIDAD": "C3-S1", "CE": 0.9, "CL": 92.3, "CO3": 18, "DTD": 5.1, "EQUIPO": "AEROMOTOR", "FC": 562, "FECHA": "1983/09/10", "HCO3": 256.2, "ID": 7, "K": 1.6, "MG": 29.4, "NA": 104.6, "ND": 999.99, "NE": 16.4, "NO3": 2.5, "OBRA": "NORIA", "OBSERVACIO": "NINGUNA", "PH": 7.5, "PTO": 25, "Q": 9999.99, "RAS": 3, "SO4": 73, "SOLIDOS": 624, "T": 999.9, "USO": "DOMESTICO Y PECUARIO", "UTM_X": 433756.555, "UTM_Y": 2920780.424, "fid": 3, "layer": "Pozos_Norias_Loreto", "path": "C:/Users/Brenda Garcia/Eco Alianza de Loreto A.C/Conservacion Marino Costera - Documentos/Conservacion de Cuencas/Prototipo Plataforma WEB/POEL/geojson en proceso/Capas x Convertir a geojson/CONAGUA Aguas subterráneas Loreto/ag1205v.shp"}, "geometry": {"type": "Point", "coordinates": [-111.66420221328735, 26.405669699305108]}}, {"type": "Feature", "id": 2, "properties": {"AGRESIVA": "AGRESIVA", "CA": 64, "CACO3": 312.5, "CALIDAD": "C3-S1", "CE": 1.28, "CL": 134.9, "CO3": 0, "DTD": 5.1, "EQUIPO": "COMBUSTIBLE", "FC": 562, "FECHA": "1983/09/11", "HCO3": 347.7, "ID": 9, "K": 2.3, "MG": 36.6, "NA": 127.9, "ND": 999.99, "NE": 3, "NO3": 2.5, "OBRA": "NORIA", "OBSERVACIO": "NINGUNA", "PH": 7.4, "PTO": 5, "Q": 9999.99, "RAS": 3.1, "SO4": 83, "SOLIDOS": 799, "T": 999.9, "USO": "DOMESTICO Y PECUARIO", "UTM_X": 430851.129, "UTM_Y": 2917450.592, "fid": 5, "layer": "Pozos_Norias_Loreto", "path": "C:/Users/Brenda Garcia/Eco Alianza de Loreto A.C/Conservacion Marino Costera - Documentos/Conservacion de Cuencas/Prototipo Plataforma WEB/POEL/geojson en proceso/Capas x Convertir a geojson/CONAGUA Aguas subterráneas Loreto/ag1205v.shp"}, "geometry": {"type": "Point", "coordinates": [-111.6931700706482, 26.37545356365229]}}, {"type": "Feature", "id": 1, "properties": {"AGRESIVA": "AGRESIVA", "CA": 26, "CACO3": 152, "CALIDAD": "C3-S1", "CE": 0.85, "CL": 99.4, "CO3": 12, "DTD": 5.1, "EQUIPO": "COMBUSTIBLE", "FC": 562, "FECHA": "1983/09/11", "HCO3": 268.4, "ID": 6, "K": 6.2, "MG": 20.9, "NA": 126.5, "ND": 999.99, "NE": 2, "NO3": 2.5, "OBRA": "NORIA", "OBSERVACIO": "NINGUNA", "PH": 7.9, "PTO": 3, "Q": 9999.99, "RAS": 4.5, "SO4": 41.3, "SOLIDOS": 603, "T": 999.9, "USO": "DOMESTICO Y PECUARIO", "UTM_X": 445159.052, "UTM_Y": 2935809.338, "fid": 2, "layer": "Pozos_Norias_Loreto", "path": "C:/Users/Brenda Garcia/Eco Alianza de Loreto A.C/Conservacion Marino Costera - Documentos/Conservacion de Cuencas/Prototipo Plataforma WEB/POEL/geojson en proceso/Capas x Convertir a geojson/CONAGUA Aguas subterráneas Loreto/ag1205v.shp"}, "geometry": {"type": "Point", "coordinates": [-111.55051946640015, 26.54183227392772]}}, {"type": "Feature", "id": 1, "properties": {"FC": 600, "ID": "N", "OBRA": "POZO", "UTM_X": 444133.117, "UTM_Y": 2908918.226, "fid": 14, "layer": "Pozos_Agua_Loreto", "path": "C:/Users/Brenda Garcia/Eco Alianza de Loreto A.C/Conservacion Marino Costera - Documentos/Conservacion de Cuencas/Prototipo Plataforma WEB/POEL/geojson en proceso/Capas x Convertir a geojson/CONAGUA Aguas subterráneas Loreto/ng1205v.shp"}, "geometry": {"type": "Point", "coordinates": [-111.5596604347229, 26.299013012020634]}}, {"type": "Feature", "id": 2, "properties": {"AGRESIVA": "INCRUSTANTE", "CA": 92, "CACO3": 735, "CALIDAD": "C4-S2", "CE": 3.49, "CL": 837.8, "CO3": 0, "DTD": 20.3, "EQUIPO": "COMBUSTIBLE", "FC": 598, "FECHA": "1983/09/19", "HCO3": 262.3, "ID": 11, "K": 21.8, "MG": 121.2, "NA": 421.4, "ND": 999.99, "NE": 23.2, "NO3": 3.7, "OBRA": "POZO", "OBSERVACIO": "NINGUNA", "PH": 8, "PTO": 91.4, "Q": 9999.99, "RAS": 6.8, "SO4": 187.7, "SOLIDOS": 1948, "T": 999.9, "USO": "RIEGO, DOMESTICO Y PECUARIO", "UTM_X": 445261.412, "UTM_Y": 2907172.135, "fid": 7, "layer": "Pozos_Norias_Loreto", "path": "C:/Users/Brenda Garcia/Eco Alianza de Loreto A.C/Conservacion Marino Costera - Documentos/Conservacion de Cuencas/Prototipo Plataforma WEB/POEL/geojson en proceso/Capas x Convertir a geojson/CONAGUA Aguas subterráneas Loreto/ag1205v.shp"}, "geometry": {"type": "Point", "coordinates": [-111.54826641082764, 26.283276343599198]}}, {"type": "Feature", "id": 3, "properties": {"AGRESIVA": "INCRUSTANTE", "CA": 26, "CACO3": 121.5, "CALIDAD": "C3-S3", "CE": 1.74, "CL": 315.9, "CO3": 0, "DTD": 20.3, "EQUIPO": "COMBUSTIBLE", "FC": 597, "FECHA": "1983/09/19", "HCO3": 237.9, "ID": 12, "K": 12.1, "MG": 13.6, "NA": 280.8, "ND": 999.99, "NE": 34.5, "NO3": 3.7, "OBRA": "POZO", "OBSERVACIO": "NINGUNA", "PH": 8.2, "PTO": 91.4, "Q": 9999.99, "RAS": 11.1, "SO4": 73, "SOLIDOS": 963, "T": 999.9, "USO": "RIEGO", "UTM_X": 443170.888, "UTM_Y": 2906691.616, "fid": 8, "layer": "Pozos_Norias_Loreto", "path": "C:/Users/Brenda Garcia/Eco Alianza de Loreto A.C/Conservacion Marino Costera - Documentos/Conservacion de Cuencas/Prototipo Plataforma WEB/POEL/geojson en proceso/Capas x Convertir a geojson/CONAGUA Aguas subterráneas Loreto/ag1205v.shp"}, "geometry": {"type": "Point", "coordinates": [-111.5691876411438, 26.278870463433652]}}, {"type": "Feature", "id": 4, "properties": {"AGRESIVA": "INCRUSTANTE", "CA": 28, "CACO3": 265, "CALIDAD": "C4-S4", "CE": 11, "CL": 2474.3, "CO3": 84, "DTD": 20.3, "EQUIPO": "COMBUSTIBLE", "FC": 598, "FECHA": "1983/09/19", "HCO3": 255.7, "ID": 10, "K": 12.9, "MG": 46.8, "NA": 2177, "ND": 999.99, "NE": 23.5, "NO3": 3.7, "OBRA": "POZO", "OBSERVACIO": "NINGUNA", "PH": 8.9, "PTO": 76.2, "Q": 60, "RAS": 58.2, "SO4": 897.1, "SOLIDOS": 5980, "T": 999.9, "USO": "RIEGO", "UTM_X": 443005.807, "UTM_Y": 2910117.634, "fid": 6, "layer": "Pozos_Norias_Loreto", "path": "C:/Users/Brenda Garcia/Eco Alianza de Loreto A.C/Conservacion Marino Costera - Documentos/Conservacion de Cuencas/Prototipo Plataforma WEB/POEL/geojson en proceso/Capas x Convertir a geojson/CONAGUA Aguas subterráneas Loreto/ag1205v.shp"}, "geometry": {"type": "Point", "coordinates": [-111.57099008560182, 26.30978504984987]}}, {"type": "Feature", "id": 1, "properties": {"AGRESIVA": "AGRESIVA", "CA": 40, "CACO3": 213, "CALIDAD": "C3-S2", "CE": 1.34, "CL": 142, "CO3": 12, "DTD": 99.99, "EQUIPO": "NINGUNO", "FC": 562, "FECHA": "1983/09/18", "HCO3": 433.1, "ID": 8, "K": 4.7, "MG": 27.1, "NA": 198, "ND": 999.99, "NE": 8, "NO3": 3.7, "OBRA": "NORIA", "OBSERVACIO": "NINGUNA", "PH": 7.7, "PTO": 9999.99, "Q": 9999.99, "RAS": 5.9, "SO4": 62.4, "SOLIDOS": 923, "T": 999.9, "USO": "PECUARIO Y DOMESTICO", "UTM_X": 447416.463, "UTM_Y": 2917721.944, "fid": 4, "layer": "Pozos_Norias_Loreto", "path": "C:/Users/Brenda Garcia/Eco Alianza de Loreto A.C/Conservacion Marino Costera - Documentos/Conservacion de Cuencas/Prototipo Plataforma WEB/POEL/geojson en proceso/Capas x Convertir a geojson/CONAGUA Aguas subterráneas Loreto/ag1205v.shp"}, "geometry": {"type": "Point", "coordinates": [-111.52713060379028, 26.378625475979444]}}, {"type": "Feature", "id": 1, "properties": {"AGRESIVA": "INCRUSTANTE", "CA": 68, "CACO3": 500, "CALIDAD": "C3-S2", "CE": 2.18, "CL": 330.1, "CO3": 0, "DTD": 20.3, "EQUIPO": "COMBUSTIBLE", "FC": 597, "FECHA": "1983/09/20", "HCO3": 311.1, "ID": 15, "K": 5.1, "MG": 79.2, "NA": 258.5, "ND": 999.99, "NE": 18, "NO3": 3.7, "OBRA": "POZO", "OBSERVACIO": "NINGUNA", "PH": 8.1, "PTO": 9999.99, "Q": 9999.99, "RAS": 5, "SO4": 291.8, "SOLIDOS": 1348, "T": 999.9, "USO": "RIEGO, DOMESTICO Y PECUARIO", "UTM_X": 457362.251, "UTM_Y": 2897963.825, "fid": 11, "layer": "Pozos_Norias_Loreto", "path": "C:/Users/Brenda Garcia/Eco Alianza de Loreto A.C/Conservacion Marino Costera - Documentos/Conservacion de Cuencas/Prototipo Plataforma WEB/POEL/geojson en proceso/Capas x Convertir a geojson/CONAGUA Aguas subterráneas Loreto/ag1205v.shp"}, "geometry": {"type": "Point", "coordinates": [-111.42677307128906, 26.200556444558732]}}, {"type": "Feature", "id": 2, "properties": {"AGRESIVA": "INCRUSTANTE", "CA": 10, "CACO3": 30.5, "CALIDAD": "C3-S4", "CE": 1.48, "CL": 227.2, "CO3": 24, "DTD": 99.99, "EQUIPO": "COMBUSTIBLE", "FC": 562, "FECHA": "1983/09/19", "HCO3": 335.5, "ID": 13, "K": 3.9, "MG": 1.3, "NA": 289.8, "ND": 999.99, "NE": 3, "NO3": 3.7, "OBRA": "NORIA", "OBSERVACIO": "NINGUNA", "PH": 8.9, "PTO": 9999.99, "Q": 9999.99, "RAS": 22.8, "SO4": 11, "SOLIDOS": 906, "T": 999.9, "USO": "PECUARIO Y DOMESTICO", "UTM_X": 456283.474, "UTM_Y": 2900453.75, "fid": 9, "layer": "Pozos_Norias_Loreto", "path": "C:/Users/Brenda Garcia/Eco Alianza de Loreto A.C/Conservacion Marino Costera - Documentos/Conservacion de Cuencas/Prototipo Plataforma WEB/POEL/geojson en proceso/Capas x Convertir a geojson/CONAGUA Aguas subterráneas Loreto/ag1205v.shp"}, "geometry": {"type": "Point", "coordinates": [-111.43765211105347, 26.22300325928112]}}, {"type": "Feature", "id": 3, "properties": {"FC": 600, "ID": "N", "OBRA": "POZO", "UTM_X": 458289.175, "UTM_Y": 2898613.885, "fid": 16, "layer": "Pozos_Agua_Loreto", "path": "C:/Users/Brenda Garcia/Eco Alianza de Loreto A.C/Conservacion Marino Costera - Documentos/Conservacion de Cuencas/Prototipo Plataforma WEB/POEL/geojson en proceso/Capas x Convertir a geojson/CONAGUA Aguas subterráneas Loreto/ng1205v.shp"}, "geometry": {"type": "Point", "coordinates": [-111.41750335693361, 26.206447708578317]}}, {"type": "Feature", "id": 4, "properties": {"AGRESIVA": "INCRUSTANTE", "CA": 104, "CACO3": 763, "CALIDAD": "C4-S4", "CE": 5.53, "CL": 1611.7, "CO3": 0, "DTD": 20.3, "EQUIPO": "COMBUSTIBLE", "FC": 598, "FECHA": "1983/09/19", "HCO3": 91.5, "ID": 14, "K": 25, "MG": 120.7, "NA": 734.2, "ND": 999.99, "NE": 13, "NO3": 3.7, "OBRA": "POZO", "OBSERVACIO": "NINGUNA", "PH": 8.4, "PTO": 61, "Q": 9999.99, "RAS": 11.6, "SO4": 20.6, "SOLIDOS": 2711, "T": 999.9, "USO": "RIEGO", "UTM_X": 459419.504, "UTM_Y": 2899270.669, "fid": 10, "layer": "Pozos_Norias_Loreto", "path": "C:/Users/Brenda Garcia/Eco Alianza de Loreto A.C/Conservacion Marino Costera - Documentos/Conservacion de Cuencas/Prototipo Plataforma WEB/POEL/geojson en proceso/Capas x Convertir a geojson/CONAGUA Aguas subterráneas Loreto/ag1205v.shp"}, "geometry": {"type": "Point", "coordinates": [-111.40621662139893, 26.21241567857744]}}, {"type": "Feature", "id": 5, "properties": {"FC": 600, "ID": "N", "OBRA": "POZO", "UTM_X": 459556.644, "UTM_Y": 2897243.096, "fid": 15, "layer": "Pozos_Agua_Loreto", "path": "C:/Users/Brenda Garcia/Eco Alianza de Loreto A.C/Conservacion Marino Costera - Documentos/Conservacion de Cuencas/Prototipo Plataforma WEB/POEL/geojson en proceso/Capas x Convertir a geojson/CONAGUA Aguas subterráneas Loreto/ng1205v.shp"}, "geometry": {"type": "Point", "coordinates": [-111.40477895736694, 26.194106516330738]}}, {"type": "Feature", "id": 1, "properties": {"AGRESIVA": "INCRUSTANTE", "CA": 74, "CACO3": 640, "CALIDAD": "C4-S2", "CE": 3.2, "CL": 532.5, "CO3": 0, "DTD": 5.1, "EQUIPO": "AEROMOTOR", "FC": 563, "FECHA": "1983/09/19", "HCO3": 329.4, "ID": 16, "K": 1.6, "MG": 109.2, "NA": 426, "ND": 999.99, "NE": 16, "NO3": 3.7, "OBRA": "NORIA", "OBSERVACIO": "NINGUNA", "PH": 7.7, "PTO": 9999.99, "Q": 9999.99, "RAS": 7.3, "SO4": 448.3, "SOLIDOS": 1925, "T": 999.9, "USO": "DOMESTICO, PECUARIO Y RIEGO", "UTM_X": 461083.174, "UTM_Y": 2896743.654, "fid": 12, "layer": "Pozos_Norias_Loreto", "path": "C:/Users/Brenda Garcia/Eco Alianza de Loreto A.C/Conservacion Marino Costera - Documentos/Conservacion de Cuencas/Prototipo Plataforma WEB/POEL/geojson en proceso/Capas x Convertir a geojson/CONAGUA Aguas subterráneas Loreto/ag1205v.shp"}, "geometry": {"type": "Point", "coordinates": [-111.38950109481812, 26.189639491012183]}}, {"type": "Feature", "id": 2, "properties": {"FC": 600, "ID": "N", "OBRA": "POZO", "UTM_X": 459556.644, "UTM_Y": 2897243.096, "fid": 15, "layer": "Pozos_Agua_Loreto", "path": "C:/Users/Brenda Garcia/Eco Alianza de Loreto A.C/Conservacion Marino Costera - Documentos/Conservacion de Cuencas/Prototipo Plataforma WEB/POEL/geojson en proceso/Capas x Convertir a geojson/CONAGUA Aguas subterráneas Loreto/ng1205v.shp"}, "geometry": {"type": "Point", "coordinates": [-111.40477895736694, 26.194106516330738]}}, {"type": "Feature", "id": 1, "properties": {"AGRESIVA": "INCRUSTANTE", "CA": 220, "CACO3": 1057, "CALIDAD": "C4-S1", "CE": 2.76, "CL": 710, "CO3": 0, "DTD": 15.2, "EQUIPO": "ELECTRICO", "FC": 598, "FECHA": "1983/09/20", "HCO3": 219.6, "ID": 18, "K": 0.8, "MG": 121.8, "NA": 151.1, "ND": 999.99, "NE": 16, "NO3": 3.7, "OBRA": "POZO", "OBSERVACIO": "NINGUNA", "PH": 7.6, "PTO": 9999.99, "Q": 9999.99, "RAS": 2, "SO4": 124.8, "SOLIDOS": 1552, "T": 999.9, "USO": "DOMESTICO", "UTM_X": 465932.676, "UTM_Y": 2875946.568, "fid": 13, "layer": "Pozos_Norias_Loreto", "path": "C:/Users/Brenda Garcia/Eco Alianza de Loreto A.C/Conservacion Marino Costera - Documentos/Conservacion de Cuencas/Prototipo Plataforma WEB/POEL/geojson en proceso/Capas x Convertir a geojson/CONAGUA Aguas subterráneas Loreto/ag1205v.shp"}, "geometry": {"type": "Point", "coordinates": [-111.34040594100954, 26.001966429062154]}}]}