{"type": "FeatureCollection", "name": "concesiones_canceladas", "features": [{"type": "Feature", "id": 1, "properties": {"agencia": 100, "condicion": "VIGENTE", "estamu": "B.C.", "expedicion": -2000632832, "expediente": "100/600", "municipio": "LORETO", "nombrelote": "SAN JUAN", "objectid": 31244, "superficie": "49896.468300000000454", "sust1": "Fe", "sust2": "Ag", "sust3": "Cu", "sust4": "Au", "sust5": "Mn", "sust6": "V", "sust7": "B", "sust8": "Sr", "sust9": "Sb", "titular": "MANUEL SALVADOR BAEZA DAVIS Y SOCIOS", "titulo": 241631}, "geometry": {"type": "Polygon", "coordinates": [[[-111.6605758666981, 26.417392660189424], [-111.66057586667469, 26.417392660190576], [-111.55036926271984, 26.417392660190576], [-111.55036926269646, 26.417392660189428], [-111.55036926269531, 26.417392660166062], [-111.55036926269531, 26.30911182684104], [-111.55036926269646, 26.309111826817674], [-111.55036926271984, 26.309111826816526], [-111.57028198142189, 26.309111826816526], [-111.5702819815199, 26.309111826811712], [-111.57028198161697, 26.309111826797313], [-111.57028198171217, 26.309111826773467], [-111.57028198180457, 26.309111826740406], [-111.57028198189329, 26.309111826698448], [-111.57028198197746, 26.309111826647996], [-111.57028198205627, 26.309111826589536], [-111.57028198212899, 26.309111826523633], [-111.5702819821949, 26.30911182645092], [-111.57028198225335, 26.309111826372096], [-111.57028198230381, 26.30911182628792], [-111.57028198234576, 26.30911182619921], [-111.57028198237883, 26.30911182610681], [-111.57028198240268, 26.309111826011616], [-111.57028198241707, 26.309111825914542], [-111.57028198242189, 26.309111825816526], [-111.57028198242189, 26.24600386403502], [-111.57028198241707, 26.246003863937005], [-111.57028198240268, 26.24600386383993], [-111.57028198237883, 26.246003863744736], [-111.57028198234576, 26.246003863652337], [-111.57028198230381, 26.246003863563626], [-111.57028198225335, 26.24600386347945], [-111.5702819821949, 26.246003863400627], [-111.57028198212899, 26.246003863327914], [-111.57028198205627, 26.24600386326201], [-111.57028198197746, 26.24600386320355], [-111.57028198189329, 26.2460038631531], [-111.57028198180457, 26.24600386311114], [-111.57028198171217, 26.24600386307808], [-111.57028198161697, 26.246003863054234], [-111.5702819815199, 26.246003863039835], [-111.57028198142189, 26.24600386303502], [-111.55036926271984, 26.24600386303502], [-111.55036926269646, 26.246003863033874], [-111.55036926269531, 26.246003863010507], [-111.55036926269531, 26.21890309333762], [-111.5503692626905, 26.218903093239604], [-111.5503692626761, 26.21890309314253], [-111.55036926265225, 26.218903093047334], [-111.55036926261918, 26.218903092954935], [-111.55036926257723, 26.218903092866224], [-111.55036926252677, 26.21890309278205], [-111.55036926246832, 26.218903092703226], [-111.55036926240241, 26.218903092630512], [-111.5503692623297, 26.21890309256461], [-111.55036926225088, 26.21890309250615], [-111.55036926216671, 26.218903092455697], [-111.550369262078, 26.21890309241374], [-111.5503692619856, 26.21890309238068], [-111.5503692618904, 26.218903092356832], [-111.55036926179332, 26.218903092342433], [-111.55036926169531, 26.21890309233762], [-111.46522521975109, 26.21890309233762], [-111.46522521972771, 26.218903092336472], [-111.46522521972656, 26.218903092313106], [-111.46522521972656, 26.16653145367303], [-111.46522521972771, 26.166531453649664], [-111.46522521975109, 26.166531453648517], [-111.5393829345458, 26.166531453648517], [-111.53938293456918, 26.166531453649664], [-111.53938293457033, 26.16653145367303], [-111.53938293457033, 26.19148793603345], [-111.53938293456909, 26.19148793605775], [-111.53938293454522, 26.191487936062575], [-111.53732299889899, 26.19179600725415], [-111.53732299879944, 26.191796007274252], [-111.53732299870245, 26.191796007304344], [-111.53732299860901, 26.19179600734412], [-111.53732299852008, 26.191796007393165], [-111.5373229984366, 26.19179600745098], [-111.5373229983594, 26.19179600751696], [-111.5373229982893, 26.19179600759043], [-111.537322998227, 26.191796007670632], [-111.53732299817317, 26.19179600775674], [-111.53732299812833, 26.191796007847863], [-111.53732299809299, 26.19179600794306], [-111.53732299806747, 26.191796008041354], [-111.53732299805205, 26.19179600814173], [-111.53732299804689, 26.191796008243152], [-111.53732299804689, 26.209970772027884], [-111.53732299805174, 26.209970772126166], [-111.53732299806622, 26.209970772223496], [-111.53732299809019, 26.20997077231893], [-111.53732299812341, 26.20997077241155], [-111.53732299816559, 26.20997077250045], [-111.53732299821631, 26.20997077258478], [-111.53732299827506, 26.209970772663713], [-111.5373229983413, 26.20997077273649], [-111.53732299841435, 26.209970772802407], [-111.53732299849354, 26.209970772860824], [-111.53732299857808, 26.209970772911177], [-111.53732299866715, 26.20997077295298], [-111.53732299875992, 26.20997077298582], [-111.53732299885544, 26.20997077300939], [-111.53732299895285, 26.20997077302345], [-111.53732299905114, 26.209970773027873], [-111.60976409811778, 26.209662749797246], [-111.60976409821598, 26.209662749791995], [-111.60976409831319, 26.20966274977712], [-111.60976409840848, 26.20966274975277], [-111.6097640985009, 26.20966274971918], [-111.60976409858958, 26.20966274967667], [-111.60976409867366, 26.209662749625657], [-111.60976409875232, 26.209662749566633], [-111.60976409882481, 26.20966274950017], [-111.60976409889041, 26.209662749426904], [-111.6097640989485, 26.20966274934755], [-111.60976409899851, 26.209662749262876], [-111.60976409903996, 26.209662749173695], [-111.60976409907246, 26.209662749080877], [-111.60976409909568, 26.209662748985316], [-111.60976409910941, 26.209662748887933], [-111.6097640991135, 26.209662748789675], [-111.60942077637478, 26.16437447076623], [-111.60942077636922, 26.16437447066833], [-111.60942077635411, 26.16437447057145], [-111.60942077632959, 26.164374470476513], [-111.60942077629588, 26.164374470384434], [-111.60942077625332, 26.1643744702961], [-111.60942077620231, 26.16437447021236], [-111.60942077614334, 26.164374470134014], [-111.60942077607699, 26.16437447006182], [-111.60942077600389, 26.164374469996474], [-111.60942077592473, 26.1643744699386], [-111.60942077584029, 26.164374469888756], [-111.60942077575137, 26.164374469847424], [-111.60942077565883, 26.164374469814998], [-111.60942077556356, 26.164374469791788], [-111.60942077546649, 26.164374469778025], [-111.60942077536852, 26.164374469773833], [-111.56032562258329, 26.164682612764416], [-111.56032562255977, 26.164682612763407], [-111.56032562255861, 26.164682612739988], [-111.56032562255861, 26.103346125965917], [-111.56032562255379, 26.1033461258679], [-111.5603256225394, 26.103346125770827], [-111.56032562251555, 26.103346125675632], [-111.56032562248248, 26.103346125583233], [-111.56032562244053, 26.10334612549452], [-111.56032562239007, 26.103346125410347], [-111.56032562233162, 26.103346125331523], [-111.56032562226571, 26.10334612525881], [-111.56032562219299, 26.103346125192907], [-111.56032562211418, 26.103346125134447], [-111.56032562203, 26.103346125083995], [-111.56032562194129, 26.103346125042037], [-111.56032562184889, 26.103346125008976], [-111.56032562175369, 26.10334612498513], [-111.56032562165662, 26.10334612497073], [-111.5603256215586, 26.103346124965917], [-111.55208587648939, 26.103346124965917], [-111.55208587646601, 26.10334612496477], [-111.55208587646486, 26.103346124941403], [-111.55208587646486, 26.083612974917855], [-111.55208587646004, 26.08361297481984], [-111.55208587644564, 26.083612974722765], [-111.5520858764218, 26.08361297462757], [-111.55208587638873, 26.08361297453517], [-111.55208587634678, 26.08361297444646], [-111.55208587629632, 26.083612974362286], [-111.55208587623787, 26.08361297428346], [-111.55208587617196, 26.083612974210748], [-111.55208587609924, 26.083612974144845], [-111.55208587602043, 26.083612974086385], [-111.55208587593626, 26.083612974035933], [-111.55208587584754, 26.083612973993976], [-111.55208587575514, 26.083612973960914], [-111.55208587565994, 26.08361297393707], [-111.55208587556287, 26.08361297392267], [-111.55208587546485, 26.083612973917855], [-111.55139923098156, 26.083612973917855], [-111.55139923095818, 26.083612973916708], [-111.55139923095703, 26.08361297389334], [-111.55139923095703, 26.08299626031969], [-111.55139923095221, 26.082996260221673], [-111.55139923093782, 26.0829962601246], [-111.55139923091397, 26.082996260029404], [-111.5513992308809, 26.082996259937005], [-111.55139923083895, 26.082996259848294], [-111.55139923078849, 26.08299625976412], [-111.55139923073004, 26.082996259685295], [-111.55139923066413, 26.08299625961258], [-111.55139923059141, 26.08299625954668], [-111.5513992305126, 26.08299625948822], [-111.55139923042843, 26.082996259437767], [-111.55139923033971, 26.08299625939581], [-111.55139923024731, 26.082996259362748], [-111.55139923015211, 26.082996259338902], [-111.55139923005504, 26.082996259324503], [-111.55139922995703, 26.08299625931969], [-111.5421295166261, 26.08299625931969], [-111.54212951660273, 26.08299625931854], [-111.54212951660158, 26.082996259295175], [-111.54212951660158, 26.07436191476602], [-111.54212951659676, 26.074361914668003], [-111.54212951658236, 26.07436191457093], [-111.54212951655852, 26.074361914475734], [-111.54212951652545, 26.074361914383335], [-111.5421295164835, 26.074361914294624], [-111.54212951643304, 26.07436191421045], [-111.54212951637459, 26.074361914131625], [-111.54212951630868, 26.074361914058912], [-111.54212951623596, 26.07436191399301], [-111.54212951615715, 26.07436191393455], [-111.54212951607298, 26.074361913884097], [-111.54212951598426, 26.07436191384214], [-111.54212951589186, 26.074361913809078], [-111.54212951579666, 26.074361913785232], [-111.54212951569959, 26.074361913770833], [-111.54212951560157, 26.07436191376602], [-111.54109954836439, 26.07436191376602], [-111.54109954834101, 26.07436191376487], [-111.54109954833986, 26.074361913741505], [-111.54109954833986, 26.073745151430117], [-111.54109954833504, 26.0737451513321], [-111.54109954832064, 26.073745151235027], [-111.5410995482968, 26.073745151139832], [-111.54109954826373, 26.073745151047433], [-111.54109954822178, 26.07374515095872], [-111.54109954817132, 26.073745150874547], [-111.54109954811287, 26.073745150795723], [-111.54109954804696, 26.07374515072301], [-111.54109954797424, 26.073745150657107], [-111.54109954789543, 26.073745150598647], [-111.54109954781126, 26.073745150548195], [-111.54109954772254, 26.073745150506237], [-111.54109954763014, 26.073745150473176], [-111.54109954753494, 26.07374515044933], [-111.54109954743787, 26.07374515043493], [-111.54109954733985, 26.073745150430117], [-111.53114318947658, 26.073745150430117], [-111.53114318937857, 26.07374515043493], [-111.5311431892815, 26.07374515044933], [-111.5311431891863, 26.073745150473176], [-111.5311431890939, 26.073745150506237], [-111.53114318900518, 26.073745150548195], [-111.531143188921, 26.073745150598647], [-111.5311431888422, 26.073745150657107], [-111.53114318876948, 26.07374515072301], [-111.53114318870357, 26.073745150795723], [-111.53114318864512, 26.073745150874547], [-111.53114318859465, 26.07374515095872], [-111.5311431885527, 26.073745151047433], [-111.53114318851964, 26.073745151139832], [-111.53114318849579, 26.073745151235027], [-111.5311431884814, 26.0737451513321], [-111.53114318847658, 26.073745151430117], [-111.53114318847658, 26.08361297389334], [-111.53114318847543, 26.083612973916708], [-111.53114318845205, 26.083612973917855], [-111.52118682863782, 26.083612973917855], [-111.52118682861445, 26.083612973916708], [-111.5211868286133, 26.08361297389334], [-111.5211868286133, 26.062334442805206], [-111.52118682861445, 26.06233444278184], [-111.52118682863782, 26.062334442780692], [-111.52221679587501, 26.062334442780692], [-111.52221679597302, 26.062334442775878], [-111.5222167960701, 26.06233444276148], [-111.5222167961653, 26.062334442737633], [-111.5222167962577, 26.06233444270457], [-111.52221679634641, 26.062334442662614], [-111.52221679643058, 26.062334442612162], [-111.5222167965094, 26.062334442553702], [-111.52221679658211, 26.0623344424878], [-111.52221679664802, 26.062334442415086], [-111.52221679670647, 26.06233444233626], [-111.52221679675694, 26.062334442252087], [-111.52221679679889, 26.062334442163376], [-111.52221679683196, 26.062334442070977], [-111.5222167968558, 26.062334441975782], [-111.5222167968702, 26.062334441878708], [-111.52221679687501, 26.062334441780692], [-111.52221679687501, 26.053390139124318], [-111.5222167968702, 26.053390139026302], [-111.5222167968558, 26.053390138929228], [-111.52221679683196, 26.053390138834033], [-111.52221679679889, 26.053390138741634], [-111.52221679675694, 26.053390138652922], [-111.52221679670647, 26.053390138568748], [-111.52221679664802, 26.053390138489924], [-111.52221679658211, 26.05339013841721], [-111.5222167965094, 26.053390138351308], [-111.52221679643058, 26.053390138292848], [-111.52221679634641, 26.053390138242396], [-111.5222167962577, 26.053390138200438], [-111.5222167961653, 26.053390138167376], [-111.5222167960701, 26.05339013814353], [-111.52221679597302, 26.05339013812913], [-111.52221679587501, 26.053390138124318], [-111.52118682863782, 26.053390138124318], [-111.52118682861445, 26.05339013812317], [-111.5211868286133, 26.053390138099804], [-111.5211868286133, 26.03827579735355], [-111.52118682860848, 26.038275797255533], [-111.52118682859408, 26.03827579715846], [-111.52118682857024, 26.038275797063264], [-111.52118682853717, 26.038275796970865], [-111.52118682849522, 26.038275796882154], [-111.52118682844475, 26.03827579679798], [-111.5211868283863, 26.038275796719155], [-111.5211868283204, 26.03827579664644], [-111.52118682824768, 26.03827579658054], [-111.52118682816887, 26.03827579652208], [-111.5211868280847, 26.038275796471627], [-111.52118682799598, 26.03827579642967], [-111.52118682790358, 26.038275796396608], [-111.52118682780838, 26.038275796372762], [-111.5211868277113, 26.038275796358363], [-111.52118682761329, 26.03827579635355], [-111.50505065920423, 26.03827579635355], [-111.50505065918085, 26.0382757963524], [-111.5050506591797, 26.038275796329035], [-111.5050506591797, 26.03395705612608], [-111.50505065917488, 26.033957056028065], [-111.50505065916049, 26.03395705593099], [-111.50505065913664, 26.033957055835796], [-111.50505065910357, 26.033957055743397], [-111.50505065906162, 26.033957055654685], [-111.50505065901116, 26.03395705557051], [-111.50505065895271, 26.033957055491687], [-111.5050506588868, 26.033957055418973], [-111.50505065881408, 26.03395705535307], [-111.50505065873527, 26.03395705529461], [-111.5050506586511, 26.03395705524416], [-111.50505065856238, 26.0339570552022], [-111.50505065846998, 26.03395705516914], [-111.50505065837478, 26.033957055145294], [-111.50505065827771, 26.033957055130895], [-111.5050506581797, 26.03395705512608], [-111.48101806643079, 26.03395705512608], [-111.48101806640742, 26.033957055124933], [-111.48101806640626, 26.033957055101567], [-111.48101806640626, 26.03148913259968], [-111.48101806640145, 26.031489132501665], [-111.48101806638705, 26.03148913240459], [-111.4810180663632, 26.031489132309396], [-111.48101806633014, 26.031489132216997], [-111.48101806628819, 26.031489132128286], [-111.48101806623772, 26.03148913204411], [-111.48101806617927, 26.031489131965287], [-111.48101806611336, 26.031489131892574], [-111.48101806604065, 26.03148913182667], [-111.48101806596183, 26.03148913176821], [-111.48101806587766, 26.03148913171776], [-111.48101806578894, 26.0314891316758], [-111.48101806569655, 26.03148913164274], [-111.48101806560135, 26.031489131618894], [-111.48101806550427, 26.031489131604495], [-111.48101806540626, 26.03148913159968], [-111.48033142092298, 26.03148913159968], [-111.4803314208996, 26.031489131598534], [-111.48033142089845, 26.031489131575167], [-111.48033142089845, 26.024085050512653], [-111.48033142089363, 26.024085050414637], [-111.48033142087924, 26.024085050317563], [-111.48033142085539, 26.024085050222368], [-111.48033142082232, 26.02408505012997], [-111.48033142078037, 26.024085050041258], [-111.48033142072991, 26.024085049957083], [-111.48033142067146, 26.02408504987826], [-111.48033142060555, 26.024085049805546], [-111.48033142053283, 26.024085049739643], [-111.48033142045402, 26.024085049681183], [-111.48033142036985, 26.02408504963073], [-111.48033142028113, 26.024085049588773], [-111.48033142018873, 26.024085049555712], [-111.48033142009353, 26.024085049531866], [-111.48033141999646, 26.024085049517467], [-111.48033141989845, 26.024085049512653], [-111.4703750610597, 26.024085049512653], [-111.47037506103632, 26.024085049511505], [-111.47037506103517, 26.02408504948814], [-111.47037506103517, 26.011435328577388], [-111.47037506103632, 26.011435328554153], [-111.47037506105964, 26.01143532855297], [-111.64993286130364, 26.011126781744604], [-111.64993286132699, 26.01112678174571], [-111.64993286132818, 26.01112678176912], [-111.6502761840804, 26.21890309133927], [-111.65027618408537, 26.218903091437177], [-111.6502761840999, 26.218903091534127], [-111.65027618412385, 26.218903091629187], [-111.650276184157, 26.218903091721447], [-111.65027618419902, 26.218903091810017], [-111.6502761842495, 26.21890309189405], [-111.65027618430798, 26.21890309197273], [-111.65027618437388, 26.21890309204531], [-111.65027618444657, 26.218903092111088], [-111.65027618452534, 26.218903092169434], [-111.65027618460945, 26.218903092219783], [-111.6502761846981, 26.218903092261655], [-111.65027618479041, 26.21890309229465], [-111.65027618488551, 26.218903092318445], [-111.65027618498249, 26.218903092332813], [-111.6502761850804, 26.21890309233762], [-111.66023254392081, 26.21890309233762], [-111.66023254394419, 26.218903092338767], [-111.66023254394537, 26.218903092362005], [-111.66057586669919, 26.41739266016622], [-111.6605758666981, 26.417392660189424]]]}}, {"type": "Feature", "id": 1, "properties": {"agencia": 100, "condicion": "VIGENTE", "estamu": "B.C.S", "expedicion": -1894057984, "expediente": 477, "municipio": "COMONDU", "nombrelote": "LA VICTORIA", "objectid": 27286, "superficie": "19500.046399999999267", "sust1": "Cu", "sust2": "FOS", "sust3": "Au", "sust4": "Ag", "titular": "SOTERO GARCIA SANCHEZ Y SOCIOS", "titulo": 237778}, "geometry": {"type": "Polygon", "coordinates": [[[-111.09374999999885, 25.192515115192695], [-111.09374999999996, 25.19251511521621], [-111.09340667724616, 25.354885316342664], [-111.09340667724497, 25.354885316365806], [-111.09340667722157, 25.354885316366953], [-111.03847503664564, 25.354885316366953], [-111.03847503662226, 25.354885316365806], [-111.03847503662111, 25.35488531634244], [-111.03847503662111, 25.301510303409604], [-111.03847503661629, 25.301510303311588], [-111.0384750366019, 25.301510303214513], [-111.03847503657805, 25.30151030311932], [-111.03847503654498, 25.30151030302692], [-111.03847503650303, 25.30151030293821], [-111.03847503645257, 25.301510302854034], [-111.03847503639412, 25.30151030277521], [-111.03847503632821, 25.301510302702496], [-111.03847503625549, 25.301510302636594], [-111.03847503617668, 25.301510302578134], [-111.0384750360925, 25.30151030252768], [-111.03847503600379, 25.301510302485724], [-111.03847503591139, 25.301510302452662], [-111.03847503581619, 25.301510302428817], [-111.03847503571912, 25.301510302414417], [-111.0384750356211, 25.301510302409604], [-111.02886199953626, 25.301510302409604], [-111.02886199951288, 25.301510302408456], [-111.02886199951173, 25.30151030238509], [-111.02886199951173, 25.229168281105522], [-111.02886199950692, 25.229168281007507], [-111.02886199949252, 25.229168280910432], [-111.02886199946867, 25.229168280815237], [-111.0288619994356, 25.22916828072284], [-111.02886199939365, 25.229168280634127], [-111.02886199934319, 25.229168280549953], [-111.02886199928474, 25.22916828047113], [-111.02886199921883, 25.229168280398415], [-111.02886199914612, 25.229168280332512], [-111.0288619990673, 25.229168280274052], [-111.02886199898313, 25.2291682802236], [-111.02886199889441, 25.229168280181643], [-111.02886199880201, 25.22916828014858], [-111.02886199870682, 25.229168280124735], [-111.02886199860974, 25.229168280110336], [-111.02886199851173, 25.229168280105522], [-111.01890563967298, 25.229168280105522], [-111.0189056396496, 25.229168280104375], [-111.01890563964845, 25.22916828008101], [-111.01890563964845, 25.17511653262175], [-111.01890563964363, 25.175116532523734], [-111.01890563962924, 25.17511653242666], [-111.01890563960539, 25.175116532331465], [-111.01890563957232, 25.175116532239066], [-111.01890563953037, 25.175116532150355], [-111.01890563947991, 25.17511653206618], [-111.01890563942146, 25.175116531987356], [-111.01890563935555, 25.175116531914643], [-111.01890563928283, 25.17511653184874], [-111.01890563920402, 25.17511653179028], [-111.01890563911985, 25.175116531739828], [-111.01890563903113, 25.17511653169787], [-111.01890563893873, 25.17511653166481], [-111.01890563884353, 25.175116531640963], [-111.01890563874646, 25.175116531626564], [-111.01890563864845, 25.17511653162175], [-111.01718902590345, 25.17511653162175], [-111.01718902588007, 25.175116531620603], [-111.01718902587892, 25.175116531597237], [-111.01718902587892, 25.174184395542458], [-111.0171890258741, 25.174184395444442], [-111.01718902585971, 25.174184395347368], [-111.01718902583586, 25.174184395252173], [-111.0171890258028, 25.174184395159774], [-111.01718902576084, 25.174184395071062], [-111.01718902571038, 25.174184394986888], [-111.01718902565193, 25.174184394908064], [-111.01718902558602, 25.17418439483535], [-111.0171890255133, 25.174184394769448], [-111.01718902543449, 25.174184394710988], [-111.01718902535032, 25.174184394660536], [-111.0171890252616, 25.174184394618578], [-111.0171890251692, 25.174184394585517], [-111.017189025074, 25.17418439456167], [-111.01718902497693, 25.17418439454727], [-111.01718902487892, 25.174184394542458], [-110.9691238403567, 25.174184394542458], [-110.9691238403332, 25.1741843945413], [-110.96912384033216, 25.174184394517873], [-110.96946716308112, 25.102699346418436], [-110.96946716307674, 25.102699346320097], [-110.96946716306273, 25.102699346222668], [-110.9694671630392, 25.102699346127086], [-110.96946716300639, 25.10269934603428], [-110.9694671629646, 25.10269934594515], [-110.96946716291427, 25.10269934586056], [-110.96946716285585, 25.102699345781332], [-110.96946716278994, 25.102699345708228], [-110.96946716271715, 25.10269934564196], [-110.9694671626382, 25.102699345583165], [-110.96946716255385, 25.10269934553242], [-110.96946716246492, 25.102699345490215], [-110.96946716237228, 25.102699345456955], [-110.96946716227681, 25.102699345432967], [-110.96946716217944, 25.10269934541848], [-110.96946716208113, 25.102699345413633], [-110.96775054934095, 25.102699345413633], [-110.96775054931757, 25.102699345412486], [-110.96775054931642, 25.10269934538912], [-110.96775054931642, 25.102077553808492], [-110.9677505493116, 25.102077553710476], [-110.96775054929721, 25.1020775536134], [-110.96775054927336, 25.102077553518207], [-110.9677505492403, 25.102077553425808], [-110.96775054919834, 25.102077553337097], [-110.96775054914788, 25.102077553252922], [-110.96775054908943, 25.102077553174098], [-110.96775054902352, 25.102077553101385], [-110.9677505489508, 25.102077553035482], [-110.96775054887199, 25.102077552977022], [-110.96775054878782, 25.10207755292657], [-110.9677505486991, 25.102077552884612], [-110.9677505486067, 25.10207755285155], [-110.9677505485115, 25.102077552827705], [-110.96775054841443, 25.102077552813306], [-110.96775054831642, 25.102077552808492], [-110.91968536379407, 25.102077552808492], [-110.9196853637707, 25.102077552807344], [-110.91968536376955, 25.102077552783978], [-110.91968536376955, 25.075648446630517], [-110.91968536376473, 25.0756484465325], [-110.91968536375033, 25.075648446435427], [-110.91968536372649, 25.07564844634023], [-110.91968536369342, 25.075648446247833], [-110.91968536365147, 25.07564844615912], [-110.919685363601, 25.075648446074947], [-110.91968536354256, 25.075648445996123], [-110.91968536347665, 25.07564844592341], [-110.91968536340393, 25.075648445857507], [-110.91968536332512, 25.075648445799047], [-110.91968536324094, 25.075648445748595], [-110.91968536315223, 25.075648445706637], [-110.91968536305983, 25.075648445673576], [-110.91968536296463, 25.07564844564973], [-110.91968536286755, 25.07564844563533], [-110.91968536276954, 25.075648445630517], [-110.91831207277845, 25.075648445630517], [-110.91831207275507, 25.07564844562937], [-110.91831207275392, 25.075648445606003], [-110.91831207275392, 25.075026515587904], [-110.91831207275507, 25.075026515564538], [-110.91831207277845, 25.07502651556339], [-110.97255706784658, 25.07502651556339], [-110.97255706786996, 25.075026515564538], [-110.97255706787111, 25.075026515587904], [-110.97255706787111, 25.087775449497833], [-110.97255706787593, 25.08777544959585], [-110.97255706789032, 25.087775449692924], [-110.97255706791417, 25.08777544978812], [-110.97255706794724, 25.087775449880517], [-110.97255706798919, 25.08777544996923], [-110.97255706803965, 25.087775450053403], [-110.9725570680981, 25.087775450132227], [-110.97255706816401, 25.08777545020494], [-110.97255706823672, 25.087775450270843], [-110.97255706831554, 25.087775450329303], [-110.97255706839971, 25.087775450379755], [-110.97255706848843, 25.087775450421713], [-110.97255706858083, 25.087775450454775], [-110.97255706867602, 25.08777545047862], [-110.9725570687731, 25.08777545049302], [-110.97255706887111, 25.087775450497833], [-110.9955596923583, 25.087775450497833], [-110.99555969238168, 25.08777545049898], [-110.99555969238283, 25.087775450522347], [-110.99555969238283, 25.105808260018485], [-110.99555969238764, 25.1058082601165], [-110.99555969240204, 25.105808260213575], [-110.99555969242589, 25.10580826030877], [-110.99555969245895, 25.10580826040117], [-110.9955596925009, 25.10580826048988], [-110.99555969255137, 25.105808260574054], [-110.99555969260982, 25.10580826065288], [-110.99555969267573, 25.105808260725592], [-110.99555969274844, 25.105808260791495], [-110.99555969282726, 25.105808260849955], [-110.99555969291143, 25.105808260900407], [-110.99555969300015, 25.105808260942364], [-110.99555969309255, 25.105808260975426], [-110.99555969318774, 25.10580826099927], [-110.99555969328482, 25.10580826101367], [-110.99555969338283, 25.105808261018485], [-111.0123825072997, 25.105808261018485], [-111.01238250732308, 25.105808261019632], [-111.01238250732423, 25.105808261043], [-111.01238250732423, 25.147149318461974], [-111.01238250732905, 25.14714931855999], [-111.01238250734345, 25.147149318657064], [-111.01238250736729, 25.14714931875226], [-111.01238250740036, 25.147149318844658], [-111.01238250744231, 25.14714931893337], [-111.01238250749277, 25.147149319017544], [-111.01238250755122, 25.147149319096368], [-111.01238250761713, 25.14714931916908], [-111.01238250768985, 25.147149319234984], [-111.01238250776866, 25.147149319293444], [-111.01238250785283, 25.147149319343896], [-111.01238250794155, 25.147149319385854], [-111.01238250803395, 25.147149319418915], [-111.01238250812915, 25.14714931944276], [-111.01238250822622, 25.14714931945716], [-111.01238250832424, 25.147149319461974], [-111.05701446530752, 25.147149319461974], [-111.0570144653309, 25.14714931946312], [-111.05701446533205, 25.147149319486488], [-111.05701446533205, 25.174495106694206], [-111.05701446533686, 25.17449510679222], [-111.05701446535126, 25.174495106889296], [-111.0570144653751, 25.17449510698449], [-111.05701446540817, 25.17449510707689], [-111.05701446545012, 25.1744951071656], [-111.05701446550059, 25.174495107249776], [-111.05701446555904, 25.1744951073286], [-111.05701446562495, 25.174495107401313], [-111.05701446569766, 25.174495107467216], [-111.05701446577648, 25.174495107525676], [-111.05701446586065, 25.174495107576128], [-111.05701446594936, 25.174495107618085], [-111.05701446604176, 25.174495107651147], [-111.05701446613696, 25.174495107674993], [-111.05701446623404, 25.174495107689392], [-111.05701446633205, 25.174495107694206], [-111.07864379880361, 25.174495107694206], [-111.07864379882699, 25.174495107695353], [-111.07864379882814, 25.17449510771872], [-111.07864379882814, 25.192515114191544], [-111.07864379883296, 25.19251511428956], [-111.07864379884735, 25.192515114386634], [-111.0786437988712, 25.19251511448183], [-111.07864379890427, 25.192515114574228], [-111.07864379894622, 25.19251511466294], [-111.07864379899668, 25.192515114747113], [-111.07864379905513, 25.192515114825937], [-111.07864379912104, 25.19251511489865], [-111.07864379919376, 25.192515114964554], [-111.07864379927257, 25.192515115023014], [-111.07864379935674, 25.192515115073466], [-111.07864379944546, 25.192515115115423], [-111.07864379953786, 25.192515115148485], [-111.07864379963306, 25.19251511517233], [-111.07864379973013, 25.19251511518673], [-111.07864379982814, 25.192515115191544], [-111.09374999997544, 25.192515115191544], [-111.09374999999885, 25.192515115192695]]]}}]}