{"type": "FeatureCollection", "name": "concesiones_vigentes", "features": [{"type": "Feature", "id": 1, "properties": {"ESTADO": "Baja california sur", "EXPEDICION": "2010/08/31", "MUNICIPIO": "Loreto", "NOMBRELOTE": "MARYFER FRACC. 1", "SUPERFICIE": 1940.827, "SUST1": "POT", "SUST2": "TSP", "TITULAR": "SOCORRO DEL CARMEN VALLES VILLARREAL", "TITULO": 236804, "extrude": 0, "tessellate": -1, "visibility": -1}, "geometry": {"type": "Polygon", "coordinates": [[[-111.44488334655645, 26.106120832356638], [-111.4448833465576, 26.106120832380004], [-111.4448833465576, 26.139489236001374], [-111.44488334655645, 26.13948923602474], [-111.44488334653308, 26.139489236025888], [-111.43432617189951, 26.139489236025888], [-111.43432617187614, 26.13948923602474], [-111.43432617187499, 26.139489236001374], [-111.43432617187499, 26.106120832380004], [-111.43432617187614, 26.106120832356638], [-111.43432617189951, 26.10612083235549], [-111.44488334653308, 26.10612083235549], [-111.44488334655645, 26.106120832356638]]]}}, {"type": "Feature", "id": 2, "properties": {"ESTADO": "Baja california sur", "EXPEDICION": "2017/12/20", "MUNICIPIO": "Loreto", "NOMBRELOTE": "LORETO", "SUPERFICIE": 9571, "SUST1": "Au", "SUST2": "Cu", "SUST3": "Co", "TITULAR": "MINERA PIEDRA AZUL, S.A. DE C.V.", "TITULO": 246010, "extrude": 0, "tessellate": -1, "visibility": -1}, "geometry": {"type": "Polygon", "coordinates": [[[-111.5322589874256, 26.13039671277417], [-111.53225898740216, 26.13039671277535], [-111.46230697634284, 26.130473771031454], [-111.4623069763195, 26.130473771030335], [-111.46230697631826, 26.1304737710068], [-111.46222114562997, 26.106120832380075], [-111.46222114563105, 26.10612083235664], [-111.4622211456545, 26.10612083235549], [-111.53217315671375, 26.10612083235549], [-111.53217315673713, 26.106120832356638], [-111.53217315673835, 26.106120832379997], [-111.53225898742667, 26.1303967127506], [-111.5322589874256, 26.13039671277417]]]}}, {"type": "Feature", "id": 3, "properties": {"ESTADO": "Baja california sur", "EXPEDICION": "2011/09/23", "MUNICIPIO": "Loreto", "NOMBRELOTE": "VELMA", "SUPERFICIE": 8839.1751, "SUST1": "POT", "SUST2": "TSP", "TITULAR": "SOCORRO DEL CARMEN VALLES VILLARREAL", "TITULO": 238424, "extrude": 0, "tessellate": -1, "visibility": -1}, "geometry": {"type": "Polygon", "coordinates": [[[-111.55998229980466, 26.166685522374465], [-111.55998229980354, 26.16668552239793], [-111.55998229978013, 26.166685522399067], [-111.43432617189953, 26.166608488049246], [-111.43432617187614, 26.166608488048084], [-111.43432617187499, 26.16660848802469], [-111.43432617187499, 26.139643340512222], [-111.43432617187614, 26.139643340488856], [-111.43432617189951, 26.13964334048771], [-111.44393920798437, 26.13964334048771], [-111.44393920808238, 26.139643340482895], [-111.44393920817946, 26.139643340468496], [-111.44393920827466, 26.13964334044465], [-111.44393920836706, 26.139643340411588], [-111.44393920845577, 26.13964334036963], [-111.44393920853994, 26.13964334031918], [-111.44393920861876, 26.13964334026072], [-111.44393920869148, 26.139643340194816], [-111.44393920875739, 26.139643340122102], [-111.44393920881583, 26.13964334004328], [-111.4439392088663, 26.139643339959104], [-111.44393920890825, 26.139643339870393], [-111.44393920894132, 26.139643339777994], [-111.44393920896516, 26.1396433396828], [-111.44393920897956, 26.139643339585724], [-111.44393920898438, 26.13964333948771], [-111.44393920898438, 26.1394892360504], [-111.44393920898553, 26.139489236027035], [-111.4439392090089, 26.139489236025888], [-111.4447975148717, 26.139489236025888], [-111.44479751496955, 26.139489236021088], [-111.44479751506647, 26.139489236006735], [-111.44479751516151, 26.139489235982968], [-111.44479751525378, 26.139489235950013], [-111.44479751534239, 26.139489235908187], [-111.44479751542646, 26.139489235857894], [-111.44479751550521, 26.139489235799612], [-111.44479751557789, 26.139489235733905], [-111.44479751564378, 26.139489235661397], [-111.44479751570228, 26.139489235582793], [-111.44479751575278, 26.139489235498843], [-111.44479751579483, 26.139489235410352], [-111.44479751582803, 26.139489235318173], [-111.44479751585204, 26.139489235223184], [-111.44479751586664, 26.139489235126305], [-111.4447975158717, 26.13948923502846], [-111.44488334655755, 26.106120832379933], [-111.44488334655874, 26.106120832356638], [-111.4448833465821, 26.10612083235549], [-111.46196365353991, 26.10612083235549], [-111.46196365356329, 26.106120832356638], [-111.46196365356444, 26.106120832380004], [-111.46196365356444, 26.130627886391245], [-111.46196365356926, 26.13062788648926], [-111.46196365358365, 26.130627886586336], [-111.4619636536075, 26.13062788668153], [-111.46196365364057, 26.13062788677393], [-111.46196365368252, 26.13062788686264], [-111.46196365373298, 26.130627886946815], [-111.46196365379143, 26.13062788702564], [-111.46196365385734, 26.130627887098353], [-111.46196365393006, 26.130627887164255], [-111.46196365400887, 26.130627887222715], [-111.46196365409304, 26.130627887273167], [-111.46196365418176, 26.130627887315125], [-111.46196365427416, 26.130627887348187], [-111.46196365436936, 26.130627887372032], [-111.46196365446643, 26.13062788738643], [-111.46196365456444, 26.130627887391245], [-111.53191566367285, 26.130627887391245], [-111.53191566377086, 26.13062788738643], [-111.53191566386793, 26.130627887372032], [-111.53191566396313, 26.130627887348187], [-111.53191566405553, 26.130627887315125], [-111.53191566414425, 26.130627887273167], [-111.53191566422842, 26.130627887222715], [-111.53191566430723, 26.130627887164255], [-111.53191566437995, 26.130627887098353], [-111.53191566444586, 26.13062788702564], [-111.53191566450431, 26.130627886946815], [-111.53191566455477, 26.13062788686264], [-111.53191566459672, 26.13062788677393], [-111.53191566462979, 26.13062788668153], [-111.53191566465364, 26.130627886586336], [-111.53191566466803, 26.13062788648926], [-111.53191566467285, 26.130627886391245], [-111.53191566467285, 26.130473771055996], [-111.531915664674, 26.13047377103263], [-111.53191566469738, 26.130473771031482], [-111.53217315573826, 26.130473771031482], [-111.53217315583628, 26.13047377102667], [-111.53217315593335, 26.13047377101227], [-111.53217315602855, 26.130473770988424], [-111.53217315612095, 26.130473770955362], [-111.53217315620967, 26.130473770913405], [-111.53217315629384, 26.130473770862952], [-111.53217315637265, 26.130473770804493], [-111.53217315644537, 26.13047377073859], [-111.53217315651128, 26.130473770665876], [-111.53217315656973, 26.130473770587052], [-111.53217315662019, 26.130473770502878], [-111.53217315666214, 26.130473770414167], [-111.53217315669521, 26.130473770321768], [-111.53217315671905, 26.130473770226573], [-111.53217315673345, 26.1304737701295], [-111.53217315673827, 26.130473770031482], [-111.53217315673827, 26.106120832380004], [-111.53217315673942, 26.106120832356638], [-111.5321731567628, 26.10612083235549], [-111.55989646909173, 26.10612083235549], [-111.55989646911507, 26.106120832356634], [-111.55989646911624, 26.10612083237987], [-111.55998229980466, 26.166685522374465]]]}}, {"type": "Feature", "id": 4, "properties": {"ESTADO": "Baja california", "EXPEDICION": "2012/11/21", "MUNICIPIO": "Loreto", "NOMBRELOTE": "PAPIÐI", "SUPERFICIE": 3494.1783, "SUST1": "Au", "SUST2": "Ag", "SUST3": "Cu", "SUST4": "Mn", "SUST5": "Fe", "SUST6": "Pt", "SUST7": "Ti", "TITULAR": "JOSE ANDRES RODRIGUEZ VILLALEJO Y SOCIOS", "TITULO": 241057, "extrude": 0, "tessellate": -1, "visibility": -1}, "geometry": {"type": "Polygon", "coordinates": [[[-111.60967826843145, 26.20981676151329], [-111.60967826840803, 26.20981676151444], [-111.53758049013683, 26.20981676151444], [-111.53758049011346, 26.20981676151329], [-111.5375804901123, 26.209816761489925], [-111.5375804901123, 26.191718989651786], [-111.53758049011346, 26.19171898962842], [-111.53758049013683, 26.191718989627272], [-111.53964042563574, 26.191718989627272], [-111.53964042573375, 26.19171898962246], [-111.53964042583083, 26.19171898960806], [-111.53964042592602, 26.191718989584214], [-111.53964042601842, 26.191718989551152], [-111.53964042610714, 26.191718989509194], [-111.53964042619131, 26.191718989458742], [-111.53964042627013, 26.191718989400282], [-111.53964042634284, 26.19171898933438], [-111.53964042640875, 26.191718989261666], [-111.5396404264672, 26.191718989182842], [-111.53964042651766, 26.191718989098668], [-111.53964042655961, 26.191718989009956], [-111.53964042659268, 26.191718988917557], [-111.53964042661653, 26.191718988822362], [-111.53964042663092, 26.191718988725288], [-111.53964042663574, 26.191718988627272], [-111.53964042663574, 26.166685522423595], [-111.5396404266369, 26.16668552240023], [-111.53964042666027, 26.16668552239908], [-111.55998229880468, 26.16668552239908], [-111.5599822989027, 26.166685522394268], [-111.55998229899977, 26.16668552237987], [-111.55998229909497, 26.166685522356023], [-111.55998229918737, 26.16668552232296], [-111.55998229927609, 26.166685522281004], [-111.55998229936026, 26.16668552223055], [-111.55998229943907, 26.16668552217209], [-111.55998229951179, 26.16668552210619], [-111.5599822995777, 26.166685522033475], [-111.55998229963615, 26.16668552195465], [-111.55998229968661, 26.166685521870477], [-111.55998229972856, 26.166685521781766], [-111.55998229976163, 26.166685521689367], [-111.55998229978547, 26.16668552159417], [-111.55998229979987, 26.166685521497097], [-111.55998229980469, 26.16668552139908], [-111.55998229980469, 26.164682612789075], [-111.55998229980584, 26.16468261276571], [-111.55998229982922, 26.16468261276456], [-111.6095924377196, 26.16468261276456], [-111.60959243774299, 26.16468261276571], [-111.60959243774417, 26.164682612789022], [-111.60967826843257, 26.20981676148994], [-111.60967826843145, 26.20981676151329]]]}}, {"type": "Feature", "id": 5, "properties": {"ESTADO": "Baja california sur", "EXPEDICION": "2012/05/23", "MUNICIPIO": "Loreto", "NOMBRELOTE": "EL TRIUNFO", "SUPERFICIE": 7431.1146, "SUST1": "POT", "SUST2": "TSP", "TITULAR": "SOCORRO DEL CARMEN VALLES VILLARREAL", "TITULO": 240380, "extrude": 0, "tessellate": -1, "visibility": -1}, "geometry": {"type": "Polygon", "coordinates": [[[-111.46513938903692, 26.16668552240023], [-111.46513938903807, 26.166685522423595], [-111.46513938903807, 26.24746650900043], [-111.46513938903692, 26.247466509023795], [-111.46513938901354, 26.247466509024942], [-111.43432617189951, 26.247466509024942], [-111.43432617187614, 26.247466509023795], [-111.43432617187499, 26.24746650900043], [-111.43432617187499, 26.166685522423595], [-111.43432617187614, 26.16668552240023], [-111.43432617189951, 26.16668552239908], [-111.46513938901354, 26.16668552239908], [-111.46513938903692, 26.16668552240023]]]}}, {"type": "Feature", "id": 1, "properties": {"ESTADO": "Baja california sur", "EXPEDICION": "2010/08/31", "MUNICIPIO": "Loreto", "NOMBRELOTE": "MARYFER FRACC. 2", "SUPERFICIE": 15.2038, "SUST1": "POT", "SUST2": "TSP", "TITULAR": "SOCORRO DEL CARMEN VALLES VILLARREAL", "TITULO": 236805, "extrude": 0, "tessellate": -1, "visibility": -1}, "geometry": {"type": "Polygon", "coordinates": [[[-111.434326172, 26.085308922], [-111.440849304, 26.085308922], [-111.440849304, 26.086233975], [-111.425228119, 26.086233975], [-111.425228119, 26.08538601], [-111.434326171, 26.085341113], [-111.434326172, 26.085341113], [-111.434326172, 26.085341112], [-111.434326172, 26.085308922]]]}}, {"type": "Feature", "id": 2, "properties": {"ESTADO": "Baja california sur", "EXPEDICION": "2011/04/26", "MUNICIPIO": "Loreto", "NOMBRELOTE": "SAN JOSE", "SUPERFICIE": 486.2761, "SUST1": "Au", "SUST2": "Ag", "SUST3": "Pb", "SUST4": "Cu", "SUST5": "TSP", "TITULAR": "JOSE RAMON LOPEZ OROZCO Y SOCIOS", "TITULO": 237779, "extrude": 0, "tessellate": -1, "visibility": -1}, "geometry": {"type": "Polygon", "coordinates": [[[-111.55131340026739, 26.082996259320826], [-111.55131340026854, 26.082996259344192], [-111.55131340026854, 26.10103381848881], [-111.55131340026739, 26.101033818512175], [-111.55131340024401, 26.101033818513322], [-111.5321731567628, 26.101033818513322], [-111.53217315673942, 26.101033818512175], [-111.53217315673827, 26.10103381848881], [-111.53217315673827, 26.086233975705902], [-111.53217315673345, 26.086233975607886], [-111.53217315671905, 26.08623397551081], [-111.53217315669521, 26.086233975415617], [-111.53217315666214, 26.086233975323218], [-111.53217315662019, 26.086233975234506], [-111.53217315656973, 26.086233975150332], [-111.53217315651128, 26.086233975071508], [-111.53217315644537, 26.086233974998795], [-111.53217315637265, 26.08623397493289], [-111.53217315629384, 26.086233974874432], [-111.53217315620967, 26.08623397482398], [-111.53217315612095, 26.086233974782022], [-111.53217315602855, 26.08623397474896], [-111.53217315593335, 26.086233974725115], [-111.53217315583628, 26.086233974710716], [-111.53217315573826, 26.0862339747059], [-111.53131484987804, 26.0862339747059], [-111.53131484985467, 26.086233974704754], [-111.53131484985352, 26.086233974681388], [-111.53131484985352, 26.073976437086305], [-111.53131484985467, 26.07397643706294], [-111.53131484987804, 26.07397643706179], [-111.54135704038075, 26.07397643706179], [-111.54135704040412, 26.07397643706294], [-111.54135704040527, 26.073976437086305], [-111.54135704040527, 26.082996258319678], [-111.54135704041009, 26.082996258417694], [-111.54135704042449, 26.08299625851477], [-111.54135704044833, 26.082996258609963], [-111.5413570404814, 26.082996258702362], [-111.54135704052335, 26.082996258791074], [-111.54135704057381, 26.082996258875248], [-111.54135704063226, 26.082996258954072], [-111.54135704069817, 26.082996259026785], [-111.54135704077089, 26.08299625909269], [-111.5413570408497, 26.082996259151148], [-111.54135704093387, 26.0829962592016], [-111.5413570410226, 26.082996259243558], [-111.54135704111499, 26.08299625927662], [-111.54135704121019, 26.082996259300465], [-111.54135704130726, 26.082996259314864], [-111.54135704140528, 26.08299625931968], [-111.55131340024401, 26.08299625931968], [-111.55131340026739, 26.082996259320826]]]}}, {"type": "Feature", "id": 3, "properties": {"ESTADO": "Baja california sur", "EXPEDICION": "2010/12/09", "MUNICIPIO": "Loreto", "NOMBRELOTE": "GUADALUPE", "SUPERFICIE": 350, "SUST1": "Au", "SUST2": "Ag", "SUST3": "Pb", "SUST4": "Cu", "TITULAR": "JOSE RAMON LOPEZ OROZCO Y SOCIOS", "TITULO": 237402, "extrude": 0, "tessellate": -1, "visibility": -1}, "geometry": {"type": "Polygon", "coordinates": [[[-111.52238845825079, 26.0534672471175], [-111.52238845825194, 26.053467247140865], [-111.52238845825194, 26.06248864891787], [-111.52238845825079, 26.062488648941237], [-111.52238845822741, 26.062488648942384], [-111.49638175966808, 26.062488648942384], [-111.4963817596447, 26.062488648941237], [-111.49638175964355, 26.06248864891787], [-111.49638175964355, 26.061563408951944], [-111.4963817596447, 26.061563408928578], [-111.49638175966808, 26.06156340892743], [-111.50633811850682, 26.06156340892743], [-111.50633811860483, 26.061563408922616], [-111.5063381187019, 26.061563408908217], [-111.5063381187971, 26.06156340888437], [-111.5063381188895, 26.06156340885131], [-111.50633811897822, 26.061563408809352], [-111.50633811906239, 26.0615634087589], [-111.5063381191412, 26.06156340870044], [-111.50633811921392, 26.061563408634537], [-111.50633811927983, 26.061563408561824], [-111.50633811933828, 26.061563408483], [-111.50633811938874, 26.061563408398825], [-111.5063381194307, 26.061563408310114], [-111.50633811946376, 26.061563408217715], [-111.50633811948761, 26.06156340812252], [-111.506338119502, 26.061563408025446], [-111.50633811950682, 26.06156340792743], [-111.50633811950682, 26.042594378570264], [-111.50633811950797, 26.042594378546898], [-111.50633811953135, 26.04259437854575], [-111.52135848996569, 26.04259437854575], [-111.52135848998907, 26.042594378546898], [-111.52135848999022, 26.042594378570264], [-111.52135848999022, 26.05346724611635], [-111.52135848999504, 26.053467246214367], [-111.52135849000943, 26.053467246311442], [-111.52135849003328, 26.053467246406637], [-111.52135849006635, 26.053467246499036], [-111.5213584901083, 26.053467246587747], [-111.52135849015876, 26.05346724667192], [-111.52135849021721, 26.053467246750746], [-111.52135849028312, 26.05346724682346], [-111.52135849035584, 26.05346724688936], [-111.52135849043465, 26.05346724694782], [-111.52135849051882, 26.053467246998274], [-111.52135849060754, 26.05346724704023], [-111.52135849069994, 26.053467247073293], [-111.52135849079514, 26.05346724709714], [-111.52135849089221, 26.053467247111538], [-111.52135849099022, 26.05346724711635], [-111.52238845822741, 26.05346724711635], [-111.52238845825079, 26.0534672471175]]]}}, {"type": "Feature", "id": 4, "properties": {"ESTADO": "Baja california sur", "EXPEDICION": "2010/08/31", "MUNICIPIO": "Loreto", "NOMBRELOTE": "MARYFER FRACC. 1", "SUPERFICIE": 1940.827, "SUST1": "POT", "SUST2": "TSP", "TITULAR": "SOCORRO DEL CARMEN VALLES VILLARREAL", "TITULO": 236804, "extrude": 0, "tessellate": -1, "visibility": -1}, "geometry": {"type": "Polygon", "coordinates": [[[-111.44488334655645, 26.094404953307112], [-111.4448833465576, 26.09440495333048], [-111.4448833465576, 26.12585018565583], [-111.44488334655645, 26.125850185679194], [-111.44488334653308, 26.125850185680342], [-111.43432617189951, 26.125850185680342], [-111.43432617187614, 26.125850185679194], [-111.43432617187499, 26.12585018565583], [-111.43432617187499, 26.087159019817342], [-111.43432617187614, 26.087159019793976], [-111.43432617189951, 26.08715901979283], [-111.44084930417469, 26.08715901979283], [-111.44084930419807, 26.087159019793976], [-111.44084930419922, 26.087159019817342], [-111.44084930419922, 26.094404952305965], [-111.44084930420404, 26.09440495240398], [-111.44084930421843, 26.094404952501055], [-111.44084930424228, 26.09440495259625], [-111.44084930427535, 26.09440495268865], [-111.4408493043173, 26.09440495277736], [-111.44084930436776, 26.094404952861534], [-111.44084930442621, 26.09440495294036], [-111.44084930449212, 26.094404953013072], [-111.44084930456484, 26.094404953078975], [-111.44084930464365, 26.094404953137435], [-111.44084930472782, 26.094404953187887], [-111.44084930481654, 26.094404953229844], [-111.44084930490894, 26.094404953262906], [-111.44084930500414, 26.09440495328675], [-111.44084930510121, 26.09440495330115], [-111.44084930519922, 26.094404953305965], [-111.44488334653308, 26.094404953305965], [-111.44488334655645, 26.094404953307112]]]}}, {"type": "Feature", "id": 5, "properties": {"ESTADO": "Baja california sur", "EXPEDICION": "2012/02/15", "MUNICIPIO": "Loreto", "NOMBRELOTE": "LA GIGANTA", "SUPERFICIE": 3381.6241, "SUST1": "Au", "SUST2": "Ag", "SUST3": "Cu", "SUST4": "TSP", "TITULAR": "JOSE DIMITRIO MARTINEZ Y SOCIOS", "TITULO": 239720, "extrude": 0, "tessellate": -1, "visibility": -1}, "geometry": {"type": "Polygon", "coordinates": [[[-111.506938934325, 26.040512224845166], [-111.50693893432616, 26.040512224868532], [-111.50693893432616, 26.042594378521237], [-111.506938934325, 26.042594378544603], [-111.50693893430163, 26.04259437854575], [-111.50633812050683, 26.04259437854575], [-111.50633812040881, 26.042594378550564], [-111.50633812031174, 26.042594378564964], [-111.50633812021654, 26.04259437858881], [-111.50633812012414, 26.04259437862187], [-111.50633812003542, 26.04259437866383], [-111.50633811995125, 26.04259437871428], [-111.50633811987244, 26.04259437877274], [-111.50633811979972, 26.042594378838643], [-111.50633811973381, 26.042594378911357], [-111.50633811967536, 26.04259437899018], [-111.5063381196249, 26.042594379074355], [-111.50633811958295, 26.042594379163067], [-111.50633811954988, 26.042594379255465], [-111.50633811952603, 26.04259437935066], [-111.50633811951164, 26.042594379447735], [-111.50633811950682, 26.04259437954575], [-111.50633811950682, 26.061563408902916], [-111.50633811950567, 26.061563408926283], [-111.5063381194823, 26.06156340892743], [-111.49638176064356, 26.06156340892743], [-111.49638176054555, 26.061563408932244], [-111.49638176044847, 26.061563408946643], [-111.49638176035327, 26.06156340897049], [-111.49638176026087, 26.06156340900355], [-111.49638176017216, 26.061563409045508], [-111.49638176008798, 26.06156340909596], [-111.49638176000917, 26.06156340915442], [-111.49638175993645, 26.061563409220323], [-111.49638175987054, 26.061563409293036], [-111.4963817598121, 26.06156340937186], [-111.49638175976163, 26.061563409456035], [-111.49638175971968, 26.061563409544746], [-111.49638175968661, 26.061563409637145], [-111.49638175966277, 26.06156340973234], [-111.49638175964837, 26.061563409829414], [-111.49638175964355, 26.06156340992743], [-111.49638175964355, 26.06248864891787], [-111.4963817596424, 26.062488648941237], [-111.49638175961903, 26.062488648942384], [-111.49535179238184, 26.062488648942384], [-111.49535179228383, 26.0624886489472], [-111.49535179218675, 26.062488648961597], [-111.49535179209155, 26.062488648985443], [-111.49535179199916, 26.062488649018505], [-111.49535179191044, 26.062488649060462], [-111.49535179182627, 26.062488649110914], [-111.49535179174745, 26.062488649169374], [-111.49535179167474, 26.062488649235277], [-111.49535179160883, 26.06248864930799], [-111.49535179155038, 26.062488649386815], [-111.49535179149991, 26.06248864947099], [-111.49535179145796, 26.0624886495597], [-111.4953517914249, 26.0624886496521], [-111.49535179140105, 26.062488649747294], [-111.49535179138665, 26.06248864984437], [-111.49535179138184, 26.062488649942384], [-111.49535179138184, 26.06919642047654], [-111.49535179138068, 26.069196420499907], [-111.49535179135731, 26.069196420501054], [-111.49097442726952, 26.069196420501054], [-111.49097442717151, 26.069196420505868], [-111.49097442707443, 26.069196420520267], [-111.49097442697924, 26.069196420544113], [-111.49097442688684, 26.069196420577175], [-111.49097442679812, 26.069196420619132], [-111.49097442671395, 26.069196420669584], [-111.49097442663513, 26.069196420728044], [-111.49097442656242, 26.069196420793947], [-111.4909744264965, 26.06919642086666], [-111.49097442643806, 26.069196420945485], [-111.4909744263876, 26.06919642102966], [-111.49097442634564, 26.06919642111837], [-111.49097442631258, 26.06919642121077], [-111.49097442628873, 26.069196421305964], [-111.49097442627433, 26.06919642140304], [-111.49097442626952, 26.069196421501054], [-111.49097442626952, 26.086233974681388], [-111.49097442626837, 26.086233974704754], [-111.49097442624499, 26.0862339747059], [-111.470975875879, 26.0862339747059], [-111.47097587585563, 26.086233974704754], [-111.47097587585448, 26.086233974681388], [-111.47097587585448, 26.08022100343987], [-111.47097587585563, 26.080221003416504], [-111.470975875879, 26.080221003415357], [-111.47990226645605, 26.080221003415357], [-111.47990226655406, 26.080221003410543], [-111.47990226665114, 26.080221003396144], [-111.47990226674634, 26.080221003372298], [-111.47990226683874, 26.080221003339236], [-111.47990226692745, 26.08022100329728], [-111.47990226701162, 26.080221003246827], [-111.47990226709044, 26.080221003188367], [-111.47990226716315, 26.080221003122464], [-111.47990226722906, 26.08022100304975], [-111.47990226728751, 26.080221002970926], [-111.47990226733798, 26.080221002886752], [-111.47990226737993, 26.08022100279804], [-111.479902267413, 26.080221002705642], [-111.47990226743684, 26.080221002610447], [-111.47990226745124, 26.080221002513372], [-111.47990226745605, 26.080221002415357], [-111.47990226745605, 26.07297419269171], [-111.47990226745124, 26.072974192593694], [-111.47990226743684, 26.07297419249662], [-111.479902267413, 26.072974192401425], [-111.47990226737993, 26.072974192309026], [-111.47990226733798, 26.072974192220315], [-111.47990226728751, 26.07297419213614], [-111.47990226722906, 26.072974192057316], [-111.47990226716315, 26.072974191984603], [-111.47990226709044, 26.0729741919187], [-111.47990226701162, 26.07297419186024], [-111.47990226692745, 26.072974191809788], [-111.47990226683874, 26.07297419176783], [-111.47990226674634, 26.07297419173477], [-111.47990226665114, 26.072974191710923], [-111.47990226655406, 26.072974191696524], [-111.47990226645605, 26.07297419169171], [-111.47595405581065, 26.07297419169171], [-111.47595405578727, 26.072974191690562], [-111.47595405578612, 26.072974191667196], [-111.47595405578612, 26.05315881184378], [-111.4759540557813, 26.053158811745764], [-111.4759540557669, 26.05315881164869], [-111.47595405574306, 26.053158811553494], [-111.47595405570999, 26.053158811461095], [-111.47595405566804, 26.053158811372384], [-111.47595405561758, 26.05315881128821], [-111.47595405555913, 26.053158811209386], [-111.47595405549322, 26.053158811136672], [-111.4759540554205, 26.05315881107077], [-111.47595405534169, 26.05315881101231], [-111.47595405525752, 26.053158810961857], [-111.4759540551688, 26.0531588109199], [-111.4759540550764, 26.05315881088684], [-111.4759540549812, 26.053158810862993], [-111.47595405488413, 26.053158810848593], [-111.47595405478611, 26.05315881084378], [-111.46797180178233, 26.05315881084378], [-111.46797180175895, 26.053158810842632], [-111.4679718017578, 26.053158810819266], [-111.4679718017578, 26.047683932934348], [-111.46797180175298, 26.047683932836332], [-111.46797180173859, 26.047683932739258], [-111.46797180171474, 26.047683932644063], [-111.46797180168167, 26.047683932551664], [-111.46797180163972, 26.047683932462952], [-111.46797180158926, 26.047683932378778], [-111.46797180153081, 26.047683932299954], [-111.4679718014649, 26.04768393222724], [-111.46797180139218, 26.047683932161338], [-111.46797180131337, 26.047683932102878], [-111.4679718012292, 26.047683932052426], [-111.46797180114048, 26.047683932010468], [-111.46797180104808, 26.047683931977407], [-111.46797180095288, 26.04768393195356], [-111.4679718008558, 26.04768393193916], [-111.4679718007578, 26.047683931934348], [-111.45192146303721, 26.047683931934348], [-111.45192146301383, 26.0476839319332], [-111.45192146301268, 26.047683931909834], [-111.45192146301268, 26.04228591466368], [-111.45192146300786, 26.042285914565664], [-111.45192146299347, 26.04228591446859], [-111.45192146296962, 26.042285914373394], [-111.45192146293655, 26.042285914280995], [-111.4519214628946, 26.042285914192284], [-111.45192146284414, 26.04228591410811], [-111.45192146278569, 26.042285914029286], [-111.45192146271978, 26.042285913956572], [-111.45192146264706, 26.04228591389067], [-111.45192146256825, 26.04228591383221], [-111.45192146248408, 26.042285913781758], [-111.45192146239536, 26.0422859137398], [-111.45192146230296, 26.04228591370674], [-111.45192146220776, 26.042285913682893], [-111.45192146211069, 26.042285913668493], [-111.45192146201268, 26.04228591366368], [-111.43896103005272, 26.04228591366368], [-111.43896102995471, 26.042285913668493], [-111.43896102985764, 26.042285913682893], [-111.43896102976244, 26.04228591370674], [-111.43896102967004, 26.0422859137398], [-111.43896102958132, 26.042285913781758], [-111.43896102949715, 26.04228591383221], [-111.43896102941834, 26.04228591389067], [-111.43896102934562, 26.042285913956572], [-111.43896102927971, 26.042285914029286], [-111.43896102922126, 26.04228591410811], [-111.4389610291708, 26.042285914192284], [-111.43896102912885, 26.042285914280995], [-111.43896102909578, 26.042285914373394], [-111.43896102907193, 26.04228591446859], [-111.43896102905754, 26.042285914565664], [-111.43896102905272, 26.04228591466368], [-111.43896102905272, 26.054007008615617], [-111.43896102905157, 26.054007008638983], [-111.43896102902819, 26.05400700864013], [-111.437931061791, 26.05400700864013], [-111.43793106169299, 26.054007008644945], [-111.43793106159592, 26.054007008659344], [-111.43793106150072, 26.05400700868319], [-111.43793106140832, 26.05400700871625], [-111.4379310613196, 26.05400700875821], [-111.43793106123543, 26.05400700880866], [-111.43793106115662, 26.05400700886712], [-111.4379310610839, 26.054007008933024], [-111.43793106101799, 26.054007009005737], [-111.43793106095954, 26.05400700908456], [-111.43793106090908, 26.054007009168735], [-111.43793106086713, 26.054007009257447], [-111.43793106083406, 26.054007009349846], [-111.43793106081021, 26.05400700944504], [-111.43793106079582, 26.054007009542115], [-111.437931060791, 26.05400700964013], [-111.437931060791, 26.059404486142384], [-111.43793106079582, 26.0594044862404], [-111.43793106081021, 26.059404486337474], [-111.43793106083406, 26.05940448643267], [-111.43793106086713, 26.059404486525068], [-111.43793106090908, 26.05940448661378], [-111.43793106095954, 26.059404486697954], [-111.43793106101799, 26.059404486776778], [-111.4379310610839, 26.05940448684949], [-111.43793106115662, 26.059404486915394], [-111.43793106123543, 26.059404486973854], [-111.4379310613196, 26.059404487024306], [-111.43793106140832, 26.059404487066264], [-111.43793106150072, 26.059404487099325], [-111.43793106159592, 26.05940448712317], [-111.43793106169299, 26.05940448713757], [-111.437931061791, 26.059404487142384], [-111.45792961118153, 26.059404487142384], [-111.4579296112049, 26.05940448714353], [-111.45792961120605, 26.059404487166898], [-111.45792961120605, 26.063953596354583], [-111.45792961121087, 26.0639535964526], [-111.45792961122527, 26.063953596549673], [-111.45792961124911, 26.06395359664487], [-111.45792961128218, 26.063953596737267], [-111.45792961132413, 26.06395359682598], [-111.4579296113746, 26.063953596910153], [-111.45792961143304, 26.063953596988977], [-111.45792961149895, 26.06395359706169], [-111.45792961157167, 26.063953597127593], [-111.45792961165048, 26.063953597186053], [-111.45792961173466, 26.063953597236505], [-111.45792961182337, 26.063953597278463], [-111.45792961191577, 26.063953597311524], [-111.45792961201097, 26.06395359733537], [-111.45792961210805, 26.06395359734977], [-111.45792961220606, 26.063953597354583], [-111.45998954770496, 26.063953597354583], [-111.45998954772834, 26.06395359735573], [-111.45998954772949, 26.063953597379097], [-111.45998954772949, 26.080221002415357], [-111.45998954773431, 26.080221002513372], [-111.4599895477487, 26.080221002610447], [-111.45998954777255, 26.080221002705642], [-111.45998954780562, 26.08022100279804], [-111.45998954784757, 26.080221002886752], [-111.45998954789803, 26.080221002970926], [-111.45998954795648, 26.08022100304975], [-111.45998954802239, 26.080221003122464], [-111.45998954809511, 26.080221003188367], [-111.45998954817392, 26.080221003246827], [-111.4599895482581, 26.08022100329728], [-111.45998954834681, 26.080221003339236], [-111.45998954843921, 26.080221003372298], [-111.45998954853441, 26.080221003396144], [-111.45998954863148, 26.080221003410543], [-111.4599895487295, 26.080221003415357], [-111.46891593930651, 26.080221003415357], [-111.46891593932989, 26.080221003416504], [-111.46891593933104, 26.08022100343987], [-111.46891593933104, 26.086233974681388], [-111.46891593932989, 26.086233974704754], [-111.46891593930651, 26.0862339747059], [-111.44084930422375, 26.0862339747059], [-111.44084930420037, 26.086233974704754], [-111.44084930419922, 26.086233974681388], [-111.44084930419922, 26.08530892330684], [-111.4408493041944, 26.085308923208824], [-111.44084930418, 26.08530892311175], [-111.44084930415616, 26.085308923016555], [-111.44084930412309, 26.085308922924156], [-111.44084930408114, 26.085308922835445], [-111.44084930403068, 26.08530892275127], [-111.44084930397223, 26.085308922672446], [-111.44084930390632, 26.085308922599733], [-111.4408493038336, 26.08530892253383], [-111.44084930375479, 26.08530892247537], [-111.44084930367062, 26.085308922424918], [-111.4408493035819, 26.08530892238296], [-111.4408493034895, 26.0853089223499], [-111.4408493033943, 26.085308922326053], [-111.44084930329723, 26.085308922311654], [-111.44084930319922, 26.08530892230684], [-111.43432617189951, 26.08530892230684], [-111.43432617187614, 26.085308922305693], [-111.43432617187499, 26.085308922282326], [-111.43432617187499, 26.0314120081775], [-111.43432617187614, 26.03141200815399], [-111.4343261718995, 26.031412008152888], [-111.48093223569325, 26.031489131599642], [-111.48093223571662, 26.03148913160083], [-111.48093223571777, 26.031489131624053], [-111.48093223571777, 26.04051222384402], [-111.48093223572259, 26.040512223942034], [-111.48093223573699, 26.04051222403911], [-111.48093223576083, 26.040512224134304], [-111.4809322357939, 26.040512224226703], [-111.48093223583585, 26.040512224315414], [-111.48093223588631, 26.04051222439959], [-111.48093223594476, 26.040512224478412], [-111.48093223601067, 26.040512224551126], [-111.48093223608339, 26.04051222461703], [-111.4809322361622, 26.04051222467549], [-111.48093223624637, 26.04051222472594], [-111.4809322363351, 26.040512224767898], [-111.48093223642749, 26.04051222480096], [-111.48093223652269, 26.040512224824806], [-111.48093223661976, 26.040512224839205], [-111.48093223671778, 26.04051222484402], [-111.50693893430163, 26.04051222484402], [-111.506938934325, 26.040512224845166]]]}}, {"type": "Feature", "id": 6, "properties": {"ESTADO": "Baja california sur", "EXPEDICION": "2017/12/20", "MUNICIPIO": "Loreto", "NOMBRELOTE": "LORETO", "SUPERFICIE": 9571, "SUST1": "Au", "SUST2": "Cu", "SUST3": "Co", "TITULAR": "MINERA PIEDRA AZUL, S.A. DE C.V.", "TITULO": 246010, "extrude": 0, "tessellate": -1, "visibility": -1}, "geometry": {"type": "Polygon", "coordinates": [[[-111.5322589874256, 26.12585018567919], [-111.53225898740219, 26.125850185680342], [-111.46230697634289, 26.125850185680342], [-111.4623069763195, 26.125850185679194], [-111.46230697631829, 26.125850185655878], [-111.4622211456321, 26.08715902079061], [-111.46222114562707, 26.087159020692745], [-111.4622211456125, 26.087159020595838], [-111.46222114558852, 26.08715902050082], [-111.46222114555533, 26.08715902040861], [-111.4622211455133, 26.087159020320087], [-111.46222114546279, 26.087159020236108], [-111.46222114540431, 26.087159020157472], [-111.46222114533842, 26.08715902008494], [-111.46222114526574, 26.087159020019204], [-111.46222114518697, 26.087159019960897], [-111.46222114510289, 26.08715901991058], [-111.46222114501427, 26.087159019868736], [-111.46222114492198, 26.087159019835767], [-111.46222114482691, 26.08715901981199], [-111.46222114472998, 26.08715901979763], [-111.4622211446321, 26.08715901979283], [-111.38025283913477, 26.08715901979283], [-111.38025283903676, 26.087159019797642], [-111.38025283893968, 26.08715901981204], [-111.38025283884448, 26.087159019835887], [-111.38025283875209, 26.08715901986895], [-111.38025283866337, 26.087159019910906], [-111.3802528385792, 26.08715901996136], [-111.38025283850038, 26.08715902001982], [-111.38025283842767, 26.08715902008572], [-111.38025283836176, 26.087159020158435], [-111.3802528383033, 26.08715902023726], [-111.38025283825284, 26.087159020321433], [-111.3802528382109, 26.087159020410144], [-111.38025283817782, 26.087159020502543], [-111.38025283815398, 26.08715902059774], [-111.38025283813958, 26.087159020694813], [-111.38025283813477, 26.08715902079283], [-111.38025283813477, 26.105195937183645], [-111.38025283813361, 26.10519593720701], [-111.38025283811024, 26.10519593720816], [-111.33828163149427, 26.10519593720816], [-111.33828163147089, 26.10519593720701], [-111.33828163146974, 26.105195937183645], [-111.33828163146974, 26.06726893929509], [-111.33828163147089, 26.067268939271724], [-111.33828163149427, 26.067268939270576], [-111.38025283713476, 26.067268939270576], [-111.38025283723277, 26.067268939265762], [-111.38025283732985, 26.067268939251363], [-111.38025283742505, 26.067268939227517], [-111.38025283751745, 26.067268939194456], [-111.38025283760616, 26.0672689391525], [-111.38025283769034, 26.067268939102046], [-111.38025283776915, 26.067268939043586], [-111.38025283784187, 26.067268938977683], [-111.38025283790778, 26.06726893890497], [-111.38025283796622, 26.067268938826146], [-111.38025283801669, 26.06726893874197], [-111.38025283805864, 26.06726893865326], [-111.3802528380917, 26.06726893856086], [-111.38025283811555, 26.067268938465666], [-111.38025283812995, 26.067268938368592], [-111.38025283813477, 26.067268938270576], [-111.38025283813477, 25.995081230599563], [-111.38025283813592, 25.995081230576197], [-111.3802528381593, 25.99508123057505], [-111.42024993894033, 25.99508123057505], [-111.4202499389637, 25.995081230576197], [-111.42024993896486, 25.995081230599563], [-111.42024993896486, 26.040203753484512], [-111.42024993896968, 26.040203753582528], [-111.42024993898407, 26.040203753679602], [-111.42024993900792, 26.040203753774797], [-111.42024993904099, 26.040203753867196], [-111.42024993908294, 26.040203753955907], [-111.4202499391334, 26.040203754040082], [-111.42024993919185, 26.040203754118906], [-111.42024993925776, 26.04020375419162], [-111.42024993933047, 26.040203754257522], [-111.42024993940929, 26.040203754315982], [-111.42024993949346, 26.040203754366434], [-111.42024993958218, 26.04020375440839], [-111.42024993967458, 26.040203754441453], [-111.42024993976977, 26.0402037544653], [-111.42024993986685, 26.0402037544797], [-111.42024993996486, 26.040203754484512], [-111.42522811887197, 26.040203754484512], [-111.42522811889535, 26.04020375448566], [-111.4252281188965, 26.040203754509026], [-111.4252281188965, 26.0862339737059], [-111.42522811890132, 26.086233973803918], [-111.42522811891571, 26.086233973900992], [-111.42522811893956, 26.086233973996187], [-111.42522811897263, 26.086233974088586], [-111.42522811901458, 26.086233974177297], [-111.42522811906504, 26.08623397426147], [-111.42522811912349, 26.086233974340296], [-111.4252281191894, 26.08623397441301], [-111.42522811926212, 26.086233974478912], [-111.42522811934093, 26.08623397453737], [-111.4252281194251, 26.086233974587824], [-111.42522811951382, 26.08623397462978], [-111.42522811960622, 26.086233974662843], [-111.42522811970142, 26.08623397468669], [-111.42522811979849, 26.086233974701088], [-111.4252281198965, 26.0862339747059], [-111.4343261718742, 26.0862339747059], [-111.53217315671374, 26.086156887285284], [-111.53217315673713, 26.086156887286418], [-111.53217315673832, 26.086156887309716], [-111.5322589874267, 26.125850185655864], [-111.5322589874256, 26.12585018567919]]]}}, {"type": "Feature", "id": 7, "properties": {"ESTADO": "Baja california sur", "EXPEDICION": "2011/09/23", "MUNICIPIO": "Loreto", "NOMBRELOTE": "VELMA", "SUPERFICIE": 8839.1751, "SUST1": "POT", "SUST2": "TSP", "TITULAR": "SOCORRO DEL CARMEN VALLES VILLARREAL", "TITULO": 238424, "extrude": 0, "tessellate": -1, "visibility": -1}, "geometry": {"type": "MultiPolygon", "coordinates": [[[[-111.444797516, 26.125850186], [-111.444883347, 26.094327872], [-111.444883346, 26.094327872], [-111.444883346, 26.094327871], [-111.440849304, 26.094327871], [-111.440849304, 26.087081933], [-111.461963654, 26.08715902], [-111.461963654, 26.088161143], [-111.461963654, 26.088161144], [-111.461963655, 26.088161144], [-111.462221146, 26.088161144], [-111.462221146, 26.089086174], [-111.461963655, 26.089086174], [-111.461963654, 26.089086174], [-111.461963654, 26.089086175], [-111.461963654, 26.125850186], [-111.444797516, 26.125850186]]], [[[-111.532173157, 26.125850186], [-111.532173157, 26.103500277], [-111.559896469, 26.103500277], [-111.559896469, 26.125850186], [-111.532173157, 26.125850186]]]]}}, {"type": "Feature", "id": 8, "properties": {"ESTADO": "Baja california sur", "EXPEDICION": "2010/09/14", "MUNICIPIO": "Loreto", "NOMBRELOTE": "SAN JUDAS", "SUPERFICIE": 650, "SUST1": "Au", "SUST2": "Ag", "SUST3": "Cu", "TITULAR": "MANUEL SALVADOR BAEZA DAVIS Y SOCIOS", "TITULO": 236868, "extrude": 0, "tessellate": -1, "visibility": -1}, "geometry": {"type": "Polygon", "coordinates": [[[-111.4799022674549, 26.072974191692857], [-111.47990226745605, 26.072974191716224], [-111.47990226745605, 26.080221003390843], [-111.4799022674549, 26.08022100341421], [-111.47990226743153, 26.080221003415357], [-111.45998954775402, 26.080221003415357], [-111.45998954773064, 26.08022100341421], [-111.45998954772949, 26.080221003390843], [-111.45998954772949, 26.072974191716224], [-111.45998954773064, 26.072974191692857], [-111.45998954775402, 26.07297419169171], [-111.4749240865244, 26.07297419169171], [-111.47492408662241, 26.072974191686896], [-111.47492408671948, 26.072974191672497], [-111.47492408681468, 26.07297419164865], [-111.47492408690708, 26.07297419161559], [-111.4749240869958, 26.072974191573632], [-111.47492408707997, 26.07297419152318], [-111.47492408715878, 26.07297419146472], [-111.4749240872315, 26.072974191398817], [-111.47492408729741, 26.072974191326104], [-111.47492408735586, 26.07297419124728], [-111.47492408740632, 26.072974191163105], [-111.47492408744827, 26.072974191074394], [-111.47492408748134, 26.072974190981995], [-111.47492408750519, 26.0729741908868], [-111.47492408751958, 26.072974190789726], [-111.4749240875244, 26.07297419069171], [-111.4749240875244, 26.05400700964013], [-111.47492408751958, 26.054007009542115], [-111.47492408750519, 26.05400700944504], [-111.47492408748134, 26.054007009349846], [-111.47492408744827, 26.054007009257447], [-111.47492408740632, 26.054007009168735], [-111.47492408735586, 26.05400700908456], [-111.47492408729741, 26.054007009005737], [-111.4749240872315, 26.054007008933024], [-111.47492408715878, 26.05400700886712], [-111.47492408707997, 26.05400700880866], [-111.4749240869958, 26.05400700875821], [-111.47492408690708, 26.05400700871625], [-111.47492408681468, 26.05400700868319], [-111.47492408671948, 26.054007008659344], [-111.47492408662241, 26.054007008644945], [-111.4749240865244, 26.05400700864013], [-111.4679718027578, 26.05400700864013], [-111.46797180265979, 26.054007008644945], [-111.46797180256272, 26.054007008659344], [-111.46797180246752, 26.05400700868319], [-111.46797180237512, 26.05400700871625], [-111.4679718022864, 26.05400700875821], [-111.46797180220223, 26.05400700880866], [-111.46797180212342, 26.05400700886712], [-111.4679718020507, 26.054007008933024], [-111.46797180198479, 26.054007009005737], [-111.46797180192634, 26.05400700908456], [-111.46797180187588, 26.054007009168735], [-111.46797180183393, 26.054007009257447], [-111.46797180180086, 26.054007009349846], [-111.46797180177701, 26.05400700944504], [-111.46797180176262, 26.054007009542115], [-111.4679718017578, 26.05400700964013], [-111.4679718017578, 26.05940448711787], [-111.46797180175665, 26.059404487141236], [-111.46797180173327, 26.059404487142384], [-111.43793106081554, 26.059404487142384], [-111.43793106079215, 26.059404487141236], [-111.437931060791, 26.05940448711787], [-111.437931060791, 26.054007008664644], [-111.43793106079215, 26.05400700864128], [-111.43793106081552, 26.05400700864013], [-111.43896102805272, 26.05400700864013], [-111.43896102815073, 26.054007008635317], [-111.4389610282478, 26.054007008620918], [-111.438961028343, 26.054007008597072], [-111.4389610284354, 26.05400700856401], [-111.43896102852412, 26.054007008522053], [-111.43896102860829, 26.0540070084716], [-111.4389610286871, 26.05400700841314], [-111.43896102875982, 26.054007008347238], [-111.43896102882573, 26.054007008274525], [-111.43896102888418, 26.0540070081957], [-111.43896102893464, 26.054007008111526], [-111.43896102897659, 26.054007008022815], [-111.43896102900966, 26.054007007930416], [-111.4389610290335, 26.05400700783522], [-111.4389610290479, 26.054007007738146], [-111.43896102905272, 26.05400700764013], [-111.43896102905272, 26.042285913688193], [-111.43896102905387, 26.042285913664827], [-111.43896102907723, 26.04228591366368], [-111.45192146298815, 26.04228591366368], [-111.45192146301154, 26.042285913664827], [-111.4519214630127, 26.042285913688193], [-111.4519214630127, 26.047683930934348], [-111.45192146301751, 26.047683931032363], [-111.45192146303191, 26.047683931129438], [-111.45192146305575, 26.047683931224633], [-111.45192146308882, 26.04768393131703], [-111.45192146313077, 26.047683931405743], [-111.45192146318124, 26.047683931489917], [-111.45192146323969, 26.04768393156874], [-111.4519214633056, 26.047683931641455], [-111.45192146337831, 26.047683931707358], [-111.45192146345713, 26.047683931765818], [-111.4519214635413, 26.04768393181627], [-111.45192146363001, 26.047683931858227], [-111.45192146372241, 26.04768393189129], [-111.45192146381761, 26.047683931915135], [-111.45192146391469, 26.047683931929534], [-111.4519214640127, 26.047683931934348], [-111.46797180173327, 26.047683931934348], [-111.46797180175665, 26.047683931935495], [-111.4679718017578, 26.04768393195886], [-111.4679718017578, 26.05315880984378], [-111.46797180176262, 26.053158809941795], [-111.46797180177701, 26.05315881003887], [-111.46797180180086, 26.053158810134065], [-111.46797180183393, 26.053158810226464], [-111.46797180187588, 26.053158810315175], [-111.46797180192634, 26.05315881039935], [-111.46797180198479, 26.053158810478173], [-111.4679718020507, 26.053158810550887], [-111.46797180212342, 26.05315881061679], [-111.46797180220223, 26.05315881067525], [-111.4679718022864, 26.0531588107257], [-111.46797180237512, 26.05315881076766], [-111.46797180246752, 26.05315881080072], [-111.46797180256272, 26.053158810824566], [-111.46797180265979, 26.053158810838966], [-111.4679718027578, 26.05315881084378], [-111.47595405576159, 26.05315881084378], [-111.47595405578497, 26.053158810844927], [-111.47595405578612, 26.053158810868293], [-111.47595405578612, 26.07297419069171], [-111.47595405579094, 26.072974190789726], [-111.47595405580533, 26.0729741908868], [-111.47595405582918, 26.072974190981995], [-111.47595405586225, 26.072974191074394], [-111.4759540559042, 26.072974191163105], [-111.47595405595466, 26.07297419124728], [-111.47595405601311, 26.072974191326104], [-111.47595405607902, 26.072974191398817], [-111.47595405615174, 26.07297419146472], [-111.47595405623055, 26.07297419152318], [-111.47595405631472, 26.072974191573632], [-111.47595405640344, 26.07297419161559], [-111.47595405649584, 26.07297419164865], [-111.47595405659104, 26.072974191672497], [-111.47595405668811, 26.072974191686896], [-111.47595405678612, 26.07297419169171], [-111.47990226743153, 26.07297419169171], [-111.4799022674549, 26.072974191692857]]]}}, {"type": "Feature", "id": 9, "properties": {"ESTADO": "Baja california sur", "EXPEDICION": "2010/10/08", "MUNICIPIO": "Loreto", "NOMBRELOTE": "LA MISION", "SUPERFICIE": 94.2051, "SUST1": "Au", "SUST2": "Ag", "SUST3": "Cu", "TITULAR": "MANUEL SALVADOR BAEZA DAVIS Y SOCIOS", "TITULO": 236988, "extrude": 0, "tessellate": -1, "visibility": -1}, "geometry": {"type": "Polygon", "coordinates": [[[-111.49595260620002, 26.0691964205022], [-111.49595260620117, 26.069196420525568], [-111.49595260620117, 26.086233974681388], [-111.49595260620002, 26.086233974704754], [-111.49595260617664, 26.0862339747059], [-111.49097442629404, 26.0862339747059], [-111.49097442627067, 26.086233974704754], [-111.49097442626952, 26.086233974681388], [-111.49097442626952, 26.069196420525568], [-111.49097442627067, 26.0691964205022], [-111.49097442629404, 26.069196420501054], [-111.49595260617664, 26.069196420501054], [-111.49595260620002, 26.0691964205022]]]}}, {"type": "Feature", "id": 10, "properties": {"ESTADO": "Baja california sur", "EXPEDICION": "2010/10/08", "MUNICIPIO": "Loreto", "NOMBRELOTE": "LA TRINIDAD", "SUPERFICIE": 635.4189, "SUST1": "Au", "SUST2": "Ag", "SUST3": "Pb", "SUST4": "Cu", "TITULAR": "JOSE RAMON LOPEZ OROZCO Y SOCIOS", "TITULO": 236989, "extrude": 0, "tessellate": -1, "visibility": -1}, "geometry": {"type": "Polygon", "coordinates": [[[-111.52032852172736, 26.062488648943532], [-111.52032852172852, 26.062488648966898], [-111.52032852172852, 26.08592562469416], [-111.52032852172736, 26.085925624717525], [-111.52032852170399, 26.085925624718673], [-111.4959526062257, 26.085925624718673], [-111.49595260620232, 26.085925624717525], [-111.49595260620117, 26.08592562469416], [-111.49595260620117, 26.062488648966898], [-111.49595260620232, 26.062488648943532], [-111.4959526062257, 26.062488648942384], [-111.52032852170399, 26.062488648942384], [-111.52032852172736, 26.062488648943532]]]}}, {"type": "Feature", "id": 11, "properties": {"ESTADO": "Baja california sur", "EXPEDICION": "2010/09/14", "MUNICIPIO": "Loreto", "NOMBRELOTE": "STA. ELENA", "SUPERFICIE": 200, "SUST1": "Au", "SUST2": "Ag", "SUST3": "Cu", "TITULAR": "MANUEL SALVADOR BAEZA DAVIS Y SOCIOS", "TITULO": 236867, "extrude": 0, "tessellate": -1, "visibility": -1}, "geometry": {"type": "Polygon", "coordinates": [[[-111.47492408752325, 26.06395359735573], [-111.4749240875244, 26.063953597379097], [-111.4749240875244, 26.072974191667196], [-111.47492408752325, 26.072974191690562], [-111.47492408749987, 26.07297419169171], [-111.45998954775402, 26.07297419169171], [-111.45998954773064, 26.072974191690562], [-111.45998954772949, 26.072974191667196], [-111.45998954772949, 26.063953598354583], [-111.45998954772467, 26.063953598256568], [-111.45998954771028, 26.063953598159493], [-111.45998954768643, 26.0639535980643], [-111.45998954765336, 26.0639535979719], [-111.45998954761141, 26.063953597883188], [-111.45998954756095, 26.063953597799014], [-111.4599895475025, 26.06395359772019], [-111.45998954743659, 26.063953597647476], [-111.45998954736388, 26.063953597581573], [-111.45998954728506, 26.063953597523113], [-111.45998954720089, 26.06395359747266], [-111.45998954711217, 26.063953597430704], [-111.45998954701977, 26.063953597397642], [-111.45998954692458, 26.063953597373796], [-111.4599895468275, 26.063953597359397], [-111.45998954672949, 26.063953597354583], [-111.45792961123058, 26.063953597354583], [-111.4579296112072, 26.063953597353436], [-111.45792961120605, 26.06395359733007], [-111.45792961120605, 26.059404487166898], [-111.4579296112072, 26.05940448714353], [-111.45792961123058, 26.059404487142384], [-111.46797180173327, 26.059404487142384], [-111.46797180175665, 26.05940448714353], [-111.4679718017578, 26.059404487166898], [-111.4679718017578, 26.063953596354583], [-111.46797180176262, 26.0639535964526], [-111.46797180177701, 26.063953596549673], [-111.46797180180086, 26.06395359664487], [-111.46797180183393, 26.063953596737267], [-111.46797180187588, 26.06395359682598], [-111.46797180192634, 26.063953596910153], [-111.46797180198479, 26.063953596988977], [-111.4679718020507, 26.06395359706169], [-111.46797180212342, 26.063953597127593], [-111.46797180220223, 26.063953597186053], [-111.4679718022864, 26.063953597236505], [-111.46797180237512, 26.063953597278463], [-111.46797180246752, 26.063953597311524], [-111.46797180256272, 26.06395359733537], [-111.46797180265979, 26.06395359734977], [-111.4679718027578, 26.063953597354583], [-111.47492408749987, 26.063953597354583], [-111.47492408752325, 26.06395359735573]]]}}, {"type": "Feature", "id": 1, "properties": {"ESTADO": "Baja california sur", "EXPEDICION": "2010/08/31", "MUNICIPIO": "Loreto", "NOMBRELOTE": "MARYFER", "SUPERFICIE": 1891.6991, "SUST1": "POT", "SUST2": "TSP", "TITULAR": "SOCORRO DEL CARMEN VALLES VILLARREAL", "TITULO": 236803, "extrude": 0, "tessellate": -1, "visibility": -1}, "geometry": {"type": "Polygon", "coordinates": [[[-111.41089439391976, 26.106120832356638], [-111.41089439392091, 26.106120832380004], [-111.41089439392091, 26.139489236001374], [-111.41089439391976, 26.13948923602474], [-111.41089439389638, 26.139489236025888], [-111.39286994936535, 26.139489236025888], [-111.39286994934197, 26.13948923602474], [-111.39286994934082, 26.139489236001374], [-111.39286994934082, 26.121457611092676], [-111.392869949336, 26.12145761099466], [-111.39286994932161, 26.121457610897586], [-111.39286994929776, 26.12145761080239], [-111.39286994926469, 26.121457610709992], [-111.39286994922274, 26.12145761062128], [-111.39286994917228, 26.121457610537107], [-111.39286994911383, 26.121457610458283], [-111.39286994904792, 26.12145761038557], [-111.3928699489752, 26.121457610319666], [-111.39286994889639, 26.121457610261206], [-111.39286994881222, 26.121457610210754], [-111.3928699487235, 26.121457610168797], [-111.3928699486311, 26.121457610135735], [-111.3928699485359, 26.12145761011189], [-111.39286994843883, 26.12145761009749], [-111.39286994834082, 26.121457610092676], [-111.35991096499036, 26.121457610092676], [-111.35991096496699, 26.12145761009153], [-111.35991096496583, 26.121457610068163], [-111.35991096496583, 26.106120832380004], [-111.35991096496699, 26.106120832356638], [-111.35991096499036, 26.10612083235549], [-111.41089439389638, 26.10612083235549], [-111.41089439391976, 26.106120832356638]]]}}, {"type": "Feature", "id": 2, "properties": {"ESTADO": "Baja california sur", "EXPEDICION": "2010/08/31", "MUNICIPIO": "Loreto", "NOMBRELOTE": "MARYFER FRACC. 1", "SUPERFICIE": 1940.827, "SUST1": "POT", "SUST2": "TSP", "TITULAR": "SOCORRO DEL CARMEN VALLES VILLARREAL", "TITULO": 236804, "extrude": 0, "tessellate": -1, "visibility": -1}, "geometry": {"type": "Polygon", "coordinates": [[[-111.44488334655647, 26.106120832356638], [-111.44488334655762, 26.106120832380004], [-111.44488334655762, 26.139489236001374], [-111.44488334655647, 26.13948923602474], [-111.44488334653309, 26.139489236025888], [-111.41089439394544, 26.139489236025888], [-111.41089439392206, 26.13948923602474], [-111.41089439392091, 26.139489236001374], [-111.41089439392091, 26.106120832380004], [-111.41089439392206, 26.106120832356638], [-111.41089439394544, 26.10612083235549], [-111.44488334653309, 26.10612083235549], [-111.44488334655647, 26.106120832356638]]]}}, {"type": "Feature", "id": 3, "properties": {"ESTADO": "Baja california sur", "EXPEDICION": "2010/11/30", "MUNICIPIO": "Loreto", "NOMBRELOTE": "MARYFER I", "SUPERFICIE": 986.2665, "SUST1": "POT", "SUST2": "TSP", "TITULAR": "SOCORRO DEL CARMEN VALLES VILLARREAL", "TITULO": 237295, "extrude": 0, "tessellate": -1, "visibility": -1}, "geometry": {"type": "Polygon", "coordinates": [[[-111.39286994933967, 26.121457610093824], [-111.39286994934082, 26.12145761011719], [-111.39286994934082, 26.139489236001374], [-111.39286994933967, 26.13948923602474], [-111.39286994931629, 26.139489236025888], [-111.35793685915539, 26.139489236025888], [-111.35793685913201, 26.13948923602474], [-111.35793685913086, 26.139489236001374], [-111.35793685913086, 26.136792376018224], [-111.35793685912604, 26.13679237592021], [-111.35793685911165, 26.136792375823134], [-111.3579368590878, 26.13679237572794], [-111.35793685905473, 26.13679237563554], [-111.35793685901278, 26.13679237554683], [-111.35793685896232, 26.136792375462655], [-111.35793685890387, 26.13679237538383], [-111.35793685883796, 26.136792375311117], [-111.35793685876524, 26.136792375245214], [-111.35793685868643, 26.136792375186754], [-111.35793685860226, 26.136792375136302], [-111.35793685851354, 26.136792375094345], [-111.35793685842114, 26.136792375061283], [-111.35793685832594, 26.136792375037437], [-111.35793685822887, 26.136792375023038], [-111.35793685813086, 26.136792375018224], [-111.35587692263195, 26.136792375018224], [-111.35587692260857, 26.136792375017077], [-111.35587692260742, 26.13679237499371], [-111.35587692260742, 26.12777670281753], [-111.3558769226026, 26.127776702719515], [-111.35587692258821, 26.12777670262244], [-111.35587692256436, 26.127776702527246], [-111.3558769225313, 26.127776702434847], [-111.35587692248934, 26.127776702346136], [-111.35587692243888, 26.12777670226196], [-111.35587692238043, 26.127776702183137], [-111.35587692231452, 26.127776702110424], [-111.3558769222418, 26.12777670204452], [-111.35587692216299, 26.12777670198606], [-111.35587692207882, 26.12777670193561], [-111.3558769219901, 26.12777670189365], [-111.3558769218977, 26.12777670186059], [-111.3558769218025, 26.127776701836744], [-111.35587692170543, 26.127776701822345], [-111.35587692160742, 26.12777670181753], [-111.35493278505871, 26.12777670181753], [-111.35493278503533, 26.127776701816384], [-111.35493278503418, 26.127776701793017], [-111.35493278503418, 26.12415482619872], [-111.35493278502936, 26.124154826100703], [-111.35493278501497, 26.12415482600363], [-111.35493278499112, 26.124154825908434], [-111.35493278495805, 26.124154825816035], [-111.3549327849161, 26.124154825727324], [-111.35493278486564, 26.12415482564315], [-111.35493278480719, 26.124154825564325], [-111.35493278474128, 26.124154825491612], [-111.35493278466856, 26.12415482542571], [-111.35493278458975, 26.12415482536725], [-111.35493278450558, 26.124154825316797], [-111.35493278441686, 26.12415482527484], [-111.35493278432446, 26.124154825241778], [-111.35493278422926, 26.124154825217932], [-111.35493278413219, 26.124154825203533], [-111.35493278403418, 26.12415482519872], [-111.35192871096203, 26.12415482519872], [-111.35192871093865, 26.12415482519757], [-111.3519287109375, 26.124154825174205], [-111.3519287109375, 26.120532837294217], [-111.35192871093268, 26.1205328371962], [-111.35192871091829, 26.120532837099127], [-111.35192871089444, 26.120532837003932], [-111.35192871086137, 26.120532836911533], [-111.35192871081942, 26.12053283682282], [-111.35192871076896, 26.120532836738647], [-111.35192871071051, 26.120532836659823], [-111.3519287106446, 26.12053283658711], [-111.35192871057188, 26.120532836521207], [-111.35192871049307, 26.120532836462747], [-111.3519287104089, 26.120532836412295], [-111.35192871032018, 26.120532836370337], [-111.35192871022778, 26.120532836337276], [-111.35192871013258, 26.12053283631343], [-111.35192871003551, 26.12053283629903], [-111.3519287099375, 26.120532836294217], [-111.34892463686535, 26.120532836294217], [-111.34892463684197, 26.12053283629307], [-111.34892463684082, 26.120532836269703], [-111.34892463684082, 26.114213353797453], [-111.348924636836, 26.114213353699437], [-111.34892463682161, 26.114213353602363], [-111.34892463679776, 26.114213353507168], [-111.34892463676469, 26.11421335341477], [-111.34892463672274, 26.114213353326058], [-111.34892463667228, 26.114213353241883], [-111.34892463661383, 26.11421335316306], [-111.34892463654792, 26.114213353090346], [-111.3489246364752, 26.114213353024443], [-111.34892463639639, 26.114213352965983], [-111.34892463631222, 26.11421335291553], [-111.3489246362235, 26.114213352873573], [-111.3489246361311, 26.114213352840512], [-111.3489246360359, 26.114213352816666], [-111.34892463593883, 26.114213352802267], [-111.34892463584082, 26.114213352797453], [-111.34592056276868, 26.114213352797453], [-111.3459205627453, 26.114213352796305], [-111.34592056274415, 26.11421335277294], [-111.34592056274415, 26.10881840241315], [-111.34592056273934, 26.108818402315134], [-111.34592056272494, 26.10881840221806], [-111.3459205627011, 26.108818402122864], [-111.34592056266803, 26.108818402030465], [-111.34592056262608, 26.108818401941754], [-111.34592056257561, 26.10881840185758], [-111.34592056251716, 26.108818401778755], [-111.34592056245125, 26.108818401706042], [-111.34592056237854, 26.10881840164014], [-111.34592056229972, 26.10881840158168], [-111.34592056221555, 26.108818401531227], [-111.34592056212684, 26.10881840148927], [-111.34592056203444, 26.108818401456208], [-111.34592056193924, 26.108818401432362], [-111.34592056184216, 26.108818401417963], [-111.34592056174415, 26.10881840141315], [-111.34291648867199, 26.10881840141315], [-111.34291648864861, 26.108818401412], [-111.34291648864746, 26.108818401388636], [-111.34291648864746, 26.106120832380004], [-111.34291648864861, 26.106120832356638], [-111.34291648867199, 26.10612083235549], [-111.3599109649413, 26.10612083235549], [-111.35991096496468, 26.106120832356638], [-111.35991096496583, 26.106120832380004], [-111.35991096496583, 26.121457609092676], [-111.35991096497065, 26.121457609190692], [-111.35991096498505, 26.121457609287766], [-111.3599109650089, 26.12145760938296], [-111.35991096504196, 26.12145760947536], [-111.35991096508391, 26.12145760956407], [-111.35991096513438, 26.121457609648246], [-111.35991096519282, 26.12145760972707], [-111.35991096525873, 26.121457609799783], [-111.35991096533145, 26.121457609865686], [-111.35991096541026, 26.121457609924146], [-111.35991096549444, 26.1214576099746], [-111.35991096558315, 26.121457610016556], [-111.35991096567555, 26.121457610049617], [-111.35991096577075, 26.121457610073463], [-111.35991096586783, 26.121457610087862], [-111.35991096596584, 26.121457610092676], [-111.39286994931629, 26.121457610092676], [-111.39286994933967, 26.121457610093824]]]}}, {"type": "Feature", "id": 5, "properties": {"ESTADO": "Baja california sur", "EXPEDICION": "2011/09/23", "MUNICIPIO": "Loreto", "NOMBRELOTE": "VELMA", "SUPERFICIE": 8839.1751, "SUST1": "POT", "SUST2": "TSP", "TITULAR": "SOCORRO DEL CARMEN VALLES VILLARREAL", "TITULO": 238424, "extrude": 0, "tessellate": -1, "visibility": -1}, "geometry": {"type": "Polygon", "coordinates": [[[-111.45629882812386, 26.106120832356638], [-111.45629882812501, 26.106120832380004], [-111.45629882812501, 26.166608488024718], [-111.45629882812386, 26.166608488048084], [-111.45629882810049, 26.16660848804923], [-111.35991096499036, 26.16660848804923], [-111.35991096496699, 26.166608488048084], [-111.35991096496583, 26.166608488024718], [-111.35991096496583, 26.139566288306703], [-111.35991096496697, 26.13956628828338], [-111.3599109649904, 26.139566288282257], [-111.44393920798345, 26.139643340486792], [-111.44393920808153, 26.13964334048206], [-111.44393920817866, 26.139643340467735], [-111.44393920827393, 26.13964334044395], [-111.44393920836642, 26.139643340410938], [-111.4439392084552, 26.139643340369012], [-111.44393920853946, 26.13964334031858], [-111.44393920861836, 26.139643340260132], [-111.44393920869115, 26.139643340194226], [-111.44393920875713, 26.1396433401215], [-111.44393920881565, 26.13964334004265], [-111.44393920886615, 26.139643339958443], [-111.44393920890816, 26.13964333986969], [-111.44393920894126, 26.139643339777244], [-111.44393920896513, 26.139643339681996], [-111.44393920897956, 26.139643339584868], [-111.44393920898438, 26.139643339486792], [-111.44393920898438, 26.1394892360504], [-111.44393920898553, 26.139489236027035], [-111.4439392090089, 26.139489236025888], [-111.44479751487171, 26.139489236025888], [-111.44479751496957, 26.139489236021088], [-111.44479751506648, 26.139489236006735], [-111.44479751516153, 26.139489235982968], [-111.4447975152538, 26.139489235950013], [-111.4447975153424, 26.139489235908187], [-111.44479751542647, 26.139489235857894], [-111.44479751550523, 26.139489235799612], [-111.4447975155779, 26.139489235733905], [-111.4447975156438, 26.139489235661397], [-111.44479751570229, 26.139489235582793], [-111.4447975157528, 26.139489235498843], [-111.44479751579485, 26.139489235410352], [-111.44479751582804, 26.139489235318173], [-111.44479751585206, 26.139489235223184], [-111.44479751586665, 26.139489235126305], [-111.44479751587171, 26.13948923502846], [-111.44488334655756, 26.106120832379933], [-111.44488334655875, 26.106120832356638], [-111.44488334658212, 26.10612083235549], [-111.45629882810049, 26.10612083235549], [-111.45629882812386, 26.106120832356638]]]}}, {"type": "Feature", "id": 6, "properties": {"ESTADO": "Baja california sur", "EXPEDICION": "2012/05/23", "MUNICIPIO": "Loreto", "NOMBRELOTE": "EL TRIUNFO", "SUPERFICIE": 7431.1146, "SUST1": "POT", "SUST2": "TSP", "TITULAR": "SOCORRO DEL CARMEN VALLES VILLARREAL", "TITULO": 240380, "extrude": 0, "tessellate": -1, "visibility": -1}, "geometry": {"type": "Polygon", "coordinates": [[[-111.45629882812501, 26.247466509000272], [-111.45629882812385, 26.2474665090238], [-111.45629882810049, 26.24746650902491], [-111.39510154726575, 26.247389528116077], [-111.39510154724238, 26.2473895281149], [-111.39510154724123, 26.24738952809147], [-111.39510154724123, 26.236611698549922], [-111.39510154723641, 26.236611698451906], [-111.39510154722201, 26.23661169835483], [-111.39510154719817, 26.236611698259637], [-111.3951015471651, 26.236611698167238], [-111.39510154712315, 26.236611698078526], [-111.39510154707268, 26.236611697994352], [-111.39510154701424, 26.236611697915528], [-111.39510154694833, 26.236611697842815], [-111.39510154687561, 26.23661169777691], [-111.3951015467968, 26.236611697718452], [-111.39510154671262, 26.236611697668], [-111.3951015466239, 26.236611697626042], [-111.3951015465315, 26.23661169759298], [-111.39510154643631, 26.236611697569135], [-111.39510154633923, 26.236611697554736], [-111.39510154624122, 26.23661169754992], [-111.38703346254904, 26.23661169754992], [-111.38703346252558, 26.236611697548767], [-111.38703346252451, 26.236611697525348], [-111.38711929320876, 26.21582306068863], [-111.38711929320432, 26.21582306059034], [-111.38711929319025, 26.21582306049296], [-111.38711929316668, 26.21582306039743], [-111.38711929313382, 26.215823060304682], [-111.38711929309203, 26.215823060215612], [-111.38711929304166, 26.21582306013108], [-111.38711929298324, 26.215823060051907], [-111.38711929291733, 26.215823059978856], [-111.38711929284456, 26.21582305991264], [-111.38711929276562, 26.215823059853893], [-111.3871192926813, 26.215823059803192], [-111.3871192925924, 26.215823059761018], [-111.38711929249979, 26.21582305972779], [-111.38711929240436, 26.21582305970382], [-111.38711929230703, 26.215823059689345], [-111.38711929220877, 26.215823059684503], [-111.37905120852068, 26.215823059684503], [-111.37905120849727, 26.215823059683352], [-111.37905120849616, 26.215823059659837], [-111.37913703918247, 26.175236019880696], [-111.37913703917783, 26.175236019782538], [-111.37913703916361, 26.175236019685308], [-111.3791370391399, 26.175236019589942], [-111.37913703910695, 26.175236019497365], [-111.37913703906507, 26.17523601940847], [-111.37913703901467, 26.17523601932411], [-111.37913703895623, 26.17523601924511], [-111.37913703889032, 26.175236019172225], [-111.37913703881757, 26.17523601910616], [-111.37913703873869, 26.175236019047553], [-111.37913703865445, 26.175236018996973], [-111.37913703856563, 26.175236018954905], [-111.37913703847313, 26.17523601892176], [-111.3791370383778, 26.17523601889785], [-111.37913703828062, 26.17523601888341], [-111.37913703818246, 26.175236018878582], [-111.36712074282238, 26.175236018878582], [-111.367120742799, 26.175236018877435], [-111.36712074279785, 26.17523601885407], [-111.36712074279785, 26.166685522423595], [-111.367120742799, 26.16668552240023], [-111.36712074282238, 26.16668552239908], [-111.45629882810049, 26.16668552239908], [-111.45629882812386, 26.16668552240023], [-111.45629882812501, 26.166685522423595], [-111.45629882812501, 26.247466509000272]]]}}, {"type": "Feature", "id": 2, "properties": {"ESTADO": "Baja california sur", "EXPEDICION": "2010/08/31", "MUNICIPIO": "Loreto", "NOMBRELOTE": "MARYFER", "SUPERFICIE": 1891.6991, "SUST1": "POT", "SUST2": "TSP", "TITULAR": "SOCORRO DEL CARMEN VALLES VILLARREAL", "TITULO": 236803, "extrude": 0, "tessellate": -1, "visibility": -1}, "geometry": {"type": "Polygon", "coordinates": [[[-111.41089439391976, 26.087159019793976], [-111.41089439392091, 26.087159019817342], [-111.41089439392091, 26.12585018565583], [-111.41089439391976, 26.125850185679194], [-111.41089439389638, 26.125850185680342], [-111.39286994936535, 26.125850185680342], [-111.39286994934197, 26.125850185679194], [-111.39286994934082, 26.12585018565583], [-111.39286994934082, 26.121457611092676], [-111.392869949336, 26.12145761099466], [-111.39286994932161, 26.121457610897586], [-111.39286994929776, 26.12145761080239], [-111.39286994926469, 26.121457610709992], [-111.39286994922274, 26.12145761062128], [-111.39286994917228, 26.121457610537107], [-111.39286994911383, 26.121457610458283], [-111.39286994904792, 26.12145761038557], [-111.3928699489752, 26.121457610319666], [-111.39286994889639, 26.121457610261206], [-111.39286994881222, 26.121457610210754], [-111.3928699487235, 26.121457610168797], [-111.3928699486311, 26.121457610135735], [-111.3928699485359, 26.12145761011189], [-111.39286994843883, 26.12145761009749], [-111.39286994834082, 26.121457610092676], [-111.35991096499036, 26.121457610092676], [-111.35991096496699, 26.12145761009153], [-111.35991096496583, 26.121457610068163], [-111.35991096496583, 26.105195937232672], [-111.35991096496699, 26.105195937209306], [-111.35991096499036, 26.10519593720816], [-111.38025283713476, 26.10519593720816], [-111.38025283723277, 26.105195937203344], [-111.38025283732985, 26.105195937188945], [-111.38025283742505, 26.1051959371651], [-111.38025283751745, 26.105195937132038], [-111.38025283760616, 26.10519593709008], [-111.38025283769034, 26.10519593703963], [-111.38025283776915, 26.10519593698117], [-111.38025283784187, 26.105195936915266], [-111.38025283790778, 26.105195936842552], [-111.38025283796622, 26.105195936763728], [-111.38025283801669, 26.105195936679554], [-111.38025283805864, 26.105195936590842], [-111.3802528380917, 26.105195936498443], [-111.38025283811555, 26.10519593640325], [-111.38025283812995, 26.105195936306174], [-111.38025283813477, 26.10519593620816], [-111.38025283813477, 26.087159019817342], [-111.38025283813592, 26.087159019793976], [-111.3802528381593, 26.08715901979283], [-111.41089439389638, 26.08715901979283], [-111.41089439391976, 26.087159019793976]]]}}, {"type": "Feature", "id": 3, "properties": {"ESTADO": "Baja california sur", "EXPEDICION": "2010/08/31", "MUNICIPIO": "Loreto", "NOMBRELOTE": "MARYFER FRACC. 1", "SUPERFICIE": 1940.827, "SUST1": "POT", "SUST2": "TSP", "TITULAR": "SOCORRO DEL CARMEN VALLES VILLARREAL", "TITULO": 236804, "extrude": 0, "tessellate": -1, "visibility": -1}, "geometry": {"type": "Polygon", "coordinates": [[[-111.44488334655647, 26.094404953307112], [-111.44488334655762, 26.09440495333048], [-111.44488334655762, 26.12585018565583], [-111.44488334655647, 26.125850185679194], [-111.44488334653309, 26.125850185680342], [-111.41089439394544, 26.125850185680342], [-111.41089439392206, 26.125850185679194], [-111.41089439392091, 26.12585018565583], [-111.41089439392091, 26.087159019817342], [-111.41089439392206, 26.087159019793976], [-111.41089439394544, 26.08715901979283], [-111.4408493041747, 26.08715901979283], [-111.44084930419808, 26.087159019793976], [-111.44084930419923, 26.087159019817342], [-111.44084930419923, 26.094404952305965], [-111.44084930420405, 26.09440495240398], [-111.44084930421845, 26.094404952501055], [-111.44084930424229, 26.09440495259625], [-111.44084930427536, 26.09440495268865], [-111.44084930431731, 26.09440495277736], [-111.44084930436777, 26.094404952861534], [-111.44084930442622, 26.09440495294036], [-111.44084930449213, 26.094404953013072], [-111.44084930456485, 26.094404953078975], [-111.44084930464366, 26.094404953137435], [-111.44084930472783, 26.094404953187887], [-111.44084930481655, 26.094404953229844], [-111.44084930490895, 26.094404953262906], [-111.44084930500415, 26.09440495328675], [-111.44084930510122, 26.09440495330115], [-111.44084930519924, 26.094404953305965], [-111.44488334653309, 26.094404953305965], [-111.44488334655647, 26.094404953307112]]]}}, {"type": "Feature", "id": 4, "properties": {"ESTADO": "Baja california sur", "EXPEDICION": "2012/02/15", "MUNICIPIO": "Loreto", "NOMBRELOTE": "LA GIGANTA", "SUPERFICIE": 3381.6241, "SUST1": "Au", "SUST2": "Ag", "SUST3": "Cu", "SUST4": "TSP", "TITULAR": "JOSE DIMITRIO MARTINEZ Y SOCIOS", "TITULO": 239720, "extrude": 0, "tessellate": -1, "visibility": -1}, "geometry": {"type": "Polygon", "coordinates": [[[-111.440849304, 26.086233975], [-111.440849304, 26.085308923], [-111.440849304, 26.085308922], [-111.440849303, 26.085308922], [-111.425228119, 26.085308922], [-111.425228119, 26.040203755], [-111.425228118, 26.040203755], [-111.425228118, 26.040203754], [-111.420249939, 26.040203754], [-111.420249939, 26.031412008], [-111.456298828, 26.031489132], [-111.456298828, 26.047683932], [-111.451921463, 26.047683932], [-111.451921463, 26.042285915], [-111.451921463, 26.042285914], [-111.451921462, 26.042285914], [-111.43896103, 26.042285914], [-111.438961029, 26.042285914], [-111.438961029, 26.042285915], [-111.438961029, 26.054007009], [-111.437931062, 26.054007009], [-111.437931061, 26.054007009], [-111.437931061, 26.05400701], [-111.437931061, 26.059404486], [-111.437931061, 26.059404487], [-111.437931062, 26.059404487], [-111.456298828, 26.059404487], [-111.456298828, 26.086233975], [-111.440849304, 26.086233975]]]}}, {"type": "Feature", "id": 5, "properties": {"ESTADO": "Baja california sur", "EXPEDICION": "2010/11/30", "MUNICIPIO": "Loreto", "NOMBRELOTE": "MARYFER I", "SUPERFICIE": 986.2665, "SUST1": "POT", "SUST2": "TSP", "TITULAR": "SOCORRO DEL CARMEN VALLES VILLARREAL", "TITULO": 237295, "extrude": 0, "tessellate": -1, "visibility": -1}, "geometry": {"type": "Polygon", "coordinates": [[[-111.39286994933967, 26.121457610093824], [-111.39286994934082, 26.12145761011719], [-111.39286994934082, 26.12585018565583], [-111.39286994933967, 26.125850185679194], [-111.39286994931629, 26.125850185680342], [-111.35493278505871, 26.125850185680342], [-111.35493278503533, 26.125850185679194], [-111.35493278503418, 26.12585018565583], [-111.35493278503418, 26.12415482619872], [-111.35493278502936, 26.124154826100703], [-111.35493278501497, 26.12415482600363], [-111.35493278499112, 26.124154825908434], [-111.35493278495805, 26.124154825816035], [-111.3549327849161, 26.124154825727324], [-111.35493278486564, 26.12415482564315], [-111.35493278480719, 26.124154825564325], [-111.35493278474128, 26.124154825491612], [-111.35493278466856, 26.12415482542571], [-111.35493278458975, 26.12415482536725], [-111.35493278450558, 26.124154825316797], [-111.35493278441686, 26.12415482527484], [-111.35493278432446, 26.124154825241778], [-111.35493278422926, 26.124154825217932], [-111.35493278413219, 26.124154825203533], [-111.35493278403418, 26.12415482519872], [-111.35192871096203, 26.12415482519872], [-111.35192871093865, 26.12415482519757], [-111.3519287109375, 26.124154825174205], [-111.3519287109375, 26.120532837294217], [-111.35192871093268, 26.1205328371962], [-111.35192871091829, 26.120532837099127], [-111.35192871089444, 26.120532837003932], [-111.35192871086137, 26.120532836911533], [-111.35192871081942, 26.12053283682282], [-111.35192871076896, 26.120532836738647], [-111.35192871071051, 26.120532836659823], [-111.3519287106446, 26.12053283658711], [-111.35192871057188, 26.120532836521207], [-111.35192871049307, 26.120532836462747], [-111.3519287104089, 26.120532836412295], [-111.35192871032018, 26.120532836370337], [-111.35192871022778, 26.120532836337276], [-111.35192871013258, 26.12053283631343], [-111.35192871003551, 26.12053283629903], [-111.3519287099375, 26.120532836294217], [-111.34892463686535, 26.120532836294217], [-111.34892463684197, 26.12053283629307], [-111.34892463684082, 26.120532836269703], [-111.34892463684082, 26.114213353797464], [-111.348924636836, 26.114213353699448], [-111.34892463682161, 26.114213353602374], [-111.34892463679776, 26.11421335350718], [-111.34892463676469, 26.11421335341478], [-111.34892463672274, 26.11421335332607], [-111.34892463667228, 26.114213353241894], [-111.34892463661383, 26.11421335316307], [-111.34892463654792, 26.114213353090356], [-111.3489246364752, 26.114213353024454], [-111.34892463639639, 26.114213352965994], [-111.34892463631222, 26.11421335291554], [-111.3489246362235, 26.114213352873584], [-111.3489246361311, 26.114213352840522], [-111.3489246360359, 26.114213352816677], [-111.34892463593883, 26.114213352802278], [-111.34892463584082, 26.114213352797464], [-111.34592056276868, 26.114213352797464], [-111.3459205627453, 26.114213352796316], [-111.34592056274415, 26.11421335277295], [-111.34592056274415, 26.108818402413164], [-111.34592056273934, 26.108818402315148], [-111.34592056272494, 26.108818402218073], [-111.3459205627011, 26.10881840212288], [-111.34592056266803, 26.10881840203048], [-111.34592056262608, 26.108818401941768], [-111.34592056257561, 26.108818401857594], [-111.34592056251716, 26.10881840177877], [-111.34592056245125, 26.108818401706056], [-111.34592056237854, 26.108818401640153], [-111.34592056229972, 26.108818401581694], [-111.34592056221555, 26.10881840153124], [-111.34592056212684, 26.108818401489284], [-111.34592056203444, 26.108818401456222], [-111.34592056193924, 26.108818401432377], [-111.34592056184216, 26.108818401417977], [-111.34592056174415, 26.108818401413163], [-111.34291648867199, 26.108818401413163], [-111.34291648864861, 26.108818401412016], [-111.34291648864746, 26.10881840138865], [-111.34291648864746, 26.105195937232672], [-111.34291648864861, 26.105195937209306], [-111.34291648867199, 26.10519593720816], [-111.3599109649413, 26.10519593720816], [-111.35991096496468, 26.105195937209306], [-111.35991096496583, 26.105195937232672], [-111.35991096496583, 26.121457609092676], [-111.35991096497065, 26.121457609190692], [-111.35991096498505, 26.121457609287766], [-111.3599109650089, 26.12145760938296], [-111.35991096504196, 26.12145760947536], [-111.35991096508391, 26.12145760956407], [-111.35991096513438, 26.121457609648246], [-111.35991096519282, 26.12145760972707], [-111.35991096525873, 26.121457609799783], [-111.35991096533145, 26.121457609865686], [-111.35991096541026, 26.121457609924146], [-111.35991096549444, 26.1214576099746], [-111.35991096558315, 26.121457610016556], [-111.35991096567555, 26.121457610049617], [-111.35991096577075, 26.121457610073463], [-111.35991096586783, 26.121457610087862], [-111.35991096596584, 26.121457610092676], [-111.39286994931629, 26.121457610092676], [-111.39286994933967, 26.121457610093824]]]}}, {"type": "Feature", "id": 1, "properties": {"ESTADO": "Baja california sur", "EXPEDICION": "2008/08/06", "MUNICIPIO": "Comondu", "NOMBRELOTE": "TEMBABICHE", "SUPERFICIE": 22593, "SUST1": "FOS", "TITULAR": "GRUPO FERTINAL, S.A. DE C.V.", "TITULO": 232417, "extrude": 0, "tessellate": -1, "visibility": -1}, "geometry": {"type": "Polygon", "coordinates": [[[-111.03899002075082, 25.355660942426237], [-111.03899002072743, 25.355660942427388], [-110.99925041201185, 25.355660942427388], [-110.99925041198847, 25.35566094242624], [-110.99925041198732, 25.355660942402874], [-110.99925041198732, 25.34394846028991], [-110.9992504119825, 25.343948460191893], [-110.9992504119681, 25.34394846009482], [-110.99925041194426, 25.343948459999623], [-110.99925041191119, 25.343948459907224], [-110.99925041186924, 25.343948459818513], [-110.99925041181878, 25.34394845973434], [-110.99925041176033, 25.343948459655515], [-110.99925041169442, 25.3439484595828], [-110.9992504116217, 25.3439484595169], [-110.99925041154289, 25.34394845945844], [-110.99925041145872, 25.343948459407986], [-110.99925041137, 25.34394845936603], [-110.9992504112776, 25.343948459332967], [-110.9992504111824, 25.34394845930912], [-110.99925041108533, 25.343948459294722], [-110.99925041098732, 25.34394845928991], [-110.97933769228528, 25.34394845928991], [-110.97933769226191, 25.34394845928876], [-110.97933769226076, 25.343948459265395], [-110.97933769226076, 25.33851844758081], [-110.97933769225594, 25.338518447482794], [-110.97933769224154, 25.33851844738572], [-110.9793376922177, 25.338518447290525], [-110.97933769218463, 25.338518447198126], [-110.97933769214268, 25.338518447109415], [-110.97933769209222, 25.33851844702524], [-110.97933769203377, 25.338518446946416], [-110.97933769196786, 25.338518446873703], [-110.97933769189514, 25.3385184468078], [-110.97933769181633, 25.33851844674934], [-110.97933769173216, 25.338518446698888], [-110.97933769164344, 25.33851844665693], [-110.97933769155104, 25.33851844662387], [-110.97933769145584, 25.338518446600023], [-110.97933769135877, 25.338518446585624], [-110.97933769126075, 25.33851844658081], [-110.9734153747804, 25.33851844658081], [-110.97341537475702, 25.338518446579663], [-110.97341537475587, 25.338518446556296], [-110.97341537475587, 25.329519604308512], [-110.97341537475106, 25.329519604210496], [-110.97341537473666, 25.329519604113422], [-110.97341537471281, 25.329519604018227], [-110.97341537467975, 25.329519603925828], [-110.9734153746378, 25.329519603837117], [-110.97341537458733, 25.329519603752942], [-110.97341537452888, 25.329519603674118], [-110.97341537446297, 25.329519603601405], [-110.97341537439026, 25.329519603535502], [-110.97341537431144, 25.329519603477042], [-110.97341537422727, 25.32951960342659], [-110.97341537413855, 25.329519603384632], [-110.97341537404616, 25.32951960335157], [-110.97341537395096, 25.329519603327725], [-110.97341537385388, 25.329519603313326], [-110.97341537375587, 25.329519603308512], [-110.9554767608888, 25.329519603308512], [-110.95547676086542, 25.329519603307364], [-110.95547676086427, 25.329519603283998], [-110.95547676086427, 25.26542230098392], [-110.95547676085945, 25.265422300885906], [-110.95547676084506, 25.26542230078883], [-110.95547676082121, 25.265422300693636], [-110.95547676078814, 25.265422300601237], [-110.9554767607462, 25.265422300512526], [-110.95547676069573, 25.26542230042835], [-110.95547676063728, 25.265422300349528], [-110.95547676057137, 25.265422300276814], [-110.95547676049866, 25.26542230021091], [-110.95547676041984, 25.26542230015245], [-110.95547676033567, 25.265422300102], [-110.95547676024695, 25.26542230006004], [-110.95547676015455, 25.26542230002698], [-110.95547676005936, 25.265422300003134], [-110.95547675996228, 25.265422299988735], [-110.95547675986427, 25.26542229998392], [-110.9485244751222, 25.26542229998392], [-110.94852447509882, 25.265422299982774], [-110.94852447509767, 25.265422299959408], [-110.94852447509767, 25.248267036083604], [-110.94852447509285, 25.248267035985588], [-110.94852447507846, 25.248267035888514], [-110.94852447505461, 25.24826703579332], [-110.94852447502154, 25.24826703570092], [-110.94852447497959, 25.24826703561221], [-110.94852447492913, 25.248267035528034], [-110.94852447487068, 25.24826703544921], [-110.94852447480477, 25.248267035376497], [-110.94852447473205, 25.248267035310594], [-110.94852447465324, 25.248267035252134], [-110.94852447456907, 25.248267035201682], [-110.94852447448035, 25.248267035159724], [-110.94852447438795, 25.248267035126663], [-110.94852447429275, 25.248267035102817], [-110.94852447419568, 25.248267035088418], [-110.94852447409767, 25.248267035083604], [-110.9415721893556, 25.248267035083604], [-110.94157218933222, 25.248267035082456], [-110.94157218933107, 25.24826703505909], [-110.94157218933107, 25.230177640003685], [-110.94157218932625, 25.23017763990567], [-110.94157218931186, 25.230177639808595], [-110.94157218928801, 25.2301776397134], [-110.94157218925494, 25.230177639621], [-110.94157218921299, 25.23017763953229], [-110.94157218916253, 25.230177639448115], [-110.94157218910408, 25.23017763936929], [-110.94157218903817, 25.230177639296578], [-110.94157218896545, 25.230177639230675], [-110.94157218888664, 25.230177639172215], [-110.94157218880247, 25.230177639121763], [-110.94157218871375, 25.230177639079805], [-110.94157218862135, 25.230177639046744], [-110.94157218852615, 25.230177639022898], [-110.94157218842908, 25.2301776390085], [-110.94157218833107, 25.230177639003685], [-110.93367576601575, 25.230177639003685], [-110.93367576599238, 25.230177639002537], [-110.93367576599123, 25.23017763897917], [-110.93367576599123, 25.21216320656697], [-110.93367576598641, 25.212163206468954], [-110.93367576597201, 25.21216320637188], [-110.93367576594817, 25.212163206276685], [-110.9336757659151, 25.212163206184286], [-110.93367576587315, 25.212163206095575], [-110.93367576582268, 25.2121632060114], [-110.93367576576424, 25.212163205932576], [-110.93367576569833, 25.212163205859863], [-110.93367576562561, 25.21216320579396], [-110.9336757655468, 25.2121632057355], [-110.93367576546262, 25.212163205685048], [-110.9336757653739, 25.21216320564309], [-110.9336757652815, 25.21216320561003], [-110.93367576518631, 25.212163205586183], [-110.93367576508923, 25.212163205571784], [-110.93367576499122, 25.21216320556697], [-110.9276676178224, 25.21216320556697], [-110.92766761779902, 25.212163205565822], [-110.92766761779787, 25.212163205542456], [-110.92766761779787, 25.172475459051604], [-110.92766761779305, 25.17247545895359], [-110.92766761777865, 25.172475458856514], [-110.9276676177548, 25.17247545876132], [-110.92766761772174, 25.17247545866892], [-110.92766761767979, 25.17247545858021], [-110.92766761762933, 25.172475458496034], [-110.92766761757088, 25.17247545841721], [-110.92766761750497, 25.172475458344497], [-110.92766761743225, 25.172475458278594], [-110.92766761735344, 25.172475458220134], [-110.92766761726926, 25.172475458169682], [-110.92766761718055, 25.172475458127725], [-110.92766761708815, 25.172475458094663], [-110.92766761699295, 25.172475458070817], [-110.92766761689587, 25.172475458056418], [-110.92766761679786, 25.172475458051604], [-110.9137630462893, 25.172475458051604], [-110.91376304626583, 25.172475458050446], [-110.91376304626483, 25.17247545802692], [-110.9138488769463, 25.159813047047724], [-110.91384887694211, 25.159813046949253], [-110.91384887692826, 25.159813046851674], [-110.91384887690485, 25.159813046755936], [-110.91384887687214, 25.159813046662965], [-110.91384887683044, 25.159813046573664], [-110.91384887678015, 25.159813046488903], [-110.91384887672176, 25.159813046409504], [-110.91384887665583, 25.15981304633624], [-110.91384887658302, 25.159813046269818], [-110.913848876504, 25.15981304621089], [-110.91384887641959, 25.159813046160025], [-110.91384887633058, 25.159813046117716], [-110.91384887623784, 25.159813046084373], [-110.91384887614225, 25.159813046060325], [-110.91384887604477, 25.1598130460458], [-110.91384887594633, 25.159813046040945], [-110.90586662294935, 25.159813046040945], [-110.90586662292597, 25.159813046039798], [-110.90586662292482, 25.15981304601645], [-110.90586662292482, 25.13992341527497], [-110.90586662292, 25.139923415176956], [-110.9058666229056, 25.13992341507988], [-110.90586662288176, 25.139923414984686], [-110.90586662284869, 25.139923414892287], [-110.90586662280674, 25.139923414803576], [-110.90586662275628, 25.1399234147194], [-110.90586662269783, 25.139923414640577], [-110.90586662263192, 25.139923414567864], [-110.9058666225592, 25.13992341450196], [-110.90586662248039, 25.1399234144435], [-110.90586662239622, 25.13992341439305], [-110.9058666223075, 25.13992341435109], [-110.9058666222151, 25.13992341431803], [-110.9058666221199, 25.139923414294184], [-110.90586662202283, 25.139923414279785], [-110.90586662192482, 25.13992341427497], [-110.89994430544446, 25.13992341427497], [-110.89994430542109, 25.139923414273824], [-110.89994430541994, 25.139923414250458], [-110.89994430541994, 25.102932517825526], [-110.89994430541512, 25.10293251772751], [-110.89994430540072, 25.102932517630435], [-110.89994430537688, 25.10293251753524], [-110.89994430534381, 25.10293251744284], [-110.89994430530186, 25.10293251735413], [-110.8999443052514, 25.102932517269956], [-110.89994430519295, 25.10293251719113], [-110.89994430512704, 25.10293251711842], [-110.89994430505432, 25.102932517052515], [-110.8999443049755, 25.102932516994056], [-110.89994430489133, 25.102932516943604], [-110.89994430480262, 25.102932516901646], [-110.89994430471022, 25.102932516868584], [-110.89994430461502, 25.10293251684474], [-110.89994430451794, 25.10293251683034], [-110.89994430441993, 25.102932516825526], [-110.87016105654308, 25.102932516825526], [-110.8701610565197, 25.102932516824378], [-110.87016105651855, 25.102932516801012], [-110.87016105651855, 25.075803927678376], [-110.8701610565197, 25.075803927654874], [-110.87016105654313, 25.07580392765376], [-110.91977119443347, 25.075881668591258], [-110.91977119445687, 25.075881668592444], [-110.91977119445801, 25.07588166861567], [-110.91977119445801, 25.102932515825525], [-110.91977119446283, 25.10293251592354], [-110.91977119447722, 25.102932516020616], [-110.91977119450107, 25.10293251611581], [-110.91977119453414, 25.10293251620821], [-110.91977119457609, 25.10293251629692], [-110.91977119462655, 25.102932516381095], [-110.919771194685, 25.10293251645992], [-110.91977119475091, 25.102932516532633], [-110.91977119482362, 25.102932516598536], [-110.91977119490244, 25.102932516656995], [-110.91977119498661, 25.102932516707448], [-110.91977119507533, 25.102932516749405], [-110.91977119516773, 25.102932516782467], [-110.91977119526292, 25.102932516806312], [-110.91977119536, 25.10293251682071], [-110.91977119545801, 25.102932516825526], [-110.96929550168444, 25.102932516825526], [-110.96929550170783, 25.102932516826673], [-110.96929550170901, 25.102932516850082], [-110.9693576855177, 25.15522939394176], [-110.96935768552264, 25.155229394039697], [-110.96935768553713, 25.155229394136683], [-110.96935768556105, 25.155229394231778], [-110.96935768559418, 25.155229394324078], [-110.96935768563617, 25.155229394412686], [-110.96935768568666, 25.155229394496757], [-110.96935768574512, 25.15522939457548], [-110.96935768581102, 25.155229394648096], [-110.96935768588372, 25.15522939471391], [-110.9693576859625, 25.155229394772288], [-110.96935768604664, 25.155229394822666], [-110.9693576861353, 25.155229394864563], [-110.96935768622764, 25.155229394897574], [-110.96935768632277, 25.155229394921385], [-110.96935768641977, 25.155229394935763], [-110.96935768651771, 25.15522939494057], [-110.96938133237295, 25.15522939494057], [-110.96938133239632, 25.155229394941717], [-110.96938133239748, 25.155229394965083], [-110.96938133239748, 25.175116530621764], [-110.96938133240229, 25.17511653071978], [-110.96938133241669, 25.175116530816855], [-110.96938133244053, 25.17511653091205], [-110.9693813324736, 25.17511653100445], [-110.96938133251555, 25.17511653109316], [-110.96938133256602, 25.175116531177334], [-110.96938133262447, 25.17511653125616], [-110.96938133269038, 25.17511653132887], [-110.96938133276309, 25.175116531394774], [-110.9693813328419, 25.175116531453234], [-110.96938133292608, 25.175116531503686], [-110.9693813330148, 25.175116531545644], [-110.9693813331072, 25.175116531578706], [-110.96938133320239, 25.17511653160255], [-110.96938133329947, 25.17511653161695], [-110.96938133339748, 25.175116531621764], [-111.0189914703124, 25.175116531621764], [-111.01899147033578, 25.175116531622912], [-111.01899147033693, 25.175116531646278], [-111.01899147033693, 25.229323565627382], [-111.01899147034179, 25.229323565725885], [-111.01899147035634, 25.229323565823428], [-111.01899147038041, 25.229323565919067], [-111.0189914704138, 25.229323566011868], [-111.01899147045616, 25.229323566100927], [-111.01899147050709, 25.229323566185382], [-111.01899147056609, 25.22932356626441], [-111.01899147063259, 25.229323566337243], [-111.01899147070594, 25.22932356640317], [-111.01899147078542, 25.229323566461552], [-111.01899147087028, 25.22932356651182], [-111.01899147095966, 25.229323566553486], [-111.01899147105271, 25.229323566586142], [-111.01899147114854, 25.229323566609477], [-111.0189914712462, 25.229323566623258], [-111.01899147134473, 25.22932356662735], [-111.02894783017548, 25.229245923395354], [-111.02894783019906, 25.229245923396334], [-111.02894783020021, 25.229245923419672], [-111.02894783020021, 25.301510301409603], [-111.02894783020503, 25.30151030150762], [-111.02894783021942, 25.301510301604694], [-111.02894783024327, 25.30151030169989], [-111.02894783027634, 25.301510301792288], [-111.02894783031829, 25.301510301881], [-111.02894783036875, 25.301510301965173], [-111.0289478304272, 25.301510302043997], [-111.02894783049311, 25.30151030211671], [-111.02894783056583, 25.301510302182614], [-111.02894783064464, 25.301510302241073], [-111.02894783072881, 25.301510302291526], [-111.02894783081753, 25.301510302333483], [-111.02894783090993, 25.301510302366545], [-111.02894783100513, 25.30151030239039], [-111.0289478311022, 25.30151030240479], [-111.02894783120021, 25.301510302409604], [-111.03890419003899, 25.301510302409604], [-111.03890419006234, 25.30151030241075], [-111.03890419006353, 25.301510302434128], [-111.03899002075192, 25.35566094240288], [-111.03899002075082, 25.355660942426237]]]}}]}