{"type": "FeatureCollection", "name": "psdu-perimetro", "features": [{"type": "Feature", "id": 1, "properties": {"PSDU": "Limite PSDU"}, "geometry": {"type": "Polygon", "coordinates": [[[-111.355576515, 25.714336187], [-111.357142925, 25.715496143], [-111.359739304, 25.716443431], [-111.36143446, 25.716791413], [-111.36366084, 25.718260658], [-111.363666058, 25.718260658], [-111.364803314, 25.719014605], [-111.365983486, 25.720406496], [-111.3671422, 25.72193369], [-111.369094849, 25.725451963], [-111.369996071, 25.72721106], [-111.370511055, 25.72966602], [-111.369481087, 25.732236908], [-111.368322372, 25.734111881], [-111.367657185, 25.735039692], [-111.366884709, 25.73561957], [-111.366884709, 25.735619571], [-111.366884708, 25.735619571], [-111.366369724, 25.737030596], [-111.365983486, 25.738209659], [-111.365983486, 25.739369381], [-111.365704537, 25.740664391], [-111.365704537, 25.740664392], [-111.39572382, 25.765923933], [-111.395466328, 25.778329482], [-111.394693851, 25.802363958], [-111.394685915, 25.802363958], [-111.394685914, 25.802363958], [-111.394685914, 25.802363959], [-111.393771172, 25.830970993], [-111.393771172, 25.830970994], [-111.396625042, 25.831666285], [-111.398191452, 25.832477453], [-111.398963928, 25.834698478], [-111.398448944, 25.83902453], [-111.398448944, 25.839024531], [-111.402225494, 25.844760168], [-111.406495571, 25.852484493], [-111.406495572, 25.852484493], [-111.411044598, 25.853411378], [-111.412653248, 25.876523225], [-111.412653249, 25.876523225], [-111.412653923, 25.876523225], [-111.414177418, 25.898182857], [-111.414177418, 25.901927523], [-111.414177418, 25.901927524], [-111.419885159, 25.923177222], [-111.427309513, 25.96051414], [-111.427302572, 25.96051414], [-111.427302571, 25.96051414], [-111.427302571, 25.960514141], [-111.428983212, 25.968983245], [-111.410143375, 26.008041269], [-111.396496296, 26.037562444], [-111.361112595, 26.07339822], [-111.356192958, 26.073943225], [-111.347529888, 26.074920853], [-111.325063705, 26.062719958], [-111.325643063, 26.061139338], [-111.326608658, 26.060329744], [-111.32823944, 26.059462316], [-111.328239441, 26.059462316], [-111.328239441, 26.059462315], [-111.32843256, 26.057881652], [-111.328496933, 26.054778092], [-111.328303814, 26.050170792], [-111.328561306, 26.048609282], [-111.329526901, 26.046970637], [-111.333110332, 26.043461932], [-111.337625414, 26.039509695], [-111.337625414, 26.039509694], [-111.337625414, 26.039509693], [-111.337625413, 26.039509693], [-111.337616444, 26.039509693], [-111.33810997, 26.039085543], [-111.340194211, 26.037478564], [-111.341285705, 26.036637007], [-111.341285706, 26.036637007], [-111.342530251, 26.034574028], [-111.342532075, 26.034574028], [-111.342532076, 26.034574028], [-111.342532076, 26.034574027], [-111.344139576, 26.03191331], [-111.345384121, 26.028461998], [-111.345641613, 26.025029868], [-111.345641613, 26.025029867], [-111.344418526, 26.022561756], [-111.343882084, 26.020479247], [-111.343882084, 26.020479246], [-111.339998246, 26.015504214], [-111.339998245, 26.015504214], [-111.339869499, 26.015504214], [-111.3387537, 26.015793466], [-111.337981224, 26.015272812], [-111.338238716, 26.01440505], [-111.33948326, 26.013922958], [-111.339483261, 26.013922958], [-111.339483261, 26.013922957], [-111.338818073, 26.012765927], [-111.3387537, 26.006922751], [-111.3387537, 26.00692275], [-111.337530613, 26.006112782], [-111.336157322, 26.005341379], [-111.334869862, 26.003663559], [-111.3352561, 26.002718569], [-111.336157322, 26.002371428], [-111.337208748, 26.001735001], [-111.337208748, 26.001735], [-111.337659359, 26.000211417], [-111.337981224, 25.992631777], [-111.337723732, 25.989063584], [-111.3387537, 25.985842473], [-111.341736317, 25.982061896], [-111.346542835, 25.9780883], [-111.349482536, 25.976448671], [-111.35368824, 25.972127655], [-111.354675293, 25.970553935], [-111.354675293, 25.970545815], [-111.356434822, 25.967748607], [-111.358044147, 25.964121783], [-111.358172894, 25.956713455], [-111.358172893, 25.956713455], [-111.356155872, 25.952796885], [-111.354868412, 25.950057137], [-111.354675293, 25.949864195], [-111.354675293, 25.949861783], [-111.354353428, 25.949536192], [-111.35461092, 25.947722514], [-111.35461092, 25.947722513], [-111.354675293, 25.946603422], [-111.354675293, 25.946603421], [-111.354160309, 25.94619823], [-111.35368824, 25.945329959], [-111.35368824, 25.945329958], [-111.353752613, 25.944616042], [-111.353902817, 25.943631987], [-111.353902817, 25.943631986], [-111.353237629, 25.942628628], [-111.353173256, 25.94141301], [-111.353173256, 25.941413009], [-111.353173255, 25.941413009], [-111.352529526, 25.9410078], [-111.351284981, 25.940641182], [-111.351284981, 25.940641181], [-111.351628304, 25.939772869], [-111.352851389, 25.939599206], [-111.35285139, 25.939599206], [-111.35285139, 25.939599205], [-111.35285139, 25.939599204], [-111.352593899, 25.939136102], [-111.353366375, 25.938132706], [-111.354675292, 25.937577802], [-111.354675293, 25.937577801], [-111.354675293, 25.937573115], [-111.354868412, 25.93749593], [-111.355576515, 25.935276837], [-111.355962753, 25.932941921], [-111.355962753, 25.93294192], [-111.355962753, 25.930491173], [-111.354675293, 25.92807897], [-111.354675293, 25.928074269], [-111.354675293, 25.928074268], [-111.353752613, 25.926342154], [-111.353752613, 25.926342153], [-111.350898743, 25.924122851], [-111.348752976, 25.922656158], [-111.348752975, 25.922656158], [-111.346757412, 25.921787713], [-111.346027852, 25.921440333], [-111.346027851, 25.921440333], [-111.346027851, 25.921440334], [-111.345705986, 25.922019299], [-111.34557724, 25.922829846], [-111.344676018, 25.923235118], [-111.343817711, 25.92277195], [-111.343624592, 25.921845609], [-111.344547271, 25.921073654], [-111.344547271, 25.921073653], [-111.343817711, 25.920205197], [-111.34272337, 25.918564761], [-111.342530251, 25.918217372], [-111.342530251, 25.918217371], [-111.342272758, 25.916924302], [-111.341950893, 25.915708418], [-111.341028214, 25.914473222], [-111.341028213, 25.914473222], [-111.340770721, 25.913604716], [-111.340770721, 25.912311597], [-111.340770721, 25.912311596], [-111.340255737, 25.911211469], [-111.340255737, 25.911211468], [-111.338560581, 25.910034127], [-111.337273121, 25.909049784], [-111.337015629, 25.907988227], [-111.336286068, 25.905942292], [-111.336865425, 25.904842105], [-111.337723732, 25.903490984], [-111.337723732, 25.903490983], [-111.337337494, 25.902274961], [-111.336736679, 25.899997298], [-111.337530613, 25.898819845], [-111.337530613, 25.898819844], [-111.338238716, 25.897005386], [-111.338238716, 25.897005385], [-111.335706711, 25.893202652], [-111.335835457, 25.891754878], [-111.336801052, 25.890114047], [-111.336801052, 25.890114046], [-111.336286068, 25.887314929], [-111.336929798, 25.88573195], [-111.338045597, 25.883511883], [-111.33939743, 25.88152344], [-111.339491975, 25.881465525], [-111.339491975, 25.881465524], [-111.339491975, 25.881465523], [-111.339491974, 25.881465523], [-111.339483261, 25.881465523], [-111.341414451, 25.880287885], [-111.341414452, 25.880287885], [-111.342144012, 25.879071624], [-111.342144012, 25.879071623], [-111.341736317, 25.877141024], [-111.341714859, 25.876523225], [-111.341718859, 25.876523225], [-111.34171886, 25.876523225], [-111.34171886, 25.876523224], [-111.341671944, 25.874862876], [-111.340706349, 25.872758446], [-111.340706348, 25.872758446], [-111.339268684, 25.871406957], [-111.337659359, 25.868317782], [-111.33654356, 25.867197936], [-111.334934235, 25.865402299], [-111.334247589, 25.863954185], [-111.333818436, 25.863259084], [-111.333560944, 25.860111769], [-111.333796978, 25.859378027], [-111.333818436, 25.858721518], [-111.334118843, 25.85733125], [-111.334140301, 25.856385086], [-111.334140301, 25.856385085], [-111.333732605, 25.855670631], [-111.333732605, 25.85567063], [-111.333003044, 25.8550141], [-111.332616806, 25.854318946], [-111.332423687, 25.853643099], [-111.332423687, 25.853643098], [-111.331672668, 25.85215622], [-111.331586838, 25.851094152], [-111.331608295, 25.846961652], [-111.331093311, 25.844663611], [-111.331264973, 25.844296693], [-111.332187652, 25.843041437], [-111.332187653, 25.843041437], [-111.332230568, 25.842597267], [-111.331994534, 25.841631673], [-111.331586838, 25.840337765], [-111.331264973, 25.839449402], [-111.331865787, 25.838889344], [-111.331865788, 25.838889344], [-111.333174705, 25.838213408], [-111.333174705, 25.838213407], [-111.33313179, 25.837537468], [-111.333174705, 25.83655252], [-111.332724094, 25.835470999], [-111.332058907, 25.834177024], [-111.332058906, 25.834177024], [-111.330771446, 25.832979601], [-111.329269409, 25.832013929], [-111.327166557, 25.831395895], [-111.326050758, 25.830932367], [-111.325321198, 25.830816485], [-111.325321197, 25.830816485], [-111.324977875, 25.831028935], [-111.324591637, 25.831550403], [-111.324591637, 25.831550404], [-111.324183941, 25.831550404], [-111.323561669, 25.831492463], [-111.323561668, 25.831492463], [-111.322574616, 25.831782166], [-111.322574615, 25.831782166], [-111.32180214, 25.831685599], [-111.321802139, 25.831685599], [-111.320922375, 25.83207187], [-111.320407391, 25.832245691], [-111.320149899, 25.83212981], [-111.319656372, 25.831627658], [-111.318948269, 25.831395895], [-111.31819725, 25.831453835], [-111.31819725, 25.831453836], [-111.317768098, 25.831569717], [-111.317768097, 25.831569717], [-111.317768097, 25.831569718], [-111.317682266, 25.831994615], [-111.317682266, 25.831994616], [-111.31811142, 25.833906639], [-111.316502095, 25.835760693], [-111.316502094, 25.835760693], [-111.316502094, 25.835760694], [-111.316566467, 25.836166264], [-111.316566467, 25.836629771], [-111.316437721, 25.837035339], [-111.315579414, 25.836745648], [-111.314592362, 25.83541306], [-111.314592361, 25.83541306], [-111.312189102, 25.833559001], [-111.311180592, 25.832921661], [-111.310536861, 25.831936675], [-111.310429573, 25.831453836], [-111.310429573, 25.831453835], [-111.309700012, 25.830913053], [-111.307425499, 25.83017913], [-111.306438446, 25.829387261], [-111.306180954, 25.828923725], [-111.305859089, 25.828093219], [-111.305494309, 25.826470818], [-111.305494308, 25.826470818], [-111.304850578, 25.825872069], [-111.304228306, 25.825640295], [-111.303069592, 25.825138115], [-111.302211285, 25.823998545], [-111.301310062, 25.822202252], [-111.300559044, 25.820096885], [-111.299743652, 25.819556051], [-111.299915314, 25.818918636], [-111.299915314, 25.818918635], [-111.299979687, 25.81822327], [-111.299979686, 25.81822327], [-111.299979686, 25.818223269], [-111.299335957, 25.817779006], [-111.298713684, 25.817218845], [-111.297769547, 25.816484837], [-111.297769546, 25.816484837], [-111.296138764, 25.814707747], [-111.296138763, 25.814707747], [-111.29201889, 25.813065846], [-111.292147636, 25.811520507], [-111.293070316, 25.811520507], [-111.293735504, 25.811906843], [-111.293735505, 25.811906843], [-111.294400692, 25.811443239], [-111.295087337, 25.810651245], [-111.295087337, 25.810651244], [-111.295087338, 25.810651244], [-111.29543066, 25.809801293], [-111.297018528, 25.808275229], [-111.29847765, 25.807541165], [-111.299743652, 25.807695705], [-111.300880909, 25.808082054], [-111.301867962, 25.808082054], [-111.302146912, 25.808449085], [-111.302125454, 25.808738845], [-111.301867962, 25.808738845], [-111.301546098, 25.808371817], [-111.301546097, 25.808371817], [-111.301546096, 25.808371817], [-111.301417351, 25.808951335], [-111.301095486, 25.809917196], [-111.299786568, 25.811404605], [-111.299786568, 25.811404606], [-111.299529076, 25.812582929], [-111.299529076, 25.81258293], [-111.300044059, 25.813239695], [-111.30004406, 25.813239695], [-111.300988197, 25.813239695], [-111.302812099, 25.812949946], [-111.305429935, 25.812834046], [-111.30787611, 25.813278328], [-111.308648586, 25.814205521], [-111.309034824, 25.815576979], [-111.309227943, 25.816929106], [-111.309206486, 25.818339164], [-111.308906078, 25.81876411], [-111.308219433, 25.819247001], [-111.307361126, 25.819266317], [-111.306288243, 25.819092476], [-111.306288242, 25.819092476], [-111.305601598, 25.81920837], [-111.305601597, 25.81920837], [-111.305601597, 25.819208371], [-111.305558682, 25.819671944], [-111.305730343, 25.820212778], [-111.306416988, 25.820985393], [-111.307296753, 25.821815949], [-111.306889057, 25.822491979], [-111.305923462, 25.823090745], [-111.305687428, 25.823515673], [-111.305687428, 25.823515674], [-111.305623055, 25.825736867], [-111.305623055, 25.825736868], [-111.306438446, 25.826200415], [-111.306438446, 25.826200416], [-111.306996345, 25.82621973], [-111.306996346, 25.82621973], [-111.307640076, 25.826470818], [-111.308133602, 25.826895735], [-111.308906078, 25.829406575], [-111.30916357, 25.830005305], [-111.309163571, 25.830005305], [-111.309163571, 25.830005306], [-111.30972147, 25.830237071], [-111.3103652, 25.830642661], [-111.311030387, 25.83116413], [-111.311030387, 25.831164131], [-111.311030388, 25.831164131], [-111.311030388, 25.83116413], [-111.311995983, 25.830372268], [-111.31257534, 25.830410896], [-111.313455105, 25.830758543], [-111.314399242, 25.831048249], [-111.314399243, 25.831048249], [-111.314914226, 25.830990308], [-111.314914227, 25.830990308], [-111.314914227, 25.830990307], [-111.315579414, 25.829619028], [-111.315836906, 25.829445202], [-111.316566467, 25.829387261], [-111.317381857, 25.829387261], [-111.317381858, 25.829387261], [-111.317381858, 25.82938726], [-111.317381858, 25.829387259], [-111.31718874, 25.828923725], [-111.317059994, 25.828247733], [-111.317059994, 25.828247732], [-111.317059993, 25.828247732], [-111.315793991, 25.828073905], [-111.314914227, 25.828131847], [-111.314206123, 25.827108192], [-111.313691139, 25.825254003], [-111.313648224, 25.824326897], [-111.314399242, 25.824211008], [-111.315579414, 25.824114434], [-111.315579415, 25.824114434], [-111.316115856, 25.823361155], [-111.316115856, 25.823361154], [-111.315643787, 25.822144307], [-111.314914227, 25.82108197], [-111.314442158, 25.819710575], [-111.314270496, 25.81889932], [-111.316051482, 25.81876411], [-111.316051483, 25.81876411], [-111.316051483, 25.818764109], [-111.316030025, 25.818126691], [-111.315407753, 25.817141582], [-111.315407753, 25.817141581], [-111.314828396, 25.816542786], [-111.314828396, 25.816542785], [-111.314442158, 25.815886038], [-111.314442157, 25.815886038], [-111.313648224, 25.815557663], [-111.31313324, 25.81526792], [-111.31313324, 25.815267919], [-111.312875748, 25.814823645], [-111.312875747, 25.814823645], [-111.311910152, 25.814418001], [-111.3109231, 25.814147571], [-111.310858727, 25.813664659], [-111.311159134, 25.813297645], [-111.311223507, 25.81275678], [-111.311223507, 25.812756779], [-111.311223506, 25.812756779], [-111.310536862, 25.812215912], [-111.310536861, 25.812215912], [-111.309957505, 25.811984111], [-111.309957504, 25.811984111], [-111.309335232, 25.812196595], [-111.30907774, 25.812331812], [-111.308562756, 25.81269883], [-111.308090687, 25.81269883], [-111.30787611, 25.812524979], [-111.307382584, 25.811984111], [-111.307382584, 25.81198411], [-111.307253838, 25.811443239], [-111.30751133, 25.809801293], [-111.308133602, 25.808893384], [-111.308133602, 25.808893383], [-111.308841705, 25.806961638], [-111.309142113, 25.804971908], [-111.309700012, 25.80356169], [-111.311094761, 25.802112819], [-111.310966015, 25.800354832], [-111.310966015, 25.800354831], [-111.311180592, 25.799659357], [-111.311438084, 25.797843376], [-111.311438084, 25.797843375], [-111.311438084, 25.797418355], [-111.311444377, 25.797418355], [-111.311444377, 25.797418354], [-111.311444378, 25.797418354], [-111.311480999, 25.794945476], [-111.310901642, 25.792800984], [-111.310987473, 25.792086145], [-111.31137371, 25.791062179], [-111.31137371, 25.791062178], [-111.310858727, 25.789922282], [-111.310858727, 25.789922281], [-111.310858726, 25.789922281], [-111.309571266, 25.78903354], [-111.309828758, 25.78806751], [-111.310429573, 25.78754585], [-111.310429573, 25.787545849], [-111.310343742, 25.7868503], [-111.310343742, 25.785826289], [-111.310343742, 25.785826288], [-111.309764385, 25.784976159], [-111.309399605, 25.784299915], [-111.30907774, 25.78312131], [-111.309142113, 25.782232518], [-111.309142112, 25.782232518], [-111.307361126, 25.78031966], [-111.307168007, 25.779759322], [-111.307318211, 25.779411525], [-111.30751133, 25.778387449], [-111.307425499, 25.777846425], [-111.307425499, 25.777846424], [-111.306631565, 25.775914173], [-111.306416988, 25.774445641], [-111.306416988, 25.773479492], [-111.305966377, 25.77278386], [-111.305966377, 25.772783859], [-111.303884983, 25.7714892], [-111.303777695, 25.770696938], [-111.303777694, 25.770696938], [-111.303391457, 25.770503703], [-111.302747727, 25.770020613], [-111.302747726, 25.770020613], [-111.301310062, 25.76947955], [-111.299357414, 25.768571332], [-111.297404766, 25.767450542], [-111.293649673, 25.766078527], [-111.290924549, 25.764783794], [-111.289851666, 25.763952838], [-111.289851665, 25.763952838], [-111.289658546, 25.763508371], [-111.289722919, 25.763063903], [-111.289722919, 25.763063902], [-111.289680004, 25.762503484], [-111.289680004, 25.762503483], [-111.288607121, 25.761633862], [-111.28860712, 25.761633862], [-111.287899017, 25.761517912], [-111.287083626, 25.760783559], [-111.286182404, 25.760087852], [-111.286118031, 25.759469443], [-111.286118031, 25.759469442], [-111.285817623, 25.758290591], [-111.285817623, 25.75829059], [-111.28538847, 25.757517567], [-111.28538847, 25.757517566], [-111.284809113, 25.756628583], [-111.284809112, 25.756628583], [-111.284809112, 25.756628582], [-111.283714771, 25.756048807], [-111.282148361, 25.755295094], [-111.280646324, 25.754522051], [-111.27985239, 25.753787655], [-111.279659271, 25.75253144], [-111.279809475, 25.752106258], [-111.279809475, 25.752106257], [-111.279659271, 25.751565113], [-111.279380322, 25.751197906], [-111.279380321, 25.751197906], [-111.278972626, 25.750405509], [-111.278972625, 25.750405509], [-111.277792454, 25.749690415], [-111.276011467, 25.748936662], [-111.272599697, 25.747332505], [-111.272277833, 25.747215262], [-111.272277832, 25.747215262], [-111.272277832, 25.747215263], [-111.272277832, 25.747216541], [-111.269681454, 25.746269497], [-111.265690327, 25.745689671], [-111.263823509, 25.745554378], [-111.263501644, 25.745283791], [-111.261892319, 25.744819926], [-111.260883808, 25.744317404], [-111.259639263, 25.743582945], [-111.259081364, 25.742558561], [-111.259081364, 25.74255856], [-111.257987022, 25.741650136], [-111.256957054, 25.740915661], [-111.255776882, 25.740548421], [-111.254832745, 25.740374465], [-111.254060268, 25.739891253], [-111.253373623, 25.739060123], [-111.25146389, 25.737823082], [-111.251163483, 25.736914622], [-111.251077652, 25.736296092], [-111.251077652, 25.736296091], [-111.250090599, 25.734537129], [-111.248803139, 25.732430206], [-111.248803139, 25.732430205], [-111.247622967, 25.731541034], [-111.246271133, 25.730767836], [-111.24584198, 25.730013963], [-111.245734692, 25.729008791], [-111.24519825, 25.727906959], [-111.244382858, 25.727172398], [-111.244382858, 25.726766455], [-111.244812011, 25.726437834], [-111.244812012, 25.726437834], [-111.244812012, 25.726437833], [-111.244940758, 25.72608988], [-111.24528408, 25.725973895], [-111.245284081, 25.725973895], [-111.245970726, 25.72585791], [-111.246099472, 25.72562594], [-111.246335506, 25.724910697], [-111.246335506, 25.724910696], [-111.245734692, 25.723750833], [-111.244769096, 25.722610289], [-111.244741922, 25.722587097], [-111.243953705, 25.721914359], [-111.242794991, 25.721199093], [-111.24279499, 25.721199093], [-111.24058485, 25.720232511], [-111.239061356, 25.719981198], [-111.237323284, 25.719884539], [-111.235585213, 25.720097188], [-111.234726906, 25.720271174], [-111.233782768, 25.720580481], [-111.232988835, 25.721025109], [-111.232988834, 25.721025109], [-111.232495308, 25.721759707], [-111.232173443, 25.722397644], [-111.232173443, 25.722397645], [-111.232237816, 25.722726277], [-111.232237816, 25.722726278], [-111.233310699, 25.723576852], [-111.233310699, 25.723576853], [-111.233997345, 25.724272773], [-111.234190464, 25.724891366], [-111.234147549, 25.725529286], [-111.233847141, 25.725935234], [-111.23339653, 25.72608988], [-111.232559681, 25.725703264], [-111.231937409, 25.725123337], [-111.231937408, 25.725123337], [-111.231229306, 25.725104006], [-111.231229305, 25.725104006], [-111.22998476, 25.72585791], [-111.229791641, 25.725683933], [-111.229040623, 25.725645271], [-111.2286973, 25.725587279], [-111.227881908, 25.725529286], [-111.227238178, 25.725529286], [-111.226615906, 25.725587279], [-111.226036549, 25.725935234], [-111.225736141, 25.726263857], [-111.22492075, 25.726031888], [-111.224148273, 25.725451963], [-111.223783493, 25.72477538], [-111.223783493, 25.723344878], [-111.223636783, 25.72320956], [-111.223636783, 25.723209559], [-111.223636782, 25.723209559], [-111.223633289, 25.723209559], [-111.222882271, 25.722513633], [-111.222581863, 25.721933691], [-111.222581863, 25.72193369], [-111.221981049, 25.721199093], [-111.221981048, 25.721199093], [-111.220178604, 25.719807212], [-111.219985485, 25.719420575], [-111.219792366, 25.718917946], [-111.219234467, 25.718241326], [-111.219234467, 25.717932013], [-111.219599247, 25.71684941], [-111.220092773, 25.716520761], [-111.220092774, 25.716520761], [-111.22030735, 25.716172779], [-111.22030735, 25.716172778], [-111.220157146, 25.715206155], [-111.219792366, 25.714626177], [-111.219041348, 25.714123528], [-111.219041347, 25.714123528], [-111.218590736, 25.71371754], [-111.217195988, 25.71002492], [-111.215994358, 25.708671575], [-111.216444969, 25.707124877], [-111.216809749, 25.706757533], [-111.21680975, 25.706757533], [-111.21680975, 25.706138846], [-111.216809749, 25.706138846], [-111.216230393, 25.705578158], [-111.216230392, 25.705578158], [-111.215415001, 25.705694163], [-111.215028763, 25.705926171], [-111.215028763, 25.705926172], [-111.214835644, 25.707066875], [-111.213891506, 25.708826244], [-111.213355064, 25.708439572], [-111.213569641, 25.707105543], [-111.214084625, 25.705926172], [-111.214084625, 25.705926171], [-111.213226318, 25.70530748], [-111.212518215, 25.704108757], [-111.212325096, 25.703470722], [-111.220221519, 25.698056952], [-111.266784667, 25.697866707], [-111.266784668, 25.697866707], [-111.266784668, 25.697866706], [-111.266784668, 25.697863599], [-111.277384758, 25.697824928], [-111.287770271, 25.698520999], [-111.304786205, 25.700164484], [-111.327917576, 25.710353587], [-111.328561306, 25.71162958], [-111.328561306, 25.711629581], [-111.331157684, 25.714084862], [-111.331157685, 25.714084862], [-111.332595348, 25.714084862], [-111.335577965, 25.713736873], [-111.337401867, 25.714684175], [-111.337659359, 25.716675419], [-111.337659359, 25.71667542], [-111.338818073, 25.717603366], [-111.338818074, 25.717603366], [-111.341950893, 25.717603366], [-111.343257695, 25.718260658], [-111.343257696, 25.718260658], [-111.343259811, 25.718260658], [-111.345448493, 25.719362579], [-111.345448494, 25.719362579], [-111.34622097, 25.718898614], [-111.348044872, 25.7170234], [-111.350383759, 25.714452183], [-111.352851391, 25.713852869], [-111.355576515, 25.714336187]]]}}]}