{"type": "FeatureCollection", "name": "restauracion_poel_2014", "features": [{"type": "Feature", "id": 1, "properties": {"actividad": "Agricultura", "conflictos_potenciales": "Uso de suelo, afectación del balance hídrico por sobreexplotación de agua ", "fragilidad": "baja", "localidad_referencia": "El Cimarrón, La Giganta", "nombre": "UGA-19", "poblacion": 49, "politica_ambiental": "Restauración", "presion": "alta", "superficie_total": 3228.57, "vulnerabilidad": "media"}, "geometry": {"type": "MultiPolygon", "coordinates": [[[[-111.424487815, 26.197341153], [-111.424487815, 26.197341152], [-111.4244771, 26.197341152], [-111.425464153, 26.197206377], [-111.425734028, 26.197087674], [-111.426558495, 26.196725038], [-111.426665783, 26.198246063], [-111.426665783, 26.198246064], [-111.427030563, 26.198842916], [-111.427159309, 26.200460179], [-111.427159309, 26.20046018], [-111.42715931, 26.20046018], [-111.427545547, 26.201037768], [-111.427502632, 26.201961904], [-111.427309513, 26.202481727], [-111.427202225, 26.204002678], [-111.42688036, 26.20442623], [-111.42632246, 26.204464735], [-111.426064968, 26.203867911], [-111.426236629, 26.203251832], [-111.426236629, 26.203251831], [-111.424713135, 26.200806733], [-111.424090862, 26.199921094], [-111.423919201, 26.197591447], [-111.424348354, 26.197360405], [-111.424487815, 26.197341154], [-111.424487815, 26.197341153]]], [[[-111.499407291, 26.224870424], [-111.498141289, 26.224446946], [-111.49887085, 26.223599985], [-111.499922276, 26.222810766], [-111.500823498, 26.222753018], [-111.502261162, 26.222368032], [-111.502497196, 26.222348782], [-111.503312588, 26.222926262], [-111.502239704, 26.223696231], [-111.501510143, 26.224446946], [-111.500759125, 26.224793428], [-111.499407291, 26.224870424]]], [[[-111.530456543, 26.233917084], [-111.539533138, 26.237593291], [-111.537108422, 26.245965371], [-111.537108422, 26.245965372], [-111.543288231, 26.248948382], [-111.543352604, 26.252912778], [-111.543352604, 26.252912779], [-111.543352605, 26.252912779], [-111.544253826, 26.252951268], [-111.544468403, 26.255876365], [-111.544468403, 26.255876366], [-111.544468404, 26.255876366], [-111.54734373, 26.256626873], [-111.547343731, 26.256626873], [-111.547558307, 26.256415192], [-111.547558308, 26.256415192], [-111.548266411, 26.253932723], [-111.549446583, 26.253047489], [-111.551485062, 26.253124466], [-111.562170982, 26.257666028], [-111.564381123, 26.266152116], [-111.562728882, 26.266556199], [-111.562728882, 26.2665562], [-111.561977863, 26.267114218], [-111.561419964, 26.267345121], [-111.561419964, 26.267345122], [-111.560947895, 26.268499631], [-111.561048171, 26.271251166], [-111.561048172, 26.271251166], [-111.561048172, 26.271251167], [-111.561055183, 26.271251167], [-111.561055183, 26.271443579], [-111.559681893, 26.277100368], [-111.559681893, 26.277100369], [-111.561892032, 26.27808162], [-111.561892033, 26.27808162], [-111.566784382, 26.278812743], [-111.577556133, 26.295011714], [-111.574831009, 26.303706666], [-111.56624794, 26.289913707], [-111.562128067, 26.284257543], [-111.559596062, 26.283603411], [-111.556763649, 26.283564933], [-111.553244591, 26.283180147], [-111.535949708, 26.276864443], [-111.535949707, 26.276864444], [-111.535949707, 26.276869484], [-111.535542012, 26.276715562], [-111.535542011, 26.276715562], [-111.535542011, 26.276715563], [-111.533439159, 26.283141668], [-111.533439159, 26.283141669], [-111.532537938, 26.283295583], [-111.532537937, 26.283295583], [-111.532130242, 26.283834281], [-111.532130242, 26.283834282], [-111.532537937, 26.284719281], [-111.532537938, 26.284719281], [-111.535949707, 26.285527318], [-111.535949707, 26.285528082], [-111.535949707, 26.285528083], [-111.535949708, 26.285528083], [-111.55785799, 26.290721708], [-111.547880173, 26.303398891], [-111.541635991, 26.301129027], [-111.54163599, 26.301129027], [-111.54163599, 26.301129028], [-111.538395882, 26.307611487], [-111.530606747, 26.304437628], [-111.530456543, 26.30437992], [-111.530456543, 26.304372929], [-111.530456543, 26.304372928], [-111.530456542, 26.304372928], [-111.514663696, 26.297570252], [-111.515929699, 26.296281372], [-111.519427298, 26.297897279], [-111.519427299, 26.297897279], [-111.519427299, 26.297897278], [-111.51923418, 26.295377223], [-111.522538662, 26.291106469], [-111.525928973, 26.293030251], [-111.525928974, 26.293030251], [-111.525928975, 26.293030251], [-111.526958942, 26.291760559], [-111.526958942, 26.291760558], [-111.526958941, 26.291760558], [-111.518096924, 26.287508909], [-111.523396968, 26.27998638], [-111.523396968, 26.279986379], [-111.508462429, 26.273059833], [-111.50790453, 26.272905905], [-111.506638527, 26.271251167], [-111.530456542, 26.271251167], [-111.530456543, 26.271251167], [-111.530456543, 26.271251166], [-111.530456543, 26.233917084]]]]}}, {"type": "Feature", "id": 2, "properties": {"actividad": "Agricultura", "conflictos_potenciales": "Uso de suelo, afectación del balance hídrico por sobreexplotación de agua ", "fragilidad": "baja", "localidad_referencia": "El Cimarrón, La Giganta", "nombre": "UGA-19", "poblacion": 49, "politica_ambiental": "Restauración", "presion": "alta", "superficie_total": 3228.57, "vulnerabilidad": "media"}, "geometry": {"type": "MultiPolygon", "coordinates": [[[[-111.42035722732292, 26.21222316819376], [-111.42035722730857, 26.212223168211057], [-111.42005681996119, 26.212550435607827], [-111.42005681987736, 26.212550435712444], [-111.41984224324638, 26.21285845117953], [-111.41984224319816, 26.212858451255872], [-111.41984224315702, 26.212858451336253], [-111.41945600510647, 26.213705489918915], [-111.41945600509545, 26.21370548994025], [-111.41945600507876, 26.213705489957515], [-111.41808271409853, 26.21499528699203], [-111.41808271408047, 26.21499528700741], [-111.41808271405701, 26.214995287003337], [-111.41705274595643, 26.21476427966038], [-111.41705274586465, 26.214764279644246], [-111.41705274577177, 26.214764279636725], [-111.41705274567859, 26.21476427963788], [-111.41346931464479, 26.214976036407162], [-111.41346931450686, 26.214976036425], [-111.41203165057777, 26.215264795031068], [-111.41203165050801, 26.215264795040024], [-111.41102313997759, 26.215322546676006], [-111.41102313995482, 26.215322546676212], [-111.41102313995609, 26.21532254665366], [-111.41108751296748, 26.214706527736922], [-111.41108751297105, 26.21470652771373], [-111.41108751298847, 26.214706527697654], [-111.4117312431183, 26.214167508457074], [-111.41173124313404, 26.214167508444916], [-111.41173124315051, 26.21416750843416], [-111.4126968383594, 26.21358998504014], [-111.4126968383994, 26.213589985018622], [-111.41389846776053, 26.213012458870015], [-111.41389846784202, 26.213012458826093], [-111.4138984679191, 26.213012458774823], [-111.4138984679911, 26.213012458716648], [-111.41389846805743, 26.213012458652063], [-111.4138984681175, 26.21301245858162], [-111.41389846817079, 26.213012458505926], [-111.41449928282363, 26.21206915967643], [-111.41449928283551, 26.212069159659677], [-111.41449928283453, 26.212069159680187], [-111.41437053690191, 26.213397475578187], [-111.41437053689725, 26.213397475677006], [-111.41437053690238, 26.213397475775803], [-111.41437053691725, 26.21339747587361], [-111.4143705369417, 26.213397475969465], [-111.41437053697551, 26.21339747606244], [-111.41437053701833, 26.213397476151616], [-111.41437053706976, 26.21339747623613], [-111.41437053712929, 26.213397476315144], [-111.41437053719633, 26.21339747638789], [-111.41437053727023, 26.213397476453657], [-111.41437053735027, 26.2133974765118], [-111.41437053743566, 26.21339747656175], [-111.41437053752557, 26.213397476603017], [-111.41437053761912, 26.2133974766352], [-111.41437053771539, 26.21339747665798], [-111.41437053781344, 26.21339747667114], [-111.41505718174297, 26.213455229104497], [-111.41505718183721, 26.21345522910796], [-111.41505718193136, 26.213455229102532], [-111.41505718202458, 26.213455229088257], [-111.41505718211604, 26.213455229065264], [-111.41505718220493, 26.21345522903376], [-111.41505718229045, 26.213455228994018], [-111.41505718237185, 26.2134552289464], [-111.41505718244841, 26.213455228891327], [-111.41505718251943, 26.213455228829282], [-111.4150571825843, 26.213455228760825], [-111.41505718264243, 26.213455228686563], [-111.41535758967086, 26.213031709740395], [-111.41535758971835, 26.2130317096668], [-111.41535758975924, 26.213031709589334], [-111.41565799708734, 26.212396427646365], [-111.41565799712637, 26.212396427551514], [-111.41565799715548, 26.212396427453168], [-111.41582965850256, 26.21168413744503], [-111.41582965850925, 26.211684137422246], [-111.4158296585327, 26.211684137419557], [-111.41670942249631, 26.21162638401349], [-111.41670942258989, 26.2116263840029], [-111.41670942268205, 26.21162638398356], [-111.41670942277199, 26.211626383955632], [-111.4167094228589, 26.21162638391937], [-111.41670942294202, 26.21162638387509], [-111.41670942302059, 26.211626383823187], [-111.41670942309395, 26.211626383764127], [-111.41670942316142, 26.211626383698427], [-111.4167094232224, 26.21162638362667], [-111.41670942327637, 26.211626383549497], [-111.41670942332284, 26.211626383467586], [-111.41681671141534, 26.21141462111982], [-111.41681671142666, 26.21141462109984], [-111.41681671144313, 26.21141462108363], [-111.41754627225927, 26.21076007887828], [-111.41754627227714, 26.210760078863775], [-111.41754627228305, 26.210760078886008], [-111.41773939132204, 26.211664886253224], [-111.41773939132571, 26.211664886275567], [-111.41773939130816, 26.211664886290308], [-111.41731023843487, 26.211992154890908], [-111.41731023835786, 26.211992154956036], [-111.4173102382878, 26.21199215502859], [-111.4173102382254, 26.21199215510783], [-111.4173102381713, 26.211992155192956], [-111.41731023812605, 26.211992155283095], [-111.41731023809011, 26.211992155377335], [-111.41731023806385, 26.211992155474714], [-111.41731023804753, 26.211992155574244], [-111.41731023804132, 26.211992155674913], [-111.41731023804527, 26.211992155775693], [-111.41731023805937, 26.211992155875564], [-111.41731023808346, 26.211992155973505], [-111.41746044136276, 26.212492681887046], [-111.41746044139448, 26.212492681976954], [-111.41746044143463, 26.21249268206343], [-111.41746044148283, 26.212492682145694], [-111.41746044153864, 26.21249268222299], [-111.41746044160155, 26.21249268229462], [-111.41746044167101, 26.212492682359937], [-111.41746044174637, 26.212492682418336], [-111.41746044182695, 26.212492682469296], [-111.41746044191201, 26.21249268251235], [-111.41746044200079, 26.21249268254711], [-111.41746044209248, 26.21249268257326], [-111.41746044218624, 26.212492682590554], [-111.41746044228121, 26.212492682598842], [-111.41746044237655, 26.21249268259805], [-111.41780376390125, 26.212473431655567], [-111.41780376400479, 26.212473431644327], [-111.41780376410661, 26.212473431622378], [-111.41780376420557, 26.212473431589963], [-111.41780376430064, 26.212473431547426], [-111.41780376439078, 26.21247343149523], [-111.41780376447498, 26.212473431433946], [-111.41780376455237, 26.212473431364234], [-111.41780376462208, 26.212473431286853], [-111.4183187484588, 26.211838146486674], [-111.41831874847438, 26.211838146469265], [-111.41831874849458, 26.211838146480698], [-111.4188981053828, 26.21220391698607], [-111.41889810546243, 26.212203917031385], [-111.41889810554588, 26.212203917069218], [-111.41889810563245, 26.212203917099256], [-111.4188981057214, 26.212203917121244], [-111.41889810581199, 26.212203917134996], [-111.41889810590345, 26.2122039171404], [-111.42035722730041, 26.212223168192335], [-111.42035722732292, 26.21222316819376]]], [[[-111.43670797347852, 26.195512053520137], [-111.43670797346775, 26.195512053540774], [-111.43563508988625, 26.19734115183697], [-111.43563508987366, 26.197341151856282], [-111.43563508985065, 26.19734115185737], [-111.4328885078679, 26.19734115185737], [-111.43288850784448, 26.197341151856204], [-111.43288850784847, 26.197341151832966], [-111.43297433852639, 26.196956080933322], [-111.43297433853243, 26.196956080911136], [-111.43297433855179, 26.19695608089907], [-111.43417596803961, 26.196282203762735], [-111.43417596812347, 26.196282203710084], [-111.43417596820171, 26.196282203649396], [-111.43417596827358, 26.196282203581273], [-111.43469095228626, 26.19574309912072], [-111.43469095230162, 26.195743099105954], [-111.43469095231926, 26.195743099094035], [-111.43544197080415, 26.1952810074883], [-111.43544197082556, 26.19528100747655], [-111.43544197085001, 26.19528100747396], [-111.43612861630939, 26.19524249975809], [-111.43612861633275, 26.19524249975789], [-111.43612861635364, 26.19524249976834], [-111.43647193900128, 26.195435038174345], [-111.43647193908883, 26.195435038217962], [-111.43647193918022, 26.195435038252814], [-111.43670797345663, 26.195512053511774], [-111.43670797347852, 26.195512053520137]]], [[[-111.5010380744918, 26.228527668814966], [-111.50103807448592, 26.22852766883626], [-111.50075912477291, 26.22937459336601], [-111.50075912474453, 26.229374593471135], [-111.50067329407237, 26.229778805235554], [-111.50067329406639, 26.22977880525829], [-111.50067329404617, 26.22977880527046], [-111.50002956404087, 26.230125271359505], [-111.50002956395289, 26.230125271412874], [-111.50002956387085, 26.230125271475004], [-111.50002956379564, 26.230125271545234], [-111.49919271470802, 26.230991432335248], [-111.49919271469093, 26.230991432351306], [-111.49919271466939, 26.230991432342023], [-111.49824857713959, 26.230529480675827], [-111.49824857711938, 26.2305294806647], [-111.4982485771279, 26.230529480643348], [-111.49844169615805, 26.2301060233592], [-111.49844169616776, 26.230106023340163], [-111.4984416961678, 26.23010602334008], [-111.49844169618223, 26.23010602332404], [-111.49906396864371, 26.22947083447485], [-111.49906396865902, 26.229470834460496], [-111.49906396867652, 26.229470834448907], [-111.50037288663522, 26.22868165557752], [-111.50037288665823, 26.228681655565246], [-111.50037288668332, 26.22868165555803], [-111.50103807446997, 26.228527668818927], [-111.5010380744918, 26.228527668814966]]]]}}, {"type": "Feature", "id": 3, "properties": {"actividad": "Agricultura", "conflictos_potenciales": "Uso de suelo, afectación del balance hídrico por sobreexplotación de agua ", "fragilidad": "baja", "localidad_referencia": "El Cimarrón, La Giganta", "nombre": "UGA-19", "poblacion": 49, "politica_ambiental": "Restauración", "presion": "alta", "superficie_total": 3228.57, "vulnerabilidad": "media"}, "geometry": {"type": "MultiPolygon", "coordinates": [[[[-111.43331766128404, 26.210856335303806], [-111.43331766127498, 26.210856335327268], [-111.43323183060711, 26.2110488479268], [-111.43323183059613, 26.211048847948454], [-111.43323183057213, 26.211048847951034], [-111.43222332002581, 26.21110660168018], [-111.43222332000735, 26.21110660168055], [-111.4322233199889, 26.211106601679557], [-111.43095731737776, 26.210991094191648], [-111.43095731735256, 26.210991094188042], [-111.43095731732777, 26.21099109418185], [-111.42982006213929, 26.21064457145521], [-111.42982006204484, 26.210644571431388], [-111.42982006194852, 26.21064457141687], [-111.42982006185125, 26.210644571411795], [-111.42982006175393, 26.210644571416204], [-111.42982006165751, 26.210644571430063], [-111.4298200615629, 26.210644571453237], [-111.42982006147099, 26.210644571485503], [-111.42982006138266, 26.21064457152656], [-111.42982006129874, 26.210644571576015], [-111.42982006122003, 26.210644571633402], [-111.42982006114728, 26.210644571698175], [-111.42982006108117, 26.210644571769716], [-111.42982006102234, 26.210644571847354], [-111.42982006097134, 26.21064457193034], [-111.42982006092866, 26.2106445720179], [-111.4298200608947, 26.2106445721092], [-111.42982006086979, 26.210644572203364], [-111.42982006085414, 26.210644572299508], [-111.42982006084793, 26.21064457239672], [-111.42982006085121, 26.210644572494072], [-111.42986297607217, 26.21116435535939], [-111.42986297607297, 26.211164355383485], [-111.42986297605214, 26.211164355395297], [-111.4289832115495, 26.211607132805234], [-111.42898321148323, 26.21160713283282], [-111.4278888702606, 26.211972904209254], [-111.42788887023912, 26.211972904215372], [-111.4278888702167, 26.211972904215536], [-111.42585039149404, 26.21189589981173], [-111.42585039138834, 26.211895899813328], [-111.4258503912834, 26.211895899826075], [-111.42486333849423, 26.212069159651392], [-111.42486333847086, 26.21206915965434], [-111.42486333845342, 26.21206915963835], [-111.42400503160458, 26.21120285785598], [-111.42400503158693, 26.211202857836145], [-111.4240050315792, 26.21120285781112], [-111.42385482788703, 26.21060606841286], [-111.42385482788227, 26.21060606838883], [-111.42385482790016, 26.210606068372044], [-111.42501354179348, 26.20962424715429], [-111.42501354186858, 26.2096242470837], [-111.42501354193601, 26.20962424700575], [-111.42501354199506, 26.209624246921273], [-111.4250135420451, 26.209624246831165], [-111.4250135420856, 26.20962424673639], [-111.42501354211613, 26.209624246637947], [-111.42501354213637, 26.209624246536883], [-111.42501354214609, 26.209624246434274], [-111.4250135421452, 26.20962424633121], [-111.42497062683253, 26.208911939756828], [-111.42497062683226, 26.20891193973347], [-111.42497062685547, 26.2089119397308], [-111.42585039133614, 26.208854184915158], [-111.42585039143908, 26.208854184903018], [-111.4267516130284, 26.208700172017164], [-111.42675161312391, 26.208700171995986], [-111.4267516132169, 26.208700171965578], [-111.42675161330645, 26.208700171926232], [-111.42675161339174, 26.208700171878323], [-111.42675161347195, 26.208700171822308], [-111.42675161354629, 26.208700171758725], [-111.42675161361407, 26.208700171688186], [-111.42675161367463, 26.20870017161136], [-111.42675161372739, 26.20870017152898], [-111.42675161377186, 26.20870017144184], [-111.4267516138076, 26.208700171350777], [-111.42703056332088, 26.207872348675853], [-111.42703056334909, 26.207872348574902], [-111.4270305633666, 26.207872348471557], [-111.42737388610564, 26.20490753763982], [-111.42737388610915, 26.20490753761851], [-111.42737388612407, 26.204907537634345], [-111.4278674125505, 26.20548510409532], [-111.4278674125848, 26.20548510413344], [-111.42859697310206, 26.206255187987654], [-111.42859697317134, 26.206255188054083], [-111.42859697324666, 26.206255188113563], [-111.42859697332734, 26.206255188165546], [-111.42859697341264, 26.206255188209557], [-111.42859697350175, 26.206255188245187], [-111.42859697359388, 26.206255188272113], [-111.42859697368816, 26.20625518829008], [-111.42859697378373, 26.206255188298925], [-111.4285969738797, 26.20625518829857], [-111.42971277231828, 26.206197432186197], [-111.42971277242003, 26.20619743217569], [-111.43194437020885, 26.20585089475808], [-111.43194437032903, 26.20585089473176], [-111.43282413480343, 26.20560061707733], [-111.43282413482594, 26.205600617072083], [-111.43282413483381, 26.20560061709376], [-111.43325328826147, 26.20698676357648], [-111.43325328826768, 26.206986763600895], [-111.4332532882586, 26.206986763624453], [-111.43278121958545, 26.20804561418255], [-111.43278121954964, 26.208045614274926], [-111.43278121952315, 26.20804561437039], [-111.43278121950624, 26.20804561446801], [-111.43278121949906, 26.208045614566824], [-111.43278121950169, 26.208045614665863], [-111.43288850783462, 26.209450983232962], [-111.43288850784903, 26.20945098334205], [-111.43288850787532, 26.2094509834489], [-111.43331766127794, 26.210856335279445], [-111.43331766128404, 26.210856335303806]]], [[[-111.49960041046019, 26.227411258774918], [-111.49960041044955, 26.227411258795517], [-111.49930000306489, 26.227930968206902], [-111.49930000305075, 26.227930968228655], [-111.49930000302916, 26.227930968242685], [-111.4983344078317, 26.228489172079396], [-111.49833440780571, 26.228489172092463], [-111.49833440777842, 26.228489172102393], [-111.4974331856006, 26.228758648855784], [-111.49743318557724, 26.228758648861554], [-111.4974331855532, 26.22875864886272], [-111.49721860944365, 26.22875864886272], [-111.49721860934723, 26.22875864886738], [-111.4972186092517, 26.228758648881314], [-111.49721860915797, 26.228758648904396], [-111.49721860906689, 26.228758648936406], [-111.49721860897934, 26.22875864897705], [-111.4972186088961, 26.228758649025945], [-111.49721860881797, 26.22875864908264], [-111.49721860874567, 26.228758649146606], [-111.49721860867987, 26.228758649217244], [-111.4972186086212, 26.228758649293894], [-111.49721860857018, 26.22875864937585], [-111.49691820153572, 26.22929760036681], [-111.49691820149526, 26.229297600447815], [-111.4969182014623, 26.22929760053215], [-111.49691820143708, 26.22929760061912], [-111.49691820141986, 26.229297600708012], [-111.49676799774535, 26.230317752170368], [-111.49676799774069, 26.23031775219379], [-111.49676799771719, 26.230317752190967], [-111.49586677553853, 26.230163767615558], [-111.49586677551318, 26.23016376760984], [-111.49586677549091, 26.230163767596615], [-111.49502992632117, 26.2296055717989], [-111.49502992630163, 26.229605571784383], [-111.49502992631085, 26.229605571761812], [-111.49571657179754, 26.22814270106729], [-111.49571657180874, 26.2281427010462], [-111.4957165718299, 26.228142701034763], [-111.49668216703128, 26.227680738051866], [-111.49668216705355, 26.227680738042515], [-111.4966821670775, 26.22768073803997], [-111.49769067711846, 26.227622992566864], [-111.4976906772146, 26.227622992556675], [-111.49769067730932, 26.22762299253725], [-111.49769067740172, 26.227622992508767], [-111.49769067749094, 26.227622992471492], [-111.49769067757614, 26.227622992425776], [-111.49769067765652, 26.227622992372048], [-111.49769067773134, 26.227622992310803], [-111.49769067779991, 26.227622992242623], [-111.49769067786156, 26.227622992168136], [-111.49769067791573, 26.227622992088047], [-111.4982056617612, 26.226776055196993], [-111.49820566177422, 26.22677605517773], [-111.49820566179703, 26.226776055181713], [-111.49854898396325, 26.226853049610263], [-111.49854898405712, 26.226853049626662], [-111.49854898415214, 26.22685304963405], [-111.49854898424744, 26.22685304963236], [-111.49854898434212, 26.22685304962161], [-111.49854898443536, 26.226853049601893], [-111.49854898452631, 26.226853049573386], [-111.49854898461412, 26.226853049536356], [-111.498548984698, 26.226853049491133], [-111.4985489847772, 26.22685304943813], [-111.49854898485101, 26.226853049377826], [-111.49854898491873, 26.226853049310773], [-111.49884939192097, 26.226525822521054], [-111.49884939193778, 26.226525822504424], [-111.49884939196134, 26.22652582250196], [-111.49919271466617, 26.226506573815247], [-111.49919271469041, 26.226506573815104], [-111.49919271470151, 26.226506573836772], [-111.49960041045163, 26.227411258753236], [-111.49960041046019, 26.227411258774918]]]]}}, {"type": "Feature", "id": 4, "properties": {"actividad": "Agricultura", "conflictos_potenciales": "Uso de suelo, afectación del balance hídrico por sobreexplotación de agua ", "fragilidad": "baja", "localidad_referencia": "El Cimarrón, La Giganta", "nombre": "UGA-19", "poblacion": 49, "politica_ambiental": "Restauración", "presion": "alta", "superficie_total": 3228.57, "vulnerabilidad": "media"}, "geometry": {"type": "MultiPolygon", "coordinates": [[[[-111.42557144164908, 26.20633219646245], [-111.42557144162949, 26.206332196474822], [-111.42458438898981, 26.20689050381329], [-111.42458438890893, 26.2068905038643], [-111.42458438883327, 26.206890503922807], [-111.42458438876356, 26.20689050398827], [-111.42458438870041, 26.20689050406009], [-111.42458438864442, 26.206890504137615], [-111.42458438859609, 26.206890504220137], [-111.42409086228595, 26.20783384499916], [-111.42409086227336, 26.207833845020502], [-111.42409086224909, 26.207833845026048], [-111.42310380937813, 26.208007110912693], [-111.4231038093566, 26.208007110915517], [-111.42310380933499, 26.208007110916455], [-111.42286777498684, 26.208007110916455], [-111.4228677749637, 26.20800711091537], [-111.42286777494347, 26.208007110903882], [-111.4222884179624, 26.207641327150576], [-111.4222884178626, 26.20764132709526], [-111.42228841775714, 26.207641327051675], [-111.42228841764741, 26.20764132702039], [-111.42160177233198, 26.207487312463563], [-111.4216017723103, 26.207487312457587], [-111.42160177232358, 26.207487312439465], [-111.42211675641742, 26.206852000106228], [-111.4221167564645, 26.206852000055736], [-111.42316818227692, 26.205870146945163], [-111.42316818233797, 26.20587014688294], [-111.42316818239338, 26.20587014681564], [-111.42316818244272, 26.20587014674377], [-111.42376899717858, 26.204907537638128], [-111.42376899719339, 26.204907537616954], [-111.42376899721405, 26.20490753760132], [-111.4247345924173, 26.2042529588005], [-111.42473459243743, 26.20425295878825], [-111.42473459245134, 26.204252958806983], [-111.42512083052212, 26.20483052851237], [-111.42512083053481, 26.204830528533563], [-111.42512083054301, 26.20483052855666], [-111.42557144164354, 26.20633219644011], [-111.42557144164908, 26.20633219646245]]], [[[-111.5359497070301, 26.27617682983609], [-111.53594970700672, 26.276176829837237], [-111.51517868044711, 26.276176829837237], [-111.51517868042026, 26.27617682983578], [-111.51517868039532, 26.27617682982581], [-111.50846242912178, 26.273059832964062], [-111.50846242904545, 26.273059832932404], [-111.50846242896678, 26.273059832907155], [-111.50790452959384, 26.272905904993056], [-111.50790452957216, 26.27290590498598], [-111.50790452955752, 26.27290590496857], [-111.5066385269313, 26.27125116673429], [-111.50663852691788, 26.271251166714855], [-111.50663852692858, 26.271251166693705], [-111.51423454283476, 26.25789695051688], [-111.51423454284712, 26.257896950497383], [-111.51423454286791, 26.257896950507046], [-111.51562929063827, 26.258628200457476], [-111.515629290728, 26.258628200499], [-111.5156292908214, 26.25862820053146], [-111.51562929091753, 26.258628200554543], [-111.51562929101549, 26.258628200568015], [-111.51562929111428, 26.258628200571753], [-111.51562929121296, 26.258628200565713], [-111.51562929131057, 26.258628200549957], [-111.51562929140614, 26.25862820052464], [-111.51562929149875, 26.25862820049001], [-111.51562929158749, 26.258628200446402], [-111.51562929167149, 26.258628200394245], [-111.51562929174992, 26.258628200334048], [-111.51562929182202, 26.2586282002664], [-111.5156292918871, 26.258628200191964], [-111.5156292919445, 26.258628200111463], [-111.51562929199368, 26.258628200025687], [-111.51642322492184, 26.257069478294248], [-111.51642322496117, 26.257069478206926], [-111.51642322499197, 26.257069478116236], [-111.51642322501395, 26.257069478023016], [-111.51642322502691, 26.257069477928123], [-111.51642322503075, 26.257069477832424], [-111.51642322502539, 26.257069477736795], [-111.51642322501093, 26.257069477642123], [-111.51642322498746, 26.257069477549262], [-111.51642322495522, 26.257069477459076], [-111.5164232249145, 26.257069477372387], [-111.51642322486568, 26.257069477289992], [-111.5164232248092, 26.257069477212642], [-111.51642322474558, 26.257069477141055], [-111.51642322467539, 26.25706947707588], [-111.51642322459931, 26.25706947701772], [-111.516423224518, 26.257069476967104], [-111.51642322443222, 26.257069476924496], [-111.50500774511268, 26.252066026327583], [-111.50500774501937, 26.252066026292127], [-111.50500774492299, 26.252066026266146], [-111.5050077448245, 26.252066026249903], [-111.50500774472488, 26.25206602624356], [-111.50500774462512, 26.252066026247185], [-111.50500774452622, 26.25206602626073], [-111.50500774442918, 26.252066026284073], [-111.50500774433493, 26.252066026316975], [-111.50500774424444, 26.252066026359106], [-111.50500774415859, 26.25206602641005], [-111.50500774407826, 26.252066026469297], [-111.50500774400423, 26.252066026536262], [-111.50500774393724, 26.25206602661027], [-111.50500774387797, 26.25206602669059], [-111.50500774382701, 26.252066026776415], [-111.50500774378484, 26.2520660268669], [-111.50500774375192, 26.25206602696113], [-111.50500774372856, 26.252066027058177], [-111.50500774371497, 26.25206602715707], [-111.50470733642791, 26.2555299767163], [-111.50470733642472, 26.255529976739737], [-111.5047073364016, 26.255529976745613], [-111.50404214861473, 26.25566468385363], [-111.50404214859037, 26.255664683857304], [-111.50404214856943, 26.25566468384435], [-111.49930000333536, 26.2523931813056], [-111.4993000032549, 26.252393181255542], [-111.49930000317005, 26.252393181213325], [-111.49930000308159, 26.252393181179333], [-111.49930000299031, 26.252393181153863], [-111.49930000289703, 26.25239318113715], [-111.49930000280258, 26.252393181129342], [-111.49930000270783, 26.25239318113051], [-111.49447202684887, 26.252681846821826], [-111.49447202682657, 26.25268184682209], [-111.4944720268339, 26.252681846801064], [-111.49627447127371, 26.248217070236894], [-111.4962744712836, 26.248217070215503], [-111.49627447130575, 26.248217070223607], [-111.49964332487193, 26.24964119823527], [-111.4996433249649, 26.249641198269252], [-111.49964332506077, 26.249641198293876], [-111.49964332515862, 26.249641198308904], [-111.49964332525745, 26.249641198314183], [-111.49964332535635, 26.249641198309664], [-111.4996433254543, 26.24964119829539], [-111.49964332555035, 26.249641198271505], [-111.49964332564359, 26.249641198238237], [-111.49964332573308, 26.249641198195913], [-111.49964332581793, 26.249641198144953], [-111.49964332589734, 26.24964119808585], [-111.49964332597051, 26.249641198019187], [-111.49964332603673, 26.249641197945618], [-111.49964332609537, 26.24964119786586], [-111.49964332614582, 26.249641197780697], [-111.49964332618761, 26.249641197690963], [-111.5014672276177, 26.245157060355552], [-111.50146722765074, 26.245157060261032], [-111.50146722767414, 26.245157060163685], [-111.50146722768771, 26.245157060064482], [-111.50146722769128, 26.24515705996442], [-111.50146722768484, 26.245157059864503], [-111.50146722766843, 26.24515705976573], [-111.50146722764222, 26.245157059669094], [-111.5014672276065, 26.245157059575565], [-111.50146722756159, 26.245157059486075], [-111.50146722750796, 26.245157059401524], [-111.50146722744613, 26.24515705932276], [-111.50146722737675, 26.245157059250577], [-111.5014672273005, 26.24515705918569], [-111.50146722721813, 26.245157059128758], [-111.50028705598967, 26.244425724358116], [-111.50028705597052, 26.24442572434493], [-111.50028705597482, 26.244425724321996], [-111.50063037871759, 26.242982286070784], [-111.500630378724, 26.242982286048647], [-111.50063037874696, 26.24298228604985], [-111.50311946798891, 26.24323248323316], [-111.50311946809093, 26.24323248323817], [-111.50311946819293, 26.24323248323275], [-111.50311946829385, 26.243232483216953], [-111.50311946839263, 26.243232483190944], [-111.50311946848822, 26.243232483154994], [-111.50311946857967, 26.243232483109477], [-111.50311946866599, 26.24323248305487], [-111.50311946874629, 26.243232482991743], [-111.50311946881973, 26.243232482920753], [-111.50311946888556, 26.243232482842643], [-111.50311946894305, 26.243232482758227], [-111.50311946899166, 26.243232482668382], [-111.50545835493934, 26.238324669583566], [-111.50545835495056, 26.238324669562715], [-111.50545835497304, 26.23832466956978], [-111.51020050046532, 26.240076109217963], [-111.5102005004869, 26.240076109227168], [-111.51020050048211, 26.24007610925018], [-111.50923490546919, 26.24379061283267], [-111.50923490544926, 26.243790612928233], [-111.50923490543876, 26.243790613025286], [-111.50923490543776, 26.243790613122897], [-111.50923490544629, 26.243790613220146], [-111.50923490546425, 26.243790613316094], [-111.5092349054915, 26.243790613409836], [-111.50923490552775, 26.243790613500476], [-111.50923490557267, 26.243790613587148], [-111.50923490562582, 26.243790613669027], [-111.5092349056867, 26.243790613745336], [-111.50923490575472, 26.243790613815346], [-111.50923490582926, 26.243790613878385], [-111.50923490590958, 26.24379061393386], [-111.50923490599493, 26.243790613981236], [-111.5092349060845, 26.243790614020067], [-111.51781797340142, 26.24702386784271], [-111.51781797349435, 26.247023867872624], [-111.51781797358974, 26.247023867893333], [-111.5178179736867, 26.24702386790464], [-111.5178179737843, 26.247023867906442], [-111.5178179738816, 26.24702386789872], [-111.51781797397771, 26.247023867881545], [-111.51781797407168, 26.247023867855084], [-111.51781797416261, 26.247023867819586], [-111.51781797424964, 26.247023867775393], [-111.51781797433196, 26.247023867722923], [-111.51781797440877, 26.247023867662676], [-111.51781797447934, 26.247023867595228], [-111.517817974543, 26.247023867521218], [-111.51955604479103, 26.244791393486814], [-111.51955604484716, 26.24479139340697], [-111.51955604489524, 26.244791393322036], [-111.5195560449348, 26.244791393232816], [-111.51955604496548, 26.24479139314017], [-111.51955604498698, 26.244791393044967], [-111.5195560449991, 26.244791392948127], [-111.51955604500174, 26.244791392850562], [-111.51955604499483, 26.244791392753207], [-111.51955604497847, 26.24479139265699], [-111.51955604495282, 26.244791392562824], [-111.5195560449181, 26.244791392471612], [-111.51955604487466, 26.244791392384215], [-111.5195560448229, 26.24479139230147], [-111.51955604476332, 26.244791392224162], [-111.5195560446965, 26.244791392153033], [-111.51955604462306, 26.244791392088757], [-111.51955604454369, 26.244791392031946], [-111.51955604445918, 26.24479139198314], [-111.51779651643989, 26.24388684282238], [-111.51779651641978, 26.243886842810774], [-111.51779651642464, 26.243886842787823], [-111.5191268920837, 26.238825083610383], [-111.51912689209058, 26.238825083588537], [-111.51912689211181, 26.238825083596783], [-111.52738809485807, 26.242501135520246], [-111.527388094949, 26.242501135555504], [-111.52738809504294, 26.242501135581737], [-111.52738809513899, 26.242501135598694], [-111.52738809523622, 26.242501135606215], [-111.52738809533373, 26.242501135604225], [-111.52738809543058, 26.242501135592747], [-111.52738809552585, 26.24250113557189], [-111.52738809561865, 26.24250113554185], [-111.52738809570806, 26.242501135502913], [-111.52738809579327, 26.242501135455452], [-111.52738809587345, 26.242501135399916], [-111.52738809594783, 26.242501135336834], [-111.52738809601571, 26.242501135266807], [-111.52738809607645, 26.2425011351905], [-111.52738809612947, 26.24250113510864], [-111.52738809617426, 26.242501135022003], [-111.5273880962104, 26.242501134931416], [-111.53034925460042, 26.233878588842455], [-111.53034925460881, 26.233878588821387], [-111.53034925463035, 26.233878588828947], [-111.5359497070083, 26.23614976818281], [-111.53594970703007, 26.23614976819292], [-111.53594970703125, 26.236149768216745], [-111.53594970703125, 26.276176829812723], [-111.5359497070301, 26.27617682983609]]]]}}, {"type": "Feature", "id": 5, "properties": {"actividad": "Agricultura", "conflictos_potenciales": "Uso de suelo, afectación del balance hídrico por sobreexplotación de agua ", "fragilidad": "baja", "localidad_referencia": "El Cimarrón, La Giganta", "nombre": "UGA-19", "poblacion": 49, "politica_ambiental": "Restauración", "presion": "alta", "superficie_total": 3228.57, "vulnerabilidad": "media"}, "geometry": {"type": "Polygon", "coordinates": [[[-111.43670797347852, 26.195512053520144], [-111.4367079734677, 26.195512053540682], [-111.43520593646618, 26.19805352969447], [-111.43520593640565, 26.1980535298147], [-111.43490552903178, 26.19876590326706], [-111.4349055290232, 26.19876590328492], [-111.43490552902223, 26.198765903265226], [-111.43490552902223, 26.198573372603718], [-111.43490552901758, 26.19857337250751], [-111.43490552900371, 26.198573372412195], [-111.43490552898074, 26.198573372318656], [-111.43490552894886, 26.198573372227763], [-111.4349055289084, 26.198573372140356], [-111.4349055288597, 26.198573372057247], [-111.43490552880324, 26.19857337197921], [-111.43490552873953, 26.198573371906967], [-111.43490552866918, 26.19857337184119], [-111.43490552859282, 26.198573371782484], [-111.43490552851117, 26.1985733717314], [-111.43490552842496, 26.198573371688404], [-111.43490552833504, 26.198573371653904], [-111.43490552824221, 26.198573371628214], [-111.43490552814734, 26.198573371611577], [-111.4349055280513, 26.19857337160414], [-111.434905527955, 26.19857337160598], [-111.43490552785933, 26.198573371617076], [-111.43490552776515, 26.198573371637327], [-111.43490552767338, 26.19857337166654], [-111.43490552758483, 26.19857337170445], [-111.43490552750033, 26.198573371750705], [-111.4349055274207, 26.19857337180487], [-111.43490552734663, 26.19857337186645], [-111.43288850806378, 26.20042167339118], [-111.43288850799557, 26.200421673460056], [-111.43288850793435, 26.200421673535214], [-111.4328885078807, 26.200421673615942], [-111.43288850783512, 26.20042167370149], [-111.43288850779803, 26.20042167379105], [-111.43288850776977, 26.200421673883778], [-111.43263101578368, 26.201442078425597], [-111.4326310157769, 26.20144207844776], [-111.43263101575793, 26.201442078434383], [-111.43179416709694, 26.200787480552385], [-111.43179416701606, 26.200787480495343], [-111.43179416692996, 26.200787480446575], [-111.43179416683944, 26.200787480406554], [-111.43179416674542, 26.20078748037568], [-111.4317941666488, 26.20078748035425], [-111.43179416655055, 26.200787480342473], [-111.4317941664516, 26.200787480340466], [-111.43179416635294, 26.20078748034825], [-111.43179416625554, 26.200787480365747], [-111.43179416616034, 26.200787480392787], [-111.43179416606829, 26.200787480429103], [-111.43179416598026, 26.200787480474343], [-111.43082857134054, 26.201345814210587], [-111.43082857132028, 26.201345814221035], [-111.43082857131331, 26.20134581419942], [-111.43050670624417, 26.200152131218626], [-111.43050670623924, 26.200152131196006], [-111.43050670626224, 26.200152131193313], [-111.43164396184436, 26.200075119035297], [-111.43164396194292, 26.200075119023687], [-111.43164396203987, 26.20007511900236], [-111.4316439621342, 26.20007511897153], [-111.43164396222504, 26.200075118931498], [-111.43164396231144, 26.200075118882662], [-111.43164396239258, 26.2000751188255], [-111.43164396246766, 26.200075118760576], [-111.43164396253592, 26.20007511868853], [-111.43164396259671, 26.20007511861007], [-111.43164396264943, 26.200075118525973], [-111.43164396269354, 26.200075118437063], [-111.43164396272863, 26.200075118344216], [-111.43164396275434, 26.20007511824835], [-111.43164396277041, 26.20007511815041], [-111.4316439627767, 26.200075118051355], [-111.43164396277315, 26.200075117952164], [-111.43160104754712, 26.199574538604452], [-111.43160104753358, 26.199574538505214], [-111.43160104751017, 26.199574538407827], [-111.43160104747714, 26.19957453831327], [-111.43160104743482, 26.199574538222492], [-111.43160104738364, 26.199574538136403], [-111.4316010473241, 26.199574538055863], [-111.43160104725679, 26.19957453798169], [-111.43063545228804, 26.19861187696569], [-111.43063545227145, 26.198611876947428], [-111.4306354522568, 26.198611876927707], [-111.43050670625136, 26.198419343755166], [-111.43050670623944, 26.198419343735278], [-111.4305067062594, 26.198419343723238], [-111.43093585966056, 26.198188303469195], [-111.43093585968045, 26.198188303459606], [-111.43093585970239, 26.19818830345753], [-111.43170833570001, 26.198149796710158], [-111.43170833578704, 26.198149796701998], [-111.43170833587301, 26.198149796686266], [-111.4317083359573, 26.19814979666309], [-111.43170833603922, 26.198149796632638], [-111.43280267668614, 26.19768771481873], [-111.43280267677096, 26.197687714778116], [-111.4328026768516, 26.19768771472971], [-111.43280267692732, 26.197687714673943], [-111.43280267699747, 26.197687714611313], [-111.43280267706143, 26.197687714542365], [-111.43280267711863, 26.197687714467715], [-111.43280267716857, 26.19768771438802], [-111.43280267721079, 26.197687714303992], [-111.43280267724494, 26.197687714216364], [-111.4328026772707, 26.197687714125916], [-111.43297433852557, 26.196956080935674], [-111.43297433853265, 26.196956080911285], [-111.43297433855415, 26.19695608089773], [-111.43417596803961, 26.196282203762735], [-111.43417596812347, 26.196282203710084], [-111.43417596820171, 26.196282203649396], [-111.43417596827358, 26.196282203581273], [-111.43469095228626, 26.19574309912071], [-111.43469095230162, 26.195743099105943], [-111.43469095231926, 26.195743099094024], [-111.43544197080415, 26.1952810074883], [-111.43544197082556, 26.19528100747655], [-111.43544197085001, 26.19528100747396], [-111.43612861630939, 26.19524249975808], [-111.43612861633275, 26.195242499757878], [-111.43612861635364, 26.19524249976833], [-111.43647193900128, 26.195435038174335], [-111.43647193908883, 26.19543503821795], [-111.43647193918022, 26.195435038252803], [-111.43670797345658, 26.195512053511756], [-111.43670797347852, 26.195512053520144]]]}}, {"type": "Feature", "id": 6, "properties": {"actividad": "Agricultura", "conflictos_potenciales": "Uso de suelo, afectación del balance hídrico por sobreexplotación de agua ", "fragilidad": "baja", "localidad_referencia": "El Cimarrón, La Giganta", "nombre": "UGA-19", "poblacion": 49, "politica_ambiental": "Restauración", "presion": "alta", "superficie_total": 3228.57, "vulnerabilidad": "media"}, "geometry": {"type": "Polygon", "coordinates": [[[-111.40655994415167, 26.212646690618755], [-111.4065599441478, 26.212646690642497], [-111.40647411346944, 26.213050960563812], [-111.40647411346342, 26.21305096058666], [-111.40647411344007, 26.21305096058779], [-111.40488624575244, 26.21305096058779], [-111.40488624572887, 26.213050960586617], [-111.40488624573057, 26.213050960563198], [-111.40510082244577, 26.211299113937137], [-111.40510082244973, 26.21129911391414], [-111.40510082247312, 26.211299113913334], [-111.4064526557676, 26.211318365118288], [-111.40645265579116, 26.211318365119787], [-111.40645265579424, 26.211318365143388], [-111.40655994415089, 26.212646690594642], [-111.40655994415167, 26.212646690618755]]]}}, {"type": "Feature", "id": 7, "properties": {"actividad": "Agricultura", "conflictos_potenciales": "Uso de suelo, afectación del balance hídrico por sobreexplotación de agua ", "fragilidad": "baja", "localidad_referencia": "El Cimarrón, La Giganta", "nombre": "UGA-19", "poblacion": 49, "politica_ambiental": "Restauración", "presion": "alta", "superficie_total": 3228.57, "vulnerabilidad": "media"}, "geometry": {"type": "Polygon", "coordinates": [[[-111.39965057372932, 26.213859496310043], [-111.39965057371228, 26.213859496296205], [-111.3995432863829, 26.213763243262992], [-111.39954328630634, 26.213763243200844], [-111.39954328622404, 26.213763243146538], [-111.39954328613679, 26.2137632431006], [-111.39954328604544, 26.21376324306348], [-111.39954328595088, 26.213763243035533], [-111.39954328585404, 26.213763243017038], [-111.39954328575583, 26.21376324300817], [-111.39954328565723, 26.213763243009016], [-111.39954328555919, 26.213763243019567], [-111.39954328546267, 26.213763243039722], [-111.39954328536861, 26.213763243069284], [-111.39954328527791, 26.21376324310797], [-111.39954328519146, 26.213763243155395], [-111.39954328511011, 26.21376324321111], [-111.39954328503462, 26.21376324327456], [-111.39954328496577, 26.213763243345134], [-111.3995432849042, 26.21376324342215], [-111.39954328485051, 26.213763243504854], [-111.39954328480523, 26.213763243592446], [-111.39935016633106, 26.214186759153005], [-111.39935016632003, 26.214186759174332], [-111.39935016629626, 26.21418675917697], [-111.39778375628069, 26.214283012782015], [-111.39778375625733, 26.214283012782296], [-111.3977837562572, 26.214283012758752], [-111.39786958694349, 26.212338674486404], [-111.39786958694567, 26.212338674462934], [-111.39786958696902, 26.212338674462686], [-111.39887809750981, 26.212377176525028], [-111.39887809753311, 26.21237717652706], [-111.39887809753587, 26.212377176550298], [-111.39894247049098, 26.213301221390605], [-111.39894247050312, 26.21330122149107], [-111.39894247052534, 26.213301221589795], [-111.39894247055743, 26.213301221685768], [-111.39894247059905, 26.213301221778007], [-111.39894247064977, 26.213301221865567], [-111.3989424707091, 26.21330122194755], [-111.3989424707764, 26.21330122202312], [-111.398942470851, 26.213301222091502], [-111.39894247093211, 26.213301222151994], [-111.39894247101894, 26.213301222203977], [-111.39894247111057, 26.21330122224692], [-111.39894247120607, 26.21330122228038], [-111.39894247130447, 26.21330122230402], [-111.39894247140475, 26.213301222317593], [-111.3996291160344, 26.213358974857595], [-111.3996291160573, 26.213358974860636], [-111.3996291160594, 26.213358974883707], [-111.39965057372945, 26.21385949628824], [-111.39965057372932, 26.213859496310043]]]}}, {"type": "Feature", "id": 1, "properties": {"actividad": "Conservación y Turismo Alternativo", "conflictos_potenciales": "Afectación a la biodiversidad por el aprovechamiento de fauna o flora silvestre, afectación al  oasis, uso de agua ", "fragilidad": "alta", "localidad_referencia": "El Saucito ", "nombre": "UGA-44", "poblacion": 0, "politica_ambiental": "Restauración", "presion": "alta", "superficie_total": 503.88, "vulnerabilidad": "alta"}, "geometry": {"type": "Polygon", "coordinates": [[[-111.4219880104052, 25.930182413840686], [-111.42198801039389, 25.93018241386328], [-111.42140865343781, 25.931205175304445], [-111.42140865339324, 25.931205175393117], [-111.42140865335769, 25.931205175485772], [-111.42140865333148, 25.931205175581493], [-111.4214086533149, 25.931205175679338], [-111.42140865330809, 25.931205175778345], [-111.42140865331113, 25.93120517587754], [-111.421408653324, 25.931205175975947], [-111.42158031463187, 25.93215073990833], [-111.421580314635, 25.932150739932137], [-111.42158031462262, 25.9321507399524], [-111.42110824594805, 25.93284543526358], [-111.42110824590249, 25.9328454353373], [-111.42110824586348, 25.932845435414688], [-111.42110824583133, 25.93284543549516], [-111.42110824580627, 25.93284543557812], [-111.42037868500361, 25.935701362641858], [-111.42037868499641, 25.935701362665252], [-111.42037868498713, 25.935701362687432], [-111.41986370089109, 25.936781965685157], [-111.41986370084825, 25.936781965789915], [-111.41958475113843, 25.93759241150763], [-111.41958475112772, 25.9375924115338], [-111.41958475111399, 25.937592411558732], [-111.41911268235432, 25.938344963335794], [-111.41911268234182, 25.938344963353902], [-111.41911268232383, 25.938344963366468], [-111.41838312167214, 25.938808069661984], [-111.41838312158585, 25.9388080697234], [-111.41838312150654, 25.9388080697936], [-111.4183831214351, 25.938808069871794], [-111.41838312137233, 25.938808069957098], [-111.41782522202911, 25.93965709346923], [-111.41782522201457, 25.939657093489117], [-111.41782522199222, 25.939657093499623], [-111.41683816938401, 25.940062307078197], [-111.41683816929357, 25.940062307120723], [-111.41683816920782, 25.940062307172063], [-111.41683816912763, 25.940062307231706], [-111.41683816905379, 25.94006230729906], [-111.41683816898706, 25.94006230737344], [-111.41683816892807, 25.940062307454117], [-111.41655921937351, 25.940486815276717], [-111.41655921935953, 25.94048681529593], [-111.41655921934056, 25.940486815310468], [-111.41552925111536, 25.941200757277564], [-111.41552925109814, 25.94120075728849], [-111.41552925108047, 25.941200757297807], [-111.41516447068987, 25.941374418192297], [-111.41516447067231, 25.94137441819985], [-111.41516447065437, 25.941374418205978], [-111.41464948672372, 25.941528783185547], [-111.41464948663521, 25.941528783216675], [-111.41464948655, 25.941528783255958], [-111.41464948646886, 25.941528783303056], [-111.41464948639248, 25.941528783357548], [-111.41327619554397, 25.94260933283825], [-111.41327619552564, 25.942609332851358], [-111.41327619550502, 25.942609332861018], [-111.41192436220628, 25.943168899281105], [-111.41192436218226, 25.94316889928963], [-111.41192436215746, 25.94316889929567], [-111.40999317171239, 25.943535510339693], [-111.40999317167116, 25.94353551034575], [-111.40907049181666, 25.943631986744023], [-111.40907049176477, 25.94363198674673], [-111.40786886222662, 25.94363198674673], [-111.40786886215231, 25.943631986749494], [-111.4078688620784, 25.943631986757776], [-111.40696763994784, 25.943767053574632], [-111.40696763992307, 25.943767053577083], [-111.4069676398984, 25.943767053574565], [-111.40583038337581, 25.94359339620641], [-111.40583038330055, 25.94359339619782], [-111.40583038322487, 25.943593396194952], [-111.40514373781673, 25.943593396194952], [-111.40514373779315, 25.943593396193833], [-111.40514373777013, 25.943593396188255], [-111.4041566849088, 25.943303966663382], [-111.40415668484165, 25.943303966646194], [-111.40327692034386, 25.943111013236415], [-111.40327692031924, 25.94311101322967], [-111.40327692029938, 25.943111013213574], [-111.4028048516872, 25.942686514727647], [-111.40280485160729, 25.942686514662906], [-111.40280485152115, 25.942686514606713], [-111.4028048514297, 25.942686514559664], [-111.40280485133391, 25.942686514522258], [-111.40181779864072, 25.942358491870294], [-111.40181779861526, 25.942358491860237], [-111.40181779859259, 25.942358491844832], [-111.40138864518794, 25.94203046823357], [-111.40138864515734, 25.942030468208184], [-111.40102386477818, 25.941702443696627], [-111.40102386471168, 25.941702443641816], [-111.40035867692704, 25.9412007573017], [-111.40035867691094, 25.941200757288474], [-111.40035867689615, 25.941200757274114], [-111.39973640443702, 25.940544702665566], [-111.399736404403, 25.940544702625722], [-111.39930725099423, 25.939985123763183], [-111.39930725096171, 25.939985123715278], [-111.39868497849538, 25.938943142158134], [-111.39868497848582, 25.938943142140584], [-111.39868497847773, 25.938943142122426], [-111.398277282752, 25.93792044762753], [-111.39827728271041, 25.937920447536676], [-111.39827728265996, 25.937920447450427], [-111.39784812928666, 25.937264374642922], [-111.39784812927377, 25.937264374620803], [-111.39784812927091, 25.93726437459539], [-111.3978052139359, 25.936550408897652], [-111.39780521392721, 25.93655040881325], [-111.39780521391141, 25.93655040872989], [-111.3978052138886, 25.93655040864817], [-111.39754772187057, 25.9357592523909], [-111.39754772185745, 25.935759252342482], [-111.39733314515067, 25.934775123614468], [-111.39733314512908, 25.934775123532376], [-111.39701128006864, 25.93373309591806], [-111.39701128006155, 25.933733095889085], [-111.39701128005798, 25.93373309585981], [-111.39696836471701, 25.933038405670036], [-111.39696836471666, 25.933038405647302], [-111.39696836472264, 25.93303840562492], [-111.3972687721055, 25.93209284852001], [-111.39726877213675, 25.93209284839375], [-111.39737606048209, 25.93149463490946], [-111.39737606048672, 25.931494634888754], [-111.39737606049471, 25.931494634869274], [-111.39763355250338, 25.930935013097773], [-111.39763355254506, 25.930935012991647], [-111.39763355257439, 25.930935012881463], [-111.39774084090618, 25.93041398335061], [-111.39774084092063, 25.930413983296223], [-111.39816999434737, 25.92910175026239], [-111.39816999435513, 25.929101750241816], [-111.3981699943665, 25.92910175022274], [-111.39879226682785, 25.92815616148936], [-111.3987922668617, 25.928156161434107], [-111.39926433561945, 25.927326352836324], [-111.39926433563342, 25.9273263528145], [-111.39926433565138, 25.927326352796204], [-111.40029430387438, 25.926380749807393], [-111.40029430389484, 25.926380749790525], [-111.40029430391839, 25.926380749778385], [-111.40123844134133, 25.92595619091817], [-111.40123844142295, 25.92595619087688], [-111.40123844150045, 25.925956190828305], [-111.4012384415732, 25.92595619077285], [-111.40186071383124, 25.925435139284854], [-111.40186071391145, 25.92543513920984], [-111.40186071398293, 25.925435139126478], [-111.40186071404484, 25.92543513903578], [-111.40265464781426, 25.924122850679467], [-111.40265464782807, 25.924122850659], [-111.40265464784706, 25.92412285064362], [-111.40368461585469, 25.923370208173683], [-111.40368461592794, 25.923370208114672], [-111.40368461599532, 25.923370208049043], [-111.40368461605624, 25.92337020797737], [-111.40368461611016, 25.923370207900295], [-111.4036846161566, 25.92337020781849], [-111.40368461619514, 25.923370207732685], [-111.40404939650608, 25.92244387200537], [-111.4040493965158, 25.92244387198379], [-111.40404939653595, 25.922443871970955], [-111.40634536733872, 25.92113155021389], [-111.40634536742829, 25.921131550156158], [-111.40634536751121, 25.921131550089218], [-111.40692472455818, 25.920610477168548], [-111.4069247246015, 25.92061047713375], [-111.40797615049273, 25.919857812082522], [-111.40797615051316, 25.919857812069356], [-111.40797615053701, 25.919857812065036], [-111.40900611874208, 25.919722717831185], [-111.40900611880703, 25.919722717826943], [-111.40999317151527, 25.919722717826943], [-111.40999317160257, 25.919722717823124], [-111.40999317168921, 25.919722717811702], [-111.4099931717745, 25.919722717792755], [-111.40999317185783, 25.919722717766437], [-111.41078710553855, 25.919433229653727], [-111.4107871055604, 25.919433229646888], [-111.41078710558297, 25.919433229650537], [-111.41170978543333, 25.91962622183967], [-111.41170978548982, 25.919626221849803], [-111.41261100761673, 25.919761316186353], [-111.41261100769066, 25.919761316194634], [-111.41261100776498, 25.919761316197402], [-111.41327619550242, 25.919761316197402], [-111.41327619552605, 25.91976131619852], [-111.41327619554939, 25.919761316201857], [-111.41458511350729, 25.92001220529379], [-111.41458511354377, 25.920012205300083], [-111.41546487806318, 25.920147299203865], [-111.41546487808208, 25.92014729920752], [-111.4154648781008, 25.920147299212676], [-111.41619443891048, 25.92037888839828], [-111.41619443893376, 25.92037888840697], [-111.41619443895495, 25.920378888420185], [-111.4166665076747, 25.920706972293587], [-111.4166665077705, 25.920706972352466], [-111.41709566111177, 25.92093856039749], [-111.41709566121786, 25.920938560446952], [-111.4178252219946, 25.921228044901763], [-111.4178252220149, 25.92122804491089], [-111.4178252220333, 25.921228044923502], [-111.41874790189628, 25.92192280475772], [-111.41874790191564, 25.921922804773892], [-111.41874790193324, 25.921922804791915], [-111.41932725904503, 25.92257896308473], [-111.4193272590624, 25.92257896310679], [-111.41932725907724, 25.92257896313079], [-111.4197564124518, 25.923370207902437], [-111.4197564125114, 25.923370207998854], [-111.41975641258153, 25.923370208087903], [-111.42042160030383, 25.92412285061521], [-111.42042160038442, 25.924122850696502], [-111.4208507537648, 25.92450881936914], [-111.4208507537831, 25.924508819387416], [-111.42085075379732, 25.92450881940923], [-111.42136573790145, 25.925396542642023], [-111.42136573791365, 25.925396542665943], [-111.42136573791755, 25.92539654269241], [-111.42140865325345, 25.92585969991983], [-111.42140865327303, 25.925859700044644], [-111.4215159416144, 25.926342153561798], [-111.4215159416186, 25.926342153586383], [-111.42151594161531, 25.926342153611017], [-111.42147302633074, 25.926573730317237], [-111.42147302631764, 25.926573730414212], [-111.42147302631409, 25.926573730512], [-111.4214730263201, 25.92657373060967], [-111.42147302633563, 25.926573730706284], [-111.42147302636053, 25.926573730800918], [-111.42147302639457, 25.926573730892663], [-111.42168760296903, 25.927075479216334], [-111.42168760303343, 25.9270754793417], [-111.42194509504945, 25.927500034156004], [-111.42194509506106, 25.927500034177456], [-111.42194509506356, 25.927500034201746], [-111.4219880104029, 25.92831054375371], [-111.42198801041938, 25.92831054388912], [-111.42209529876291, 25.928870178158764], [-111.42209529876611, 25.92887017818068], [-111.42209529876344, 25.92887017820246], [-111.4219880104204, 25.929507000170094], [-111.42198801040999, 25.92950700025287], [-111.42198801040651, 25.929507000336226], [-111.42198801040651, 25.93018241381529], [-111.4219880104052, 25.930182413840686]]]}}]}