{
  "type": "FeatureCollection",
  "features": [
    {
      "type": "Feature",
      "geometry": {
        "type": "Polygon",
        "coordinates": [
          [
            [
              -111.410888795,
              26.087135534
            ],
            [
              -111.380287481,
              26.087137533
            ],
            [
              -111.380286596,
              26.10518979
            ],
            [
              -111.359907097,
              26.1051875370001
            ],
            [
              -111.359903509,
              26.121459411
            ],
            [
              -111.392898702,
              26.12146159
            ],
            [
              -111.392899826,
              26.13951375
            ],
            [
              -111.41089997,
              26.13951174
            ],
            [
              -111.410888795,
              26.087135534
            ]
          ]
        ]
      },
      "properties": {
        "TITULO": 236803,
        "NOMBRELOTE": "MARYFER",
        "MUNICIPIO": "Loreto",
        "ESTADO": "Baja california sur",
        "SUPERFICIE": "1891.69910000000",
        "TITULAR": "SOCORRO DEL CARMEN VALLES VILLARREAL",
        "SUST1": "POT",
        "SUST2": "TSP",
        "EXPEDICION": "2010/08/31"
      }
    },
    {
      "type": "Feature",
      "geometry": {
        "type": "Polygon",
        "coordinates": [
          [
            [
              -111.440875656,
              26.087127261
            ],
            [
              -111.410888785,
              26.087135516
            ],
            [
              -111.410899961,
              26.1395117320001
            ],
            [
              -111.44490023,
              26.139501803
            ],
            [
              -111.444877523,
              26.094371449
            ],
            [
              -111.440879028,
              26.0943730220001
            ],
            [
              -111.440875656,
              26.087127261
            ]
          ]
        ]
      },
      "properties": {
        "TITULO": 236804,
        "NOMBRELOTE": "MARYFER FRACC. 1",
        "MUNICIPIO": "Loreto",
        "ESTADO": "Baja california sur",
        "SUPERFICIE": "1940.82700000000",
        "TITULAR": "SOCORRO DEL CARMEN VALLES VILLARREAL",
        "SUST1": "POT",
        "SUST2": "TSP",
        "EXPEDICION": "2010/08/31"
      }
    },
    {
      "type": "Feature",
      "geometry": {
        "type": "Polygon",
        "coordinates": [
          [
            [
              -111.425247198,
              26.0853519660001
            ],
            [
              -111.425247489,
              26.086229702
            ],
            [
              -111.440875236,
              26.0862246230001
            ],
            [
              -111.440874829,
              26.085346888
            ],
            [
              -111.425247198,
              26.0853519660001
            ]
          ]
        ]
      },
      "properties": {
        "TITULO": 236805,
        "NOMBRELOTE": "MARYFER FRACC. 2",
        "MUNICIPIO": "Loreto",
        "ESTADO": "Baja california sur",
        "SUPERFICIE": "15.20380000000",
        "TITULAR": "SOCORRO DEL CARMEN VALLES VILLARREAL",
        "SUST1": "POT",
        "SUST2": "TSP",
        "EXPEDICION": "2010/08/31"
      }
    },
    {
      "type": "Feature",
      "geometry": {
        "type": "Polygon",
        "coordinates": [
          [
            [
              -111.474943883,
              26.0729807340001
            ],
            [
              -111.474943947,
              26.067565038
            ],
            [
              -111.474943991,
              26.063954573
            ],
            [
              -111.467948431,
              26.0639543340001
            ],
            [
              -111.467948757,
              26.059441247
            ],
            [
              -111.457955484,
              26.0594403150001
            ],
            [
              -111.457954775,
              26.063953403
            ],
            [
              -111.459953506,
              26.063953645
            ],
            [
              -111.45995225,
              26.0729798130001
            ],
            [
              -111.474943883,
              26.0729807340001
            ]
          ]
        ]
      },
      "properties": {
        "TITULO": 236867,
        "NOMBRELOTE": "STA. ELENA",
        "MUNICIPIO": "Loreto",
        "ESTADO": "Baja california sur",
        "SUPERFICIE": "200.00000000000",
        "TITULAR": "MANUEL SALVADOR BAEZA DAVIS Y SOCIOS",
        "SUST1": "Au",
        "SUST2": "Ag",
        "SUST3": "Cu",
        "EXPEDICION": "2010/09/14"
      }
    },
    {
      "type": "Feature",
      "geometry": {
        "type": "Polygon",
        "coordinates": [
          [
            [
              -111.475943408,
              26.053123171
            ],
            [
              -111.467949219,
              26.0531229210001
            ],
            [
              -111.467949618,
              26.0477072090001
            ],
            [
              -111.451961974,
              26.047705374
            ],
            [
              -111.451963111,
              26.0422896530001
            ],
            [
              -111.438973747,
              26.042286856
            ],
            [
              -111.438969992,
              26.0540209210001
            ],
            [
              -111.437970711,
              26.0540206580001
            ],
            [
              -111.437968939,
              26.059436374
            ],
            [
              -111.467948757,
              26.059441247
            ],
            [
              -111.467949152,
              26.0540255390001
            ],
            [
              -111.474944122,
              26.054025782
            ],
            [
              -111.474943883,
              26.0729807340001
            ],
            [
              -111.45995225,
              26.0729798130001
            ],
            [
              -111.459951253,
              26.080200741
            ],
            [
              -111.479941324,
              26.080201614
            ],
            [
              -111.479941095,
              26.0729806950001
            ],
            [
              -111.475943326,
              26.07298074
            ],
            [
              -111.475943343,
              26.067565045
            ],
            [
              -111.475943408,
              26.053123171
            ]
          ]
        ]
      },
      "properties": {
        "TITULO": 236868,
        "NOMBRELOTE": "SAN JUDAS",
        "MUNICIPIO": "Loreto",
        "ESTADO": "Baja california sur",
        "SUPERFICIE": "650.00000000000",
        "TITULAR": "MANUEL SALVADOR BAEZA DAVIS Y SOCIOS",
        "SUST1": "Au",
        "SUST2": "Ag",
        "SUST3": "Cu",
        "EXPEDICION": "2010/09/14"
      }
    },
    {
      "type": "Feature",
      "geometry": {
        "type": "Polygon",
        "coordinates": [
          [
            [
              -111.4909433,
              26.086225637
            ],
            [
              -111.495941074,
              26.0862257040001
            ],
            [
              -111.495941018,
              26.069219511
            ],
            [
              -111.490943966,
              26.069219439
            ],
            [
              -111.4909433,
              26.086225637
            ]
          ]
        ]
      },
      "properties": {
        "TITULO": 236988,
        "NOMBRELOTE": "LA MISION",
        "MUNICIPIO": "Loreto",
        "ESTADO": "Baja california sur",
        "SUPERFICIE": "94.20510000000",
        "TITULAR": "MANUEL SALVADOR BAEZA DAVIS Y SOCIOS",
        "SUST1": "Au",
        "SUST2": "Ag",
        "SUST3": "Cu",
        "EXPEDICION": "2010/10/08"
      }
    },
    {
      "type": "Feature",
      "geometry": {
        "type": "Polygon",
        "coordinates": [
          [
            [
              -111.495941071,
              26.085930192
            ],
            [
              -111.496380065,
              26.085930192
            ],
            [
              -111.520369316,
              26.0859281040001
            ],
            [
              -111.52036447,
              26.0624601420001
            ],
            [
              -111.495941095,
              26.062462195
            ],
            [
              -111.495941071,
              26.085930192
            ]
          ]
        ]
      },
      "properties": {
        "TITULO": 236989,
        "NOMBRELOTE": "LA TRINIDAD",
        "MUNICIPIO": "Loreto",
        "ESTADO": "Baja california sur",
        "SUPERFICIE": "635.41890000000",
        "TITULAR": "JOSE RAMON LOPEZ OROZCO Y SOCIOS",
        "SUST1": "Au",
        "SUST2": "Ag",
        "SUST3": "Pb",
        "SUST4": "Cu",
        "EXPEDICION": "2010/10/08"
      }
    },
    {
      "type": "Feature",
      "geometry": {
        "type": "Polygon",
        "coordinates": [
          [
            [
              -111.359883512,
              26.1214594250001
            ],
            [
              -111.359887103,
              26.105187551
            ],
            [
              -111.358907361,
              26.1051873710001
            ],
            [
              -111.358907356,
              26.10521221
            ],
            [
              -111.3429119,
              26.105208315
            ],
            [
              -111.342910578,
              26.1088187670001
            ],
            [
              -111.345909819,
              26.1088196320001
            ],
            [
              -111.345907978,
              26.114235305
            ],
            [
              -111.348907357,
              26.1142361070001
            ],
            [
              -111.348905375,
              26.120554386
            ],
            [
              -111.351904914,
              26.120555126
            ],
            [
              -111.351903876,
              26.124165568
            ],
            [
              -111.354903508,
              26.124166245
            ],
            [
              -111.354902563,
              26.127776684
            ],
            [
              -111.355902471,
              26.1277768960001
            ],
            [
              -111.355900192,
              26.136802989
            ],
            [
              -111.357900161,
              26.1368033900001
            ],
            [
              -111.357899525,
              26.139511215
            ],
            [
              -111.392879826,
              26.1395137420001
            ],
            [
              -111.392878705,
              26.12146161
            ],
            [
              -111.359883512,
              26.1214594250001
            ]
          ]
        ]
      },
      "properties": {
        "TITULO": 237295,
        "NOMBRELOTE": "MARYFER I",
        "MUNICIPIO": "Loreto",
        "ESTADO": "Baja california sur",
        "SUPERFICIE": "986.26650000000",
        "TITULAR": "SOCORRO DEL CARMEN VALLES VILLARREAL",
        "SUST1": "POT",
        "SUST2": "TSP",
        "EXPEDICION": "2010/11/30"
      }
    },
    {
      "type": "Feature",
      "geometry": {
        "type": "Polygon",
        "coordinates": [
          [
            [
              -111.496379999,
              26.061559577
            ],
            [
              -111.49638,
              26.062462193
            ],
            [
              -111.522363176,
              26.062459791
            ],
            [
              -111.522361182,
              26.053433634
            ],
            [
              -111.521361906,
              26.053433812
            ],
            [
              -111.521359623,
              26.0426024060001
            ],
            [
              -111.506371855,
              26.0426042400001
            ],
            [
              -111.506373452,
              26.0615592070001
            ],
            [
              -111.496379999,
              26.061559577
            ]
          ]
        ]
      },
      "properties": {
        "TITULO": 237402,
        "NOMBRELOTE": "GUADALUPE",
        "MUNICIPIO": "Loreto",
        "ESTADO": "Baja california sur",
        "SUPERFICIE": "350.00000000000",
        "TITULAR": "JOSE RAMON LOPEZ OROZCO Y SOCIOS",
        "SUST1": "Au",
        "SUST2": "Ag",
        "SUST3": "Pb",
        "SUST4": "Cu",
        "EXPEDICION": "2010/12/09"
      }
    },
    {
      "type": "Feature",
      "geometry": {
        "type": "Polygon",
        "coordinates": [
          [
            [
              -111.532182513,
              26.086224719
            ],
            [
              -111.53218317,
              26.0920026040001
            ],
            [
              -111.532184206,
              26.101028721
            ],
            [
              -111.551341323,
              26.101025656
            ],
            [
              -111.551336324,
              26.082973434
            ],
            [
              -111.541341054,
              26.082975339
            ],
            [
              -111.541339341,
              26.073949204
            ],
            [
              -111.531344837,
              26.0739504100001
            ],
            [
              -111.531346126,
              26.086224794
            ],
            [
              -111.532182513,
              26.086224719
            ]
          ]
        ]
      },
      "properties": {
        "TITULO": 237779,
        "NOMBRELOTE": "SAN JOSE",
        "MUNICIPIO": "Loreto",
        "ESTADO": "Baja california sur",
        "SUPERFICIE": "486.27610000000",
        "TITULAR": "JOSE RAMON LOPEZ OROZCO Y SOCIOS",
        "SUST1": "Au",
        "SUST2": "Ag",
        "SUST3": "Pb",
        "SUST4": "Cu",
        "SUST5": "TSP",
        "EXPEDICION": "2011/04/26"
      }
    },
    {
      "type": "Feature",
      "geometry": {
        "type": "Polygon",
        "coordinates": [
          [
            [
              -111.462219918,
              26.088170614
            ],
            [
              -111.461955661,
              26.088170554
            ],
            [
              -111.461955958,
              26.087124449
            ],
            [
              -111.440864284,
              26.0871180230001
            ],
            [
              -111.44086093,
              26.094363827
            ],
            [
              -111.444859426,
              26.094365281
            ],
            [
              -111.444840216,
              26.139495905
            ],
            [
              -111.44394112,
              26.13949559
            ],
            [
              -111.443941069,
              26.1396142020001
            ],
            [
              -111.359940361,
              26.139560034
            ],
            [
              -111.359909362,
              26.166638366
            ],
            [
              -111.55995727,
              26.166686585
            ],
            [
              -111.559922076,
              26.103504327
            ],
            [
              -111.532194725,
              26.1035140980001
            ],
            [
              -111.532203285,
              26.130448844
            ],
            [
              -111.531938932,
              26.1304489120001
            ],
            [
              -111.531938978,
              26.130592399
            ],
            [
              -111.461943734,
              26.130593348
            ],
            [
              -111.461955404,
              26.0890731690001
            ],
            [
              -111.462219663,
              26.08907323
            ],
            [
              -111.462219918,
              26.088170614
            ]
          ]
        ]
      },
      "properties": {
        "TITULO": 238424,
        "NOMBRELOTE": "VELMA",
        "MUNICIPIO": "Loreto",
        "ESTADO": "Baja california sur",
        "SUPERFICIE": "8839.17510000000",
        "TITULAR": "SOCORRO DEL CARMEN VALLES VILLARREAL",
        "SUST1": "POT",
        "SUST2": "TSP",
        "EXPEDICION": "2011/09/23"
      }
    },
    {
      "type": "Feature",
      "geometry": {
        "type": "Polygon",
        "coordinates": [
          [
            [
              -111.475943408,
              26.053123171
            ],
            [
              -111.475943353,
              26.067565045
            ],
            [
              -111.475943336,
              26.07298074
            ],
            [
              -111.479941105,
              26.072980694
            ],
            [
              -111.479941334,
              26.080201613
            ],
            [
              -111.470945802,
              26.080201563
            ],
            [
              -111.470945539,
              26.086225422
            ],
            [
              -111.490941571,
              26.086224765
            ],
            [
              -111.490939439,
              26.069218586
            ],
            [
              -111.49537601,
              26.06921807
            ],
            [
              -111.49537492,
              26.0624607660001
            ],
            [
              -111.496374274,
              26.0624606320001
            ],
            [
              -111.496374121,
              26.061558016
            ],
            [
              -111.506367573,
              26.061556287
            ],
            [
              -111.506362788,
              26.0426013430001
            ],
            [
              -111.506918205,
              26.042601228
            ],
            [
              -111.506917664,
              26.040483325
            ],
            [
              -111.480939333,
              26.0404864440001
            ],
            [
              -111.480939024,
              26.031460247
            ],
            [
              -111.420263594,
              26.031449299
            ],
            [
              -111.4202594,
              26.0401810820001
            ],
            [
              -111.42525522,
              26.040182944
            ],
            [
              -111.425235594,
              26.0853387810001
            ],
            [
              -111.440863224,
              26.0853434530001
            ],
            [
              -111.440862961,
              26.086221193
            ],
            [
              -111.468946419,
              26.086225336
            ],
            [
              -111.468946785,
              26.0802014760001
            ],
            [
              -111.459951253,
              26.080200741
            ],
            [
              -111.459953506,
              26.063953645
            ],
            [
              -111.457954775,
              26.063953403
            ],
            [
              -111.457955484,
              26.0594403150001
            ],
            [
              -111.437968939,
              26.059436374
            ],
            [
              -111.437970711,
              26.0540206580001
            ],
            [
              -111.438969992,
              26.0540209210001
            ],
            [
              -111.438973747,
              26.042286856
            ],
            [
              -111.451963111,
              26.0422896530001
            ],
            [
              -111.451961974,
              26.047705374
            ],
            [
              -111.467949618,
              26.0477072090001
            ],
            [
              -111.467949219,
              26.0531229210001
            ],
            [
              -111.475943408,
              26.053123171
            ]
          ]
        ]
      },
      "properties": {
        "TITULO": 239720,
        "NOMBRELOTE": "LA GIGANTA",
        "MUNICIPIO": "Loreto",
        "ESTADO": "Baja california sur",
        "SUPERFICIE": "3381.62410000000",
        "TITULAR": "JOSE DIMITRIO MARTINEZ Y SOCIOS",
        "SUST1": "Au",
        "SUST2": "Ag",
        "SUST3": "Cu",
        "SUST4": "TSP",
        "EXPEDICION": "2012/02/15"
      }
    },
    {
      "type": "Feature",
      "geometry": {
        "type": "Polygon",
        "coordinates": [
          [
            [
              -111.465137015,
              26.2474459580001
            ],
            [
              -111.465138189,
              26.2311992470001
            ],
            [
              -111.46514321,
              26.1666991170001
            ],
            [
              -111.367119737,
              26.166659514
            ],
            [
              -111.367111898,
              26.1751985070001
            ],
            [
              -111.379115643,
              26.175206941
            ],
            [
              -111.379082615,
              26.215824131
            ],
            [
              -111.387087888,
              26.215829184
            ],
            [
              -111.387072494,
              26.2365889860001
            ],
            [
              -111.395079189,
              26.2365935870001
            ],
            [
              -111.395071917,
              26.24742476
            ],
            [
              -111.465137015,
              26.2474459580001
            ]
          ]
        ]
      },
      "properties": {
        "TITULO": 240380,
        "NOMBRELOTE": "EL TRIUNFO",
        "MUNICIPIO": "Loreto",
        "ESTADO": "Baja california sur",
        "SUPERFICIE": "7431.11460000000",
        "TITULAR": "SOCORRO DEL CARMEN VALLES VILLARREAL",
        "SUST1": "POT",
        "SUST2": "TSP",
        "EXPEDICION": "2012/05/23"
      }
    },
    {
      "type": "Feature",
      "geometry": {
        "type": "Polygon",
        "coordinates": [
          [
            [
              -111.380295587,
              25.9950711170001
            ],
            [
              -111.38028689,
              26.067280823
            ],
            [
              -111.338312351,
              26.067270621
            ],
            [
              -111.338294495,
              26.105180492
            ],
            [
              -111.380282561,
              26.10519063
            ],
            [
              -111.380284602,
              26.087138366
            ],
            [
              -111.462248719,
              26.087123047
            ],
            [
              -111.462274099,
              26.1304482100001
            ],
            [
              -111.532269221,
              26.130398112
            ],
            [
              -111.532216985,
              26.0861705610001
            ],
            [
              -111.425264671,
              26.0862331060001
            ],
            [
              -111.425252472,
              26.0401997270001
            ],
            [
              -111.420256651,
              26.0402007010001
            ],
            [
              -111.420246875,
              25.99506964
            ],
            [
              -111.396276102,
              25.995071851
            ],
            [
              -111.380295587,
              25.9950711170001
            ]
          ]
        ]
      },
      "properties": {
        "TITULO": 246010,
        "NOMBRELOTE": "LORETO",
        "MUNICIPIO": "Loreto",
        "ESTADO": "Baja california sur",
        "SUPERFICIE": "9571.00000000000",
        "TITULAR": "MINERA PIEDRA AZUL, S.A. DE C.V.",
        "SUST1": "Au",
        "SUST2": "Cu",
        "SUST3": "Co",
        "EXPEDICION": "2017/12/20"
      }
    }
  ]
}